has_kiosk,lat,lon,external_id,rental_uris,short_name,rental_methods,electric_bike_surcharge_waiver,eightd_station_services,name,capacity,station_id,station_type,eightd_has_key_dispenser,legacy_id,region_id,region_code,address,rack_model,dockless_bikes_parking_zone_capacity,client_station_id
True,41.87651122881695,-87.62054800987242,a3a36d9e-a135-11e9-9cda-0a87ae2ba916,"{'ios': 'https://chi.lft.to/lastmile_qr_scan', 'android': 'https://chi.lft.to/lastmile_qr_scan'}",15541,"['CREDITCARD', 'KEY', 'TRANSITCARD']",False,[],Buckingham Fountain,39,2,classic,False,2,,,,,,
True,41.86722595682,-87.6153553902,a3a37378-a135-11e9-9cda-0a87ae2ba916,"{'ios': 'https://chi.lft.to/lastmile_qr_scan', 'android': 'https://chi.lft.to/lastmile_qr_scan'}",15544,"['CREDITCARD', 'KEY', 'TRANSITCARD']",False,[],Shedd Aquarium,55,3,classic,False,3,,,,,,
True,41.856268,-87.613348,a3a378ca-a135-11e9-9cda-0a87ae2ba916,"{'ios': 'https://chi.lft.to/lastmile_qr_scan', 'android': 'https://chi.lft.to/lastmile_qr_scan'}",15545,"['CREDITCARD', 'KEY', 'TRANSITCARD']",False,[],Burnham Harbor,23,4,classic,False,4,,,,,,
True,41.874053,-87.627716,a3a37e26-a135-11e9-9cda-0a87ae2ba916,"{'ios': 'https://chi.lft.to/lastmile_qr_scan', 'android': 'https://chi.lft.to/lastmile_qr_scan'}",SL-007,"['CREDITCARD', 'KEY', 'TRANSITCARD']",False,[],State St & Harrison St,23,5,classic,False,5,,,,,,
True,41.886976,-87.612813,a3a38363-a135-11e9-9cda-0a87ae2ba916,"{'ios': 'https://chi.lft.to/lastmile_qr_scan', 'android': 'https://chi.lft.to/lastmile_qr_scan'}",KA1503000064,"['CREDITCARD', 'KEY', 'TRANSITCARD']",False,[],Dusable Harbor,39,6,classic,False,6,,,,,,
True,41.88634906269,-87.6175165471,a3a3888b-a135-11e9-9cda-0a87ae2ba916,"{'ios': 'https://chi.lft.to/lastmile_qr_scan', 'android': 'https://chi.lft.to/lastmile_qr_scan'}",15534,"['CREDITCARD', 'KEY', 'TRANSITCARD']",False,[],Field Blvd & South Water St,19,7,classic,False,7,,,,,,
True,41.82879201994,-87.6806044594,a3a39301-a135-11e9-9cda-0a87ae2ba916,"{'ios': 'https://chi.lft.to/lastmile_qr_scan', 'android': 'https://chi.lft.to/lastmile_qr_scan'}",KA1503000068,"['CREDITCARD', 'KEY', 'TRANSITCARD']",False,[],Leavitt St & Archer Ave,15,9,classic,False,9,,,,,,
True,41.76663823695,-87.5764501141,a3a3983e-a135-11e9-9cda-0a87ae2ba916,"{'ios': 'https://chi.lft.to/lastmile_qr_scan', 'android': 'https://chi.lft.to/lastmile_qr_scan'}",KA1503000018,"['CREDITCARD', 'KEY', 'TRANSITCARD']",False,[],Jeffery Blvd & 71st St,11,11,classic,False,11,,,,,,
True,41.7664094567,-87.5656875719,a3a39d55-a135-11e9-9cda-0a87ae2ba916,"{'ios': 'https://chi.lft.to/lastmile_qr_scan', 'android': 'https://chi.lft.to/lastmile_qr_scan'}",KA1503000002,"['CREDITCARD', 'KEY', 'TRANSITCARD']",False,[],South Shore Dr & 71st St,15,12,classic,False,12,,,,,,
True,41.932418,-87.652705,a3a3a282-a135-11e9-9cda-0a87ae2ba916,"{'ios': 'https://chi.lft.to/lastmile_qr_scan', 'android': 'https://chi.lft.to/lastmile_qr_scan'}",TA1306000014,"['CREDITCARD', 'KEY', 'TRANSITCARD']",False,[],Wilton Ave & Diversey Pkwy,35,13,classic,False,13,,,,,,
True,41.858086,-87.651073,a3a3a7b4-a135-11e9-9cda-0a87ae2ba916,"{'ios': 'https://chi.lft.to/lastmile_qr_scan', 'android': 'https://chi.lft.to/lastmile_qr_scan'}",13163,"['CREDITCARD', 'KEY', 'TRANSITCARD']",False,[],Morgan St & 18th St,15,14,classic,False,14,,,,,,
True,41.858166,-87.656495,a3a3ace6-a135-11e9-9cda-0a87ae2ba916,"{'ios': 'https://chi.lft.to/lastmile_qr_scan', 'android': 'https://chi.lft.to/lastmile_qr_scan'}",13164,"['CREDITCARD', 'KEY', 'TRANSITCARD']",False,[],Racine Ave & 18th St,15,15,classic,False,15,,,,,,
True,41.910337,-87.670072,a3a3b202-a135-11e9-9cda-0a87ae2ba916,"{'ios': 'https://chi.lft.to/lastmile_qr_scan', 'android': 'https://chi.lft.to/lastmile_qr_scan'}",TA1305000037,"['CREDITCARD', 'KEY', 'TRANSITCARD']",False,[],Paulina Ave & North Ave,15,16,classic,False,16,,,,,,
True,41.903119,-87.673935,a3a3b731-a135-11e9-9cda-0a87ae2ba916,"{'ios': 'https://chi.lft.to/lastmile_qr_scan', 'android': 'https://chi.lft.to/lastmile_qr_scan'}",TA1305000034,"['CREDITCARD', 'KEY', 'TRANSITCARD']",False,[],Honore St & Division St,23,17,classic,False,17,,,,,,
True,41.883132,-87.637321,a3a3bc53-a135-11e9-9cda-0a87ae2ba916,"{'ios': 'https://chi.lft.to/lastmile_qr_scan', 'android': 'https://chi.lft.to/lastmile_qr_scan'}",KA1503000072,"['CREDITCARD', 'KEY', 'TRANSITCARD']",False,[],Wacker Dr & Washington St,19,18,classic,False,18,,,,,,
True,41.868968,-87.659141,a3a3c174-a135-11e9-9cda-0a87ae2ba916,"{'ios': 'https://chi.lft.to/lastmile_qr_scan', 'android': 'https://chi.lft.to/lastmile_qr_scan'}",13139,"['CREDITCARD', 'KEY', 'TRANSITCARD']",False,[],Throop St & Taylor St,15,19,classic,False,19,,,,,,
True,41.910522,-87.653106,a3a3c696-a135-11e9-9cda-0a87ae2ba916,"{'ios': 'https://chi.lft.to/lastmile_qr_scan', 'android': 'https://chi.lft.to/lastmile_qr_scan'}",13154,"['CREDITCARD', 'KEY', 'TRANSITCARD']",False,[],Sheffield Ave & Kingsbury St,15,20,classic,False,20,,,,,,
True,41.87772613,-87.65478743,a3a3cbac-a135-11e9-9cda-0a87ae2ba916,"{'ios': 'https://chi.lft.to/lastmile_qr_scan', 'android': 'https://chi.lft.to/lastmile_qr_scan'}",13157,"['CREDITCARD', 'KEY', 'TRANSITCARD']",False,[],Aberdeen St & Jackson Blvd,23,21,classic,False,21,,,,,,
True,41.8694821,-87.6554864,a3a3d1b8-a135-11e9-9cda-0a87ae2ba916,"{'ios': 'https://chi.lft.to/lastmile_qr_scan', 'android': 'https://chi.lft.to/lastmile_qr_scan'}",13160,"['CREDITCARD', 'KEY', 'TRANSITCARD']",False,[],May St & Taylor St,15,22,classic,False,22,,,,,,
True,41.902924,-87.637715,a3a3d6f0-a135-11e9-9cda-0a87ae2ba916,"{'ios': 'https://chi.lft.to/lastmile_qr_scan', 'android': 'https://chi.lft.to/lastmile_qr_scan'}",TA1306000006,"['CREDITCARD', 'KEY', 'TRANSITCARD']",False,[],Orleans St & Elm St,15,23,classic,False,23,,,,,,
True,41.89184737210993,-87.62058019638062,a3a3dc37-a135-11e9-9cda-0a87ae2ba916,"{'ios': 'https://chi.lft.to/lastmile_qr_scan', 'android': 'https://chi.lft.to/lastmile_qr_scan'}",TA1305000003,"['CREDITCARD', 'KEY', 'TRANSITCARD']",False,[],Fairbanks Ct & Grand Ave,15,24,classic,False,24,,,,,,
True,41.89766,-87.62351,a3a3e158-a135-11e9-9cda-0a87ae2ba916,"{'ios': 'https://chi.lft.to/lastmile_qr_scan', 'android': 'https://chi.lft.to/lastmile_qr_scan'}",13034,"['CREDITCARD', 'KEY', 'TRANSITCARD']",False,[],Michigan Ave & Pearson St,23,25,classic,False,25,,,,,,
True,41.890847040623804,-87.61861681938171,a3a3e67b-a135-11e9-9cda-0a87ae2ba916,"{'ios': 'https://chi.lft.to/lastmile_qr_scan', 'android': 'https://chi.lft.to/lastmile_qr_scan'}",TA1306000013,"['CREDITCARD', 'KEY', 'TRANSITCARD']",False,[],New St & Illinois St,29,26,classic,False,26,,,,,,
True,41.91021,-87.6435,a3a3eb9a-a135-11e9-9cda-0a87ae2ba916,"{'ios': 'https://chi.lft.to/lastmile_qr_scan', 'android': 'https://chi.lft.to/lastmile_qr_scan'}",TA1306000008,"['CREDITCARD', 'KEY', 'TRANSITCARD']",False,[],Larrabee St & North Ave,19,27,classic,False,27,,,,,,
True,41.91468,-87.64332,a3a3f0c6-a135-11e9-9cda-0a87ae2ba916,"{'ios': 'https://chi.lft.to/lastmile_qr_scan', 'android': 'https://chi.lft.to/lastmile_qr_scan'}",TA1306000007,"['CREDITCARD', 'KEY', 'TRANSITCARD']",False,[],Larrabee St & Menomonee St,15,28,classic,False,28,,,,,,
True,41.90068,-87.6626,a3a3f5e9-a135-11e9-9cda-0a87ae2ba916,"{'ios': 'https://chi.lft.to/lastmile_qr_scan', 'android': 'https://chi.lft.to/lastmile_qr_scan'}",13290,"['CREDITCARD', 'KEY', 'TRANSITCARD']",False,[],Noble St & Milwaukee Ave,15,29,classic,False,29,,,,,,
True,41.899643,-87.6677,a3a3fb5d-a135-11e9-9cda-0a87ae2ba916,"{'ios': 'https://chi.lft.to/lastmile_qr_scan', 'android': 'https://chi.lft.to/lastmile_qr_scan'}",13248,"['CREDITCARD', 'KEY', 'TRANSITCARD']",False,[],Ashland Ave & Augusta Blvd,15,30,classic,False,30,,,,,,
True,41.896746973093805,-87.63566762208939,a3a40088-a135-11e9-9cda-0a87ae2ba916,"{'ios': 'https://chi.lft.to/lastmile_qr_scan', 'android': 'https://chi.lft.to/lastmile_qr_scan'}",13017,"['CREDITCARD', 'KEY', 'TRANSITCARD']",False,[],Franklin St & Chicago Ave,23,31,classic,False,31,,,,,,
True,41.87464,-87.65703,a3a405a1-a135-11e9-9cda-0a87ae2ba916,"{'ios': 'https://chi.lft.to/lastmile_qr_scan', 'android': 'https://chi.lft.to/lastmile_qr_scan'}",TA1306000025,"['CREDITCARD', 'KEY', 'TRANSITCARD']",False,[],Racine Ave & Congress Pkwy,19,32,classic,False,32,,,,,,
True,41.877181,-87.627844,a3a40ad8-a135-11e9-9cda-0a87ae2ba916,"{'ios': 'https://chi.lft.to/lastmile_qr_scan', 'android': 'https://chi.lft.to/lastmile_qr_scan'}",TA1305000035,"['CREDITCARD', 'KEY', 'TRANSITCARD']",False,[],State St & Van Buren St,27,33,classic,False,33,,,,,,
True,41.9267559875,-87.6344287848,a3a41004-a135-11e9-9cda-0a87ae2ba916,"{'ios': 'https://chi.lft.to/lastmile_qr_scan', 'android': 'https://chi.lft.to/lastmile_qr_scan'}",13124,"['CREDITCARD', 'KEY', 'TRANSITCARD']",False,[],Cannon Dr & Fullerton Ave,15,34,classic,False,34,,,,,,
True,41.892278,-87.612043,a3a41526-a135-11e9-9cda-0a87ae2ba916,"{'ios': 'https://chi.lft.to/lastmile_qr_scan', 'android': 'https://chi.lft.to/lastmile_qr_scan'}",13022,"['CREDITCARD', 'KEY', 'TRANSITCARD']",False,[],Streeter Dr & Grand Ave,47,35,classic,False,35,,,,,,
True,41.8777079559,-87.6353211408,a3a41af5-a135-11e9-9cda-0a87ae2ba916,"{'ios': 'https://chi.lft.to/lastmile_qr_scan', 'android': 'https://chi.lft.to/lastmile_qr_scan'}",TA1305000025,"['CREDITCARD', 'KEY', 'TRANSITCARD']",False,[],Franklin St & Jackson Blvd,39,36,classic,False,36,,,,,,
True,41.8793563587,-87.6297910363,a3a4203a-a135-11e9-9cda-0a87ae2ba916,"{'ios': 'https://chi.lft.to/lastmile_qr_scan', 'android': 'https://chi.lft.to/lastmile_qr_scan'}",TA1305000005,"['CREDITCARD', 'KEY', 'TRANSITCARD']",False,[],Dearborn St & Adams St,19,37,classic,False,37,,,,,,
True,41.88602082773,-87.6308760584,a3a42574-a135-11e9-9cda-0a87ae2ba916,"{'ios': 'https://chi.lft.to/lastmile_qr_scan', 'android': 'https://chi.lft.to/lastmile_qr_scan'}",KA1503000012,"['CREDITCARD', 'KEY', 'TRANSITCARD']",False,[],Clark St & Lake St,27,38,classic,False,38,,,,,,
True,41.87947235235,-87.6256886059,a3a42a93-a135-11e9-9cda-0a87ae2ba916,"{'ios': 'https://chi.lft.to/lastmile_qr_scan', 'android': 'https://chi.lft.to/lastmile_qr_scan'}",KA1503000015,"['CREDITCARD', 'KEY', 'TRANSITCARD']",False,[],Wabash Ave & Adams St,23,39,classic,False,39,,,,,,
True,41.87934437346,-87.6319852213,a3a42fa7-a135-11e9-9cda-0a87ae2ba916,"{'ios': 'https://chi.lft.to/lastmile_qr_scan', 'android': 'https://chi.lft.to/lastmile_qr_scan'}",KA1503000034,"['CREDITCARD', 'KEY', 'TRANSITCARD']",False,[],LaSalle St & Adams St,15,40,classic,False,40,,,,,,
True,41.87207763285,-87.6295437729,a3a434ce-a135-11e9-9cda-0a87ae2ba916,"{'ios': 'https://chi.lft.to/lastmile_qr_scan', 'android': 'https://chi.lft.to/lastmile_qr_scan'}",SL-008,"['CREDITCARD', 'KEY', 'TRANSITCARD']",False,[],Federal St & Polk St,19,41,classic,False,41,,,,,,
True,41.852619,-87.626488,a3a43a25-a135-11e9-9cda-0a87ae2ba916,"{'ios': 'https://chi.lft.to/lastmile_qr_scan', 'android': 'https://chi.lft.to/lastmile_qr_scan'}",TA1305000001,"['CREDITCARD', 'KEY', 'TRANSITCARD']",False,[],Wabash Ave & Cermak Rd,11,42,classic,False,42,,,,,,
True,41.8839840647265,-87.6246839761734,a3a43f48-a135-11e9-9cda-0a87ae2ba916,"{'ios': 'https://chi.lft.to/lastmile_qr_scan', 'android': 'https://chi.lft.to/lastmile_qr_scan'}",13001,"['CREDITCARD', 'KEY', 'TRANSITCARD']",False,[],Michigan Ave & Washington St,43,43,classic,False,43,,,,,,
True,41.8847302006,-87.6277335692,a3a44476-a135-11e9-9cda-0a87ae2ba916,"{'ios': 'https://chi.lft.to/lastmile_qr_scan', 'android': 'https://chi.lft.to/lastmile_qr_scan'}",TA1305000029,"['CREDITCARD', 'KEY', 'TRANSITCARD']",False,[],State St & Randolph St,27,44,classic,False,44,,,,,,
True,41.876243,-87.624426,a3a4499f-a135-11e9-9cda-0a87ae2ba916,"{'ios': 'https://chi.lft.to/lastmile_qr_scan', 'android': 'https://chi.lft.to/lastmile_qr_scan'}",TA1305000010,"['CREDITCARD', 'KEY', 'TRANSITCARD']",False,[],Michigan Ave & Ida B Wells Dr,15,45,classic,False,45,,,,,,
True,41.89993001,-87.63443007,a3a44ec7-a135-11e9-9cda-0a87ae2ba916,"{'ios': 'https://chi.lft.to/lastmile_qr_scan', 'android': 'https://chi.lft.to/lastmile_qr_scan'}",TA1306000011,"['CREDITCARD', 'KEY', 'TRANSITCARD']",False,[],Wells St & Walton St,19,46,classic,False,46,,,,,,
True,41.889187,-87.627754,a3a453fa-a135-11e9-9cda-0a87ae2ba916,"{'ios': 'https://chi.lft.to/lastmile_qr_scan', 'android': 'https://chi.lft.to/lastmile_qr_scan'}",13050,"['CREDITCARD', 'KEY', 'TRANSITCARD']",False,[],State St & Kinzie St,31,47,classic,False,47,,,,,,
True,41.897764,-87.642884,a3a4591a-a135-11e9-9cda-0a87ae2ba916,"{'ios': 'https://chi.lft.to/lastmile_qr_scan', 'android': 'https://chi.lft.to/lastmile_qr_scan'}",TA1306000009,"['CREDITCARD', 'KEY', 'TRANSITCARD']",False,[],Larrabee St & Kingsbury St,43,48,classic,False,48,,,,,,
True,41.881319815,-87.6295209193,a3a45e3b-a135-11e9-9cda-0a87ae2ba916,"{'ios': 'https://chi.lft.to/lastmile_qr_scan', 'android': 'https://chi.lft.to/lastmile_qr_scan'}",TA1305000006,"['CREDITCARD', 'KEY', 'TRANSITCARD']",False,[],Dearborn St & Monroe St,39,49,classic,False,49,,,,,,
True,41.8759326655,-87.6305845355,a3a46361-a135-11e9-9cda-0a87ae2ba916,"{'ios': 'https://chi.lft.to/lastmile_qr_scan', 'android': 'https://chi.lft.to/lastmile_qr_scan'}",TA1305000009,"['CREDITCARD', 'KEY', 'TRANSITCARD']",False,[],Clark St & Ida B Wells Dr,35,50,classic,False,50,,,,,,
True,41.884576228,-87.63188991,a3a46896-a135-11e9-9cda-0a87ae2ba916,"{'ios': 'https://chi.lft.to/lastmile_qr_scan', 'android': 'https://chi.lft.to/lastmile_qr_scan'}",TA1305000030,"['CREDITCARD', 'KEY', 'TRANSITCARD']",False,[],Clark St & Randolph St,39,51,classic,False,51,,,,,,
True,41.886024,-87.624117,a3a46e71-a135-11e9-9cda-0a87ae2ba916,"{'ios': 'https://chi.lft.to/lastmile_qr_scan', 'android': 'https://chi.lft.to/lastmile_qr_scan'}",TA1305000011,"['CREDITCARD', 'KEY', 'TRANSITCARD']",False,[],Michigan Ave & Lake St,35,52,classic,False,52,,,,,,
True,41.894722,-87.634362,a3a4739d-a135-11e9-9cda-0a87ae2ba916,"{'ios': 'https://chi.lft.to/lastmile_qr_scan', 'android': 'https://chi.lft.to/lastmile_qr_scan'}",TA1306000012,"['CREDITCARD', 'KEY', 'TRANSITCARD']",False,[],Wells St & Huron St,27,53,classic,False,53,,,,,,
True,41.896362458,-87.6540612729,a3a478c9-a135-11e9-9cda-0a87ae2ba916,"{'ios': 'https://chi.lft.to/lastmile_qr_scan', 'android': 'https://chi.lft.to/lastmile_qr_scan'}",TA1305000020,"['CREDITCARD', 'KEY', 'TRANSITCARD']",False,[],Ogden Ave & Chicago Ave,19,54,classic,False,54,,,,,,
True,41.867324,-87.648625,a3a47dde-a135-11e9-9cda-0a87ae2ba916,"{'ios': 'https://chi.lft.to/lastmile_qr_scan', 'android': 'https://chi.lft.to/lastmile_qr_scan'}",TA1305000017,"['CREDITCARD', 'KEY', 'TRANSITCARD']",False,[],Halsted St & Roosevelt Rd,23,55,classic,False,55,,,,,,
True,41.888716036,-87.6444478533,a3a482fb-a135-11e9-9cda-0a87ae2ba916,"{'ios': 'https://chi.lft.to/lastmile_qr_scan', 'android': 'https://chi.lft.to/lastmile_qr_scan'}",TA1306000003,"['CREDITCARD', 'KEY', 'TRANSITCARD']",False,[],Desplaines St & Kinzie St,27,56,classic,False,56,,,,,,
True,41.8671177825,-87.6410879593,a3a4881d-a135-11e9-9cda-0a87ae2ba916,"{'ios': 'https://chi.lft.to/lastmile_qr_scan', 'android': 'https://chi.lft.to/lastmile_qr_scan'}",WL-008,"['CREDITCARD', 'KEY', 'TRANSITCARD']",False,[],Clinton St & Roosevelt Rd,15,57,classic,False,57,,,,,,
True,41.916017,-87.668879,a3a48d5c-a135-11e9-9cda-0a87ae2ba916,"{'ios': 'https://chi.lft.to/lastmile_qr_scan', 'android': 'https://chi.lft.to/lastmile_qr_scan'}",TA1305000039,"['CREDITCARD', 'KEY', 'TRANSITCARD']",False,[],Marshfield Ave & Cortland St,23,58,classic,False,58,,,,,,
True,41.867227,-87.625961,a3a49288-a135-11e9-9cda-0a87ae2ba916,"{'ios': 'https://chi.lft.to/lastmile_qr_scan', 'android': 'https://chi.lft.to/lastmile_qr_scan'}",TA1305000002,"['CREDITCARD', 'KEY', 'TRANSITCARD']",False,[],Wabash Ave & Roosevelt Rd,23,59,classic,False,59,,,,,,
True,41.9105780349,-87.6494219288,a3a497b6-a135-11e9-9cda-0a87ae2ba916,"{'ios': 'https://chi.lft.to/lastmile_qr_scan', 'android': 'https://chi.lft.to/lastmile_qr_scan'}",13058,"['CREDITCARD', 'KEY', 'TRANSITCARD']",False,[],Dayton St & North Ave,19,60,classic,False,60,,,,,,
True,41.907655,-87.672552,a3a49cd7-a135-11e9-9cda-0a87ae2ba916,"{'ios': 'https://chi.lft.to/lastmile_qr_scan', 'android': 'https://chi.lft.to/lastmile_qr_scan'}",13221,"['CREDITCARD', 'KEY', 'TRANSITCARD']",False,[],Wood St & Milwaukee Ave,19,61,classic,False,61,,,,,,
True,41.8513751729,-87.6188346489,a3a4a202-a135-11e9-9cda-0a87ae2ba916,"{'ios': 'https://chi.lft.to/lastmile_qr_scan', 'android': 'https://chi.lft.to/lastmile_qr_scan'}",TA1305000004,"['CREDITCARD', 'KEY', 'TRANSITCARD']",False,[],McCormick Place,27,62,classic,False,62,,,,,,
True,41.885637,-87.641823,a3a4a71e-a135-11e9-9cda-0a87ae2ba916,"{'ios': 'https://chi.lft.to/lastmile_qr_scan', 'android': 'https://chi.lft.to/lastmile_qr_scan'}",13021,"['CREDITCARD', 'KEY', 'TRANSITCARD']",False,[],Clinton St & Lake St,23,66,classic,False,66,,,,,,
True,41.9256018819,-87.6537080423,a3a4ac3f-a135-11e9-9cda-0a87ae2ba916,"{'ios': 'https://chi.lft.to/lastmile_qr_scan', 'android': 'https://chi.lft.to/lastmile_qr_scan'}",TA1306000016,"['CREDITCARD', 'KEY', 'TRANSITCARD']",False,[],Sheffield Ave & Fullerton Ave,27,67,classic,False,67,,,,,,
True,41.875885,-87.640795,a3a4b164-a135-11e9-9cda-0a87ae2ba916,"{'ios': 'https://chi.lft.to/lastmile_qr_scan', 'android': 'https://chi.lft.to/lastmile_qr_scan'}",13037,"['CREDITCARD', 'KEY', 'TRANSITCARD']",False,[],Clinton St & Tilden St,23,68,classic,False,68,,,,,,
True,41.9093960065,-87.6776919292,a3a4b693-a135-11e9-9cda-0a87ae2ba916,"{'ios': 'https://chi.lft.to/lastmile_qr_scan', 'android': 'https://chi.lft.to/lastmile_qr_scan'}",TA1305000041,"['CREDITCARD', 'KEY', 'TRANSITCARD']",False,[],Damen Ave & Pierce Ave,23,69,classic,False,69,,,,,,
True,41.8854833079,-87.6523048564,a3a4bbba-a135-11e9-9cda-0a87ae2ba916,"{'ios': 'https://chi.lft.to/lastmile_qr_scan', 'android': 'https://chi.lft.to/lastmile_qr_scan'}",TA1306000015,"['CREDITCARD', 'KEY', 'TRANSITCARD']",False,[],Morgan St & Lake St,23,71,classic,False,71,,,,,,
True,41.860384,-87.625813,a3a4c0df-a135-11e9-9cda-0a87ae2ba916,"{'ios': 'https://chi.lft.to/lastmile_qr_scan', 'android': 'https://chi.lft.to/lastmile_qr_scan'}",SL-012,"['CREDITCARD', 'KEY', 'TRANSITCARD']",False,[],Wabash Ave & 16th St,39,72,classic,False,72,,,,,,
True,41.880422,-87.642746,a3a4c618-a135-11e9-9cda-0a87ae2ba916,"{'ios': 'https://chi.lft.to/lastmile_qr_scan', 'android': 'https://chi.lft.to/lastmile_qr_scan'}",WL-011,"['CREDITCARD', 'KEY', 'TRANSITCARD']",False,[],Jefferson St & Monroe St,19,73,classic,False,73,,,,,,
True,41.89380805624359,-87.64169722795485,a3a4cb42-a135-11e9-9cda-0a87ae2ba916,"{'ios': 'https://chi.lft.to/lastmile_qr_scan', 'android': 'https://chi.lft.to/lastmile_qr_scan'}",13265,"['CREDITCARD', 'KEY', 'TRANSITCARD']",False,[],Kingsbury St & Erie St,23,74,classic,False,74,,,,,,
True,41.877245,-87.639366,a3a4d069-a135-11e9-9cda-0a87ae2ba916,"{'ios': 'https://chi.lft.to/lastmile_qr_scan', 'android': 'https://chi.lft.to/lastmile_qr_scan'}",13138,"['CREDITCARD', 'KEY', 'TRANSITCARD']",False,[],Canal St & Jackson Blvd,39,75,classic,False,75,,,,,,
True,41.880958,-87.616743,a3a4d588-a135-11e9-9cda-0a87ae2ba916,"{'ios': 'https://chi.lft.to/lastmile_qr_scan', 'android': 'https://chi.lft.to/lastmile_qr_scan'}",13300,"['CREDITCARD', 'KEY', 'TRANSITCARD']",False,[],Lake Shore Dr & Monroe St,39,76,classic,False,76,,,,,,
True,41.882242,-87.641066,a3a4daa1-a135-11e9-9cda-0a87ae2ba916,"{'ios': 'https://chi.lft.to/lastmile_qr_scan', 'android': 'https://chi.lft.to/lastmile_qr_scan'}",TA1305000032,"['CREDITCARD', 'KEY', 'TRANSITCARD']",False,[],Clinton St & Madison St,31,77,classic,False,77,,,,,,
True,41.880419,-87.655519,a3a4e4e3-a135-11e9-9cda-0a87ae2ba916,"{'ios': 'https://chi.lft.to/lastmile_qr_scan', 'android': 'https://chi.lft.to/lastmile_qr_scan'}",13156,"['CREDITCARD', 'KEY', 'TRANSITCARD']",False,[],Aberdeen St & Monroe St,19,80,classic,False,80,,,,,,
True,41.884241,-87.629634,a3a4ea00-a135-11e9-9cda-0a87ae2ba916,"{'ios': 'https://chi.lft.to/lastmile_qr_scan', 'android': 'https://chi.lft.to/lastmile_qr_scan'}",TA1306000010,"['CREDITCARD', 'KEY', 'TRANSITCARD']",False,[],Daley Center Plaza,39,81,classic,False,81,,,,,,
True,41.891578,-87.648384,a3a4ef26-a135-11e9-9cda-0a87ae2ba916,"{'ios': 'https://chi.lft.to/lastmile_qr_scan', 'android': 'https://chi.lft.to/lastmile_qr_scan'}",13033,"['CREDITCARD', 'KEY', 'TRANSITCARD']",False,[],Milwaukee Ave & Grand Ave,19,84,classic,False,84,,,,,,
True,41.90096039,-87.62377664,a3a4f46b-a135-11e9-9cda-0a87ae2ba916,"{'ios': 'https://chi.lft.to/lastmile_qr_scan', 'android': 'https://chi.lft.to/lastmile_qr_scan'}",13042,"['CREDITCARD', 'KEY', 'TRANSITCARD']",False,[],Michigan Ave & Oak St,23,85,classic,False,85,,,,,,
True,41.89637337,-87.66098386,a3a4f993-a135-11e9-9cda-0a87ae2ba916,"{'ios': 'https://chi.lft.to/lastmile_qr_scan', 'android': 'https://chi.lft.to/lastmile_qr_scan'}",13289,"['CREDITCARD', 'KEY', 'TRANSITCARD']",False,[],Eckhart Park,19,86,classic,False,86,,,,,,
True,41.92556258,-87.65840426,a3a4fec3-a135-11e9-9cda-0a87ae2ba916,"{'ios': 'https://chi.lft.to/lastmile_qr_scan', 'android': 'https://chi.lft.to/lastmile_qr_scan'}",TA1306000026,"['CREDITCARD', 'KEY', 'TRANSITCARD']",False,[],Racine Ave & Fullerton Ave,19,87,classic,False,87,,,,,,
True,41.884069,-87.656853,a3a503e5-a135-11e9-9cda-0a87ae2ba916,"{'ios': 'https://chi.lft.to/lastmile_qr_scan', 'android': 'https://chi.lft.to/lastmile_qr_scan'}",13155,"['CREDITCARD', 'KEY', 'TRANSITCARD']",False,[],Racine Ave & Randolph St,19,88,classic,False,88,,,,,,
True,41.8750236280333,-87.6330940425396,a3a50991-a135-11e9-9cda-0a87ae2ba916,"{'ios': 'https://chi.lft.to/lastmile_qr_scan', 'android': 'https://chi.lft.to/lastmile_qr_scan'}",SL-010,"['CREDITCARD', 'KEY', 'TRANSITCARD']",False,[],Financial Pl & Ida B Wells Dr,31,89,classic,False,89,,,,,,
True,41.8810317,-87.62408432,a3a50ec8-a135-11e9-9cda-0a87ae2ba916,"{'ios': 'https://chi.lft.to/lastmile_qr_scan', 'android': 'https://chi.lft.to/lastmile_qr_scan'}",13008,"['CREDITCARD', 'KEY', 'TRANSITCARD']",False,[],Millennium Park,47,90,classic,False,90,,,,,,
True,41.88338,-87.64117,a3a513e9-a135-11e9-9cda-0a87ae2ba916,"{'ios': 'https://chi.lft.to/lastmile_qr_scan', 'android': 'https://chi.lft.to/lastmile_qr_scan'}",WL-012,"['CREDITCARD', 'KEY', 'TRANSITCARD']",False,[],Clinton St & Washington Blvd,31,91,classic,False,91,,,,,,
True,41.894556,-87.653449,a3a51934-a135-11e9-9cda-0a87ae2ba916,"{'ios': 'https://chi.lft.to/lastmile_qr_scan', 'android': 'https://chi.lft.to/lastmile_qr_scan'}",13196,"['CREDITCARD', 'KEY', 'TRANSITCARD']",False,[],Carpenter St & Huron St,19,92,classic,False,92,,,,,,
True,41.913688,-87.652855,a3a51e6e-a135-11e9-9cda-0a87ae2ba916,"{'ios': 'https://chi.lft.to/lastmile_qr_scan', 'android': 'https://chi.lft.to/lastmile_qr_scan'}",TA1306000032,"['CREDITCARD', 'KEY', 'TRANSITCARD']",False,[],Sheffield Ave & Willow St,15,93,classic,False,93,,,,,,
True,41.918306,-87.636282,a3a523a6-a135-11e9-9cda-0a87ae2ba916,"{'ios': 'https://chi.lft.to/lastmile_qr_scan', 'android': 'https://chi.lft.to/lastmile_qr_scan'}",13146,"['CREDITCARD', 'KEY', 'TRANSITCARD']",False,[],Clark St & Armitage Ave,31,94,classic,False,94,,,,,,
True,41.778881,-87.586647,a3a528d0-a135-11e9-9cda-0a87ae2ba916,"{'ios': 'https://chi.lft.to/lastmile_qr_scan', 'android': 'https://chi.lft.to/lastmile_qr_scan'}",KA1503000021,"['CREDITCARD', 'KEY', 'TRANSITCARD']",False,[],Stony Island Ave & 64th St,11,95,classic,False,95,,,,,,
True,41.88461618962,-87.6445705849,a3a52df5-a135-11e9-9cda-0a87ae2ba916,"{'ios': 'https://chi.lft.to/lastmile_qr_scan', 'android': 'https://chi.lft.to/lastmile_qr_scan'}",15535,"['CREDITCARD', 'KEY', 'TRANSITCARD']",False,[],Desplaines St & Randolph St,23,96,classic,False,96,,,,,,
True,41.865312,-87.617867,a3a53324-a135-11e9-9cda-0a87ae2ba916,"{'ios': 'https://chi.lft.to/lastmile_qr_scan', 'android': 'https://chi.lft.to/lastmile_qr_scan'}",13029,"['CREDITCARD', 'KEY', 'TRANSITCARD']",False,[],Field Museum,55,97,classic,False,97,,,,,,
True,41.882664,-87.63253,a3a53843-a135-11e9-9cda-0a87ae2ba916,"{'ios': 'https://chi.lft.to/lastmile_qr_scan', 'android': 'https://chi.lft.to/lastmile_qr_scan'}",13006,"['CREDITCARD', 'KEY', 'TRANSITCARD']",False,[],LaSalle St & Washington St,15,98,classic,False,98,,,,,,
True,41.89257,-87.614492,a3a53d70-a135-11e9-9cda-0a87ae2ba916,"{'ios': 'https://chi.lft.to/lastmile_qr_scan', 'android': 'https://chi.lft.to/lastmile_qr_scan'}",TA1306000029,"['CREDITCARD', 'KEY', 'TRANSITCARD']",False,[],Lake Shore Dr & Ohio St,19,99,classic,False,99,,,,,,
True,41.888243,-87.63639,a3a5428e-a135-11e9-9cda-0a87ae2ba916,"{'ios': 'https://chi.lft.to/lastmile_qr_scan', 'android': 'https://chi.lft.to/lastmile_qr_scan'}",TA1305000022,"['CREDITCARD', 'KEY', 'TRANSITCARD']",False,[],Orleans St & Merchandise Mart Plaza,35,100,classic,False,100,,,,,,
True,41.78101637196,-87.5761197602,a3a547b8-a135-11e9-9cda-0a87ae2ba916,"{'ios': 'https://chi.lft.to/lastmile_qr_scan', 'android': 'https://chi.lft.to/lastmile_qr_scan'}",15491,"['CREDITCARD', 'KEY', 'TRANSITCARD']",False,[],63rd St Beach,15,101,classic,False,101,,,,,,
True,41.77345849948,-87.5853397391,a3a54cdb-a135-11e9-9cda-0a87ae2ba916,"{'ios': 'https://chi.lft.to/lastmile_qr_scan', 'android': 'https://chi.lft.to/lastmile_qr_scan'}",KA1503000023,"['CREDITCARD', 'KEY', 'TRANSITCARD']",False,[],Stony Island Ave & 67th St,11,102,classic,False,102,,,,,,
True,41.87146651779,-87.6409491327,a3a555e8-a135-11e9-9cda-0a87ae2ba916,"{'ios': 'https://chi.lft.to/lastmile_qr_scan', 'android': 'https://chi.lft.to/lastmile_qr_scan'}",15542,"['CREDITCARD', 'KEY', 'TRANSITCARD']",False,[],Clinton St & Polk St,15,103,classic,False,103,,,,,,
True,41.897448,-87.628722,a3a55b3e-a135-11e9-9cda-0a87ae2ba916,"{'ios': 'https://chi.lft.to/lastmile_qr_scan', 'android': 'https://chi.lft.to/lastmile_qr_scan'}",TA1307000061,"['CREDITCARD', 'KEY', 'TRANSITCARD']",False,[],State St & Pearson St,27,106,classic,False,106,,,,,,
True,41.878287,-87.643909,a3a56075-a135-11e9-9cda-0a87ae2ba916,"{'ios': 'https://chi.lft.to/lastmile_qr_scan', 'android': 'https://chi.lft.to/lastmile_qr_scan'}",15539,"['CREDITCARD', 'KEY', 'TRANSITCARD']",False,[],Desplaines St & Jackson Blvd,27,107,classic,False,107,,,,,,
True,41.87184,-87.64664,a3a565b1-a135-11e9-9cda-0a87ae2ba916,"{'ios': 'https://chi.lft.to/lastmile_qr_scan', 'android': 'https://chi.lft.to/lastmile_qr_scan'}",TA1307000121,"['CREDITCARD', 'KEY', 'TRANSITCARD']",False,[],Halsted St & Polk St,19,108,classic,False,108,,,,,,
True,41.874754,-87.649807,a3a56ae5-a135-11e9-9cda-0a87ae2ba916,"{'ios': 'https://chi.lft.to/lastmile_qr_scan', 'android': 'https://chi.lft.to/lastmile_qr_scan'}",13028,"['CREDITCARD', 'KEY', 'TRANSITCARD']",False,[],900 W Harrison St,19,109,classic,False,109,,,,,,
True,41.893992,-87.629318,a3a5700b-a135-11e9-9cda-0a87ae2ba916,"{'ios': 'https://chi.lft.to/lastmile_qr_scan', 'android': 'https://chi.lft.to/lastmile_qr_scan'}",13045,"['CREDITCARD', 'KEY', 'TRANSITCARD']",False,[],Dearborn St & Erie St,27,110,classic,False,110,,,,,,
True,41.894666,-87.638437,a3a57527-a135-11e9-9cda-0a87ae2ba916,"{'ios': 'https://chi.lft.to/lastmile_qr_scan', 'android': 'https://chi.lft.to/lastmile_qr_scan'}",TA1307000062,"['CREDITCARD', 'KEY', 'TRANSITCARD']",False,[],Sedgwick St & Huron St,27,111,classic,False,111,,,,,,
True,41.883668,-87.64867,a3a57a52-a135-11e9-9cda-0a87ae2ba916,"{'ios': 'https://chi.lft.to/lastmile_qr_scan', 'android': 'https://chi.lft.to/lastmile_qr_scan'}",13053,"['CREDITCARD', 'KEY', 'TRANSITCARD']",False,[],Green St & Randolph St,15,112,classic,False,112,,,,,,
True,41.91844,-87.65222,a3a57f6b-a135-11e9-9cda-0a87ae2ba916,"{'ios': 'https://chi.lft.to/lastmile_qr_scan', 'android': 'https://chi.lft.to/lastmile_qr_scan'}",13059,"['CREDITCARD', 'KEY', 'TRANSITCARD']",False,[],Bissell St & Armitage Ave,15,113,classic,False,113,,,,,,
True,41.949399,-87.654529,a3a58495-a135-11e9-9cda-0a87ae2ba916,"{'ios': 'https://chi.lft.to/lastmile_qr_scan', 'android': 'https://chi.lft.to/lastmile_qr_scan'}",TA1307000126,"['CREDITCARD', 'KEY', 'TRANSITCARD']",False,"[{'name': 'Valet Service', 'service_type': 'ATTENDED_SERVICE', 'schedule_description': '', 'off_dock_remaining_bike_capacity': 0, 'off_dock_bikes_count': 0, 'description': '', 'link_for_more_info': '', 'bikes_availability': 'UNLIMITED', 'id': 'a3a58495-a135-11e9-9cda-0a87ae2ba916', 'docks_availability': 'NONE'}]",Sheffield Ave & Waveland Ave,27,114,classic,False,114,,,,,,
True,41.936266,-87.652662,a3a589b9-a135-11e9-9cda-0a87ae2ba916,"{'ios': 'https://chi.lft.to/lastmile_qr_scan', 'android': 'https://chi.lft.to/lastmile_qr_scan'}",TA1307000052,"['CREDITCARD', 'KEY', 'TRANSITCARD']",False,[],Sheffield Ave & Wellington Ave,23,115,classic,False,115,,,,,,
True,41.91552,-87.687022,a3a58ee0-a135-11e9-9cda-0a87ae2ba916,"{'ios': 'https://chi.lft.to/lastmile_qr_scan', 'android': 'https://chi.lft.to/lastmile_qr_scan'}",13068,"['CREDITCARD', 'KEY', 'TRANSITCARD']",False,[],Western Ave & Winnebago Ave,15,116,classic,False,116,,,,,,
True,41.94018,-87.65304,a3a593fc-a135-11e9-9cda-0a87ae2ba916,"{'ios': 'https://chi.lft.to/lastmile_qr_scan', 'android': 'https://chi.lft.to/lastmile_qr_scan'}",TA1307000134,"['CREDITCARD', 'KEY', 'TRANSITCARD']",False,[],Wilton Ave & Belmont Ave,27,117,classic,False,117,,,,,,
True,41.911386,-87.638677,a3a59915-a135-11e9-9cda-0a87ae2ba916,"{'ios': 'https://chi.lft.to/lastmile_qr_scan', 'android': 'https://chi.lft.to/lastmile_qr_scan'}",TA1307000038,"['CREDITCARD', 'KEY', 'TRANSITCARD']",False,[],Sedgwick St & North Ave,19,118,classic,False,118,,,,,,
True,41.88592,-87.66717,a3a59ec3-a135-11e9-9cda-0a87ae2ba916,"{'ios': 'https://chi.lft.to/lastmile_qr_scan', 'android': 'https://chi.lft.to/lastmile_qr_scan'}",13073,"['CREDITCARD', 'KEY', 'TRANSITCARD']",False,[],Ashland Ave & Lake St,19,119,classic,False,119,,,,,,
True,41.85308455741279,-87.63193130493164,a3a5a48b-a135-11e9-9cda-0a87ae2ba916,"{'ios': 'https://chi.lft.to/lastmile_qr_scan', 'android': 'https://chi.lft.to/lastmile_qr_scan'}",13075,"['CREDITCARD', 'KEY', 'TRANSITCARD']",False,[],Wentworth Ave & Cermak Rd,19,120,classic,False,120,,,,,,
True,41.802562,-87.590368,a3a5a9d0-a135-11e9-9cda-0a87ae2ba916,"{'ios': 'https://chi.lft.to/lastmile_qr_scan', 'android': 'https://chi.lft.to/lastmile_qr_scan'}",13398,"['CREDITCARD', 'KEY', 'TRANSITCARD']",False,[],Blackstone Ave & Hyde Park Blvd,19,121,classic,False,121,,,,,,
True,41.87501,-87.67328,a3a5af44-a135-11e9-9cda-0a87ae2ba916,"{'ios': 'https://chi.lft.to/lastmile_qr_scan', 'android': 'https://chi.lft.to/lastmile_qr_scan'}",13081,"['CREDITCARD', 'KEY', 'TRANSITCARD']",False,[],Ogden Ave & Congress Pkwy,15,122,classic,False,122,,,,,,
True,41.922695,-87.697153,a3a5b496-a135-11e9-9cda-0a87ae2ba916,"{'ios': 'https://chi.lft.to/lastmile_qr_scan', 'android': 'https://chi.lft.to/lastmile_qr_scan'}",13084,"['CREDITCARD', 'KEY', 'TRANSITCARD']",False,[],California Ave & Milwaukee Ave,15,123,classic,False,123,,,,,,
True,41.854966518753926,-87.67569959163664,a3a5b9d3-a135-11e9-9cda-0a87ae2ba916,"{'ios': 'https://chi.lft.to/lastmile_qr_scan', 'android': 'https://chi.lft.to/lastmile_qr_scan'}",13089,"['CREDITCARD', 'KEY', 'TRANSITCARD']",False,[],Damen Ave & Cullerton St,15,124,classic,False,124,,,,,,
True,41.890173,-87.626185,a3a5bf01-a135-11e9-9cda-0a87ae2ba916,"{'ios': 'https://chi.lft.to/lastmile_qr_scan', 'android': 'https://chi.lft.to/lastmile_qr_scan'}",KA1503000044,"['CREDITCARD', 'KEY', 'TRANSITCARD']",False,[],Rush St & Hubbard St,23,125,classic,False,125,,,,,,
True,41.911974,-87.631942,a3a5c440-a135-11e9-9cda-0a87ae2ba916,"{'ios': 'https://chi.lft.to/lastmile_qr_scan', 'android': 'https://chi.lft.to/lastmile_qr_scan'}",13128,"['CREDITCARD', 'KEY', 'TRANSITCARD']",False,[],Clark St & North Ave,15,126,classic,False,126,,,,,,
True,41.925905,-87.64926,a3a5c96f-a135-11e9-9cda-0a87ae2ba916,"{'ios': 'https://chi.lft.to/lastmile_qr_scan', 'android': 'https://chi.lft.to/lastmile_qr_scan'}",TA1309000058,"['CREDITCARD', 'KEY', 'TRANSITCARD']",False,[],Lincoln Ave & Fullerton Ave,15,127,classic,False,127,,,,,,
True,41.895769,-87.67722,a3a5ce97-a135-11e9-9cda-0a87ae2ba916,"{'ios': 'https://chi.lft.to/lastmile_qr_scan', 'android': 'https://chi.lft.to/lastmile_qr_scan'}",13132,"['CREDITCARD', 'KEY', 'TRANSITCARD']",False,[],Damen Ave & Chicago Ave,19,128,classic,False,128,,,,,,
True,41.857556,-87.661535,a3a5d3bb-a135-11e9-9cda-0a87ae2ba916,"{'ios': 'https://chi.lft.to/lastmile_qr_scan', 'android': 'https://chi.lft.to/lastmile_qr_scan'}",13135,"['CREDITCARD', 'KEY', 'TRANSITCARD']",False,[],Blue Island Ave & 18th St,15,129,classic,False,129,,,,,,
True,41.903266,-87.678435,a3a5d8db-a135-11e9-9cda-0a87ae2ba916,"{'ios': 'https://chi.lft.to/lastmile_qr_scan', 'android': 'https://chi.lft.to/lastmile_qr_scan'}",13136,"['CREDITCARD', 'KEY', 'TRANSITCARD']",False,[],Damen Ave & Division St,19,130,classic,False,130,,,,,,
True,41.939365,-87.668385,a3a5de24-a135-11e9-9cda-0a87ae2ba916,"{'ios': 'https://chi.lft.to/lastmile_qr_scan', 'android': 'https://chi.lft.to/lastmile_qr_scan'}",TA1309000042,"['CREDITCARD', 'KEY', 'TRANSITCARD']",False,[],Lincoln Ave & Belmont Ave,15,131,classic,False,131,,,,,,
True,41.85008369347577,-87.6321405172348,a3a5e353-a135-11e9-9cda-0a87ae2ba916,"{'ios': 'https://chi.lft.to/lastmile_qr_scan', 'android': 'https://chi.lft.to/lastmile_qr_scan'}",TA1308000026,"['CREDITCARD', 'KEY', 'TRANSITCARD']",False,[],Wentworth Ave & 24th St (Temp),15,132,classic,False,132,,,,,,
True,41.88917683258,-87.6385057718,a3a5eb69-a135-11e9-9cda-0a87ae2ba916,"{'ios': 'https://chi.lft.to/lastmile_qr_scan', 'android': 'https://chi.lft.to/lastmile_qr_scan'}",KA1503000043,"['CREDITCARD', 'KEY', 'TRANSITCARD']",False,[],Kingsbury St & Kinzie St,31,133,classic,False,133,,,,,,
True,41.8776415962753,-87.64961779117584,a3a5f0b8-a135-11e9-9cda-0a87ae2ba916,"{'ios': 'https://chi.lft.to/lastmile_qr_scan', 'android': 'https://chi.lft.to/lastmile_qr_scan'}",13158,"['CREDITCARD', 'KEY', 'TRANSITCARD']",False,[],Peoria St & Jackson Blvd,19,134,classic,False,134,,,,,,
True,41.85377981072743,-87.6466029882431,a3a5f5e6-a135-11e9-9cda-0a87ae2ba916,"{'ios': 'https://chi.lft.to/lastmile_qr_scan', 'android': 'https://chi.lft.to/lastmile_qr_scan'}",13162,"['CREDITCARD', 'KEY', 'TRANSITCARD']",False,[],Halsted St & 21st St,11,135,classic,False,135,,,,,,
True,41.865054,-87.656959,a3a5fb0d-a135-11e9-9cda-0a87ae2ba916,"{'ios': 'https://chi.lft.to/lastmile_qr_scan', 'android': 'https://chi.lft.to/lastmile_qr_scan'}",13165,"['CREDITCARD', 'KEY', 'TRANSITCARD']",False,[],Racine Ave & 13th St,15,136,classic,False,136,,,,,,
True,41.862378,-87.651062,a3a6002c-a135-11e9-9cda-0a87ae2ba916,"{'ios': 'https://chi.lft.to/lastmile_qr_scan', 'android': 'https://chi.lft.to/lastmile_qr_scan'}",TA1306000002,"['CREDITCARD', 'KEY', 'TRANSITCARD']",False,[],Morgan Ave & 14th Pl,15,137,classic,False,137,,,,,,
True,41.904613,-87.640552,a3a6054c-a135-11e9-9cda-0a87ae2ba916,"{'ios': 'https://chi.lft.to/lastmile_qr_scan', 'android': 'https://chi.lft.to/lastmile_qr_scan'}",TA1307000115,"['CREDITCARD', 'KEY', 'TRANSITCARD']",False,[],Clybourn Ave & Division St,15,138,classic,False,138,,,,,,
True,41.898969,-87.629912,a3a60a65-a135-11e9-9cda-0a87ae2ba916,"{'ios': 'https://chi.lft.to/lastmile_qr_scan', 'android': 'https://chi.lft.to/lastmile_qr_scan'}",TA1307000128,"['CREDITCARD', 'KEY', 'TRANSITCARD']",False,[],Dearborn Pkwy & Delaware Pl,19,140,classic,False,140,,,,,,
True,41.915689,-87.6346,a3a60f7e-a135-11e9-9cda-0a87ae2ba916,"{'ios': 'https://chi.lft.to/lastmile_qr_scan', 'android': 'https://chi.lft.to/lastmile_qr_scan'}",13179,"['CREDITCARD', 'KEY', 'TRANSITCARD']",False,[],Clark St & Lincoln Ave,23,141,classic,False,141,,,,,,
True,41.894503,-87.617854,a3a614ad-a135-11e9-9cda-0a87ae2ba916,"{'ios': 'https://chi.lft.to/lastmile_qr_scan', 'android': 'https://chi.lft.to/lastmile_qr_scan'}",KA1503000041,"['CREDITCARD', 'KEY', 'TRANSITCARD']",False,[],McClurg Ct & Erie St,31,142,classic,False,142,,,,,,
True,41.922167,-87.638888,a3a61a0b-a135-11e9-9cda-0a87ae2ba916,"{'ios': 'https://chi.lft.to/lastmile_qr_scan', 'android': 'https://chi.lft.to/lastmile_qr_scan'}",13191,"['CREDITCARD', 'KEY', 'TRANSITCARD']",False,[],Sedgwick St & Webster Ave,15,143,classic,False,143,,,,,,
True,41.921822,-87.64414,a3a62025-a135-11e9-9cda-0a87ae2ba916,"{'ios': 'https://chi.lft.to/lastmile_qr_scan', 'android': 'https://chi.lft.to/lastmile_qr_scan'}",13193,"['CREDITCARD', 'KEY', 'TRANSITCARD']",False,[],Larrabee St & Webster Ave,19,144,classic,False,144,,,,,,
True,41.8985866514,-87.6219152258,a3a62566-a135-11e9-9cda-0a87ae2ba916,"{'ios': 'https://chi.lft.to/lastmile_qr_scan', 'android': 'https://chi.lft.to/lastmile_qr_scan'}",15529,"['CREDITCARD', 'KEY', 'TRANSITCARD']",False,[],Mies van der Rohe Way & Chestnut St,19,145,classic,False,145,,,,,,
True,41.877945,-87.662007,a3a62aad-a135-11e9-9cda-0a87ae2ba916,"{'ios': 'https://chi.lft.to/lastmile_qr_scan', 'android': 'https://chi.lft.to/lastmile_qr_scan'}",13206,"['CREDITCARD', 'KEY', 'TRANSITCARD']",False,[],Loomis St & Jackson Blvd,19,146,classic,False,146,,,,,,
True,41.845687,-87.622481,a3a62fc9-a135-11e9-9cda-0a87ae2ba916,"{'ios': 'https://chi.lft.to/lastmile_qr_scan', 'android': 'https://chi.lft.to/lastmile_qr_scan'}",TA1307000005,"['CREDITCARD', 'KEY', 'TRANSITCARD']",False,[],Indiana Ave & 26th St,15,147,classic,False,147,,,,,,
True,41.834734,-87.625813,a3a634dd-a135-11e9-9cda-0a87ae2ba916,"{'ios': 'https://chi.lft.to/lastmile_qr_scan', 'android': 'https://chi.lft.to/lastmile_qr_scan'}",13216,"['CREDITCARD', 'KEY', 'TRANSITCARD']",False,[],State St & 33rd St,15,148,classic,False,148,,,,,,
True,41.8349,-87.61793,a3a639f5-a135-11e9-9cda-0a87ae2ba916,"{'ios': 'https://chi.lft.to/lastmile_qr_scan', 'android': 'https://chi.lft.to/lastmile_qr_scan'}",13217,"['CREDITCARD', 'KEY', 'TRANSITCARD']",False,[],Calumet Ave & 33rd St,11,149,classic,False,149,,,,,,
True,41.838556,-87.608218,a3a640d1-a135-11e9-9cda-0a87ae2ba916,"{'ios': 'https://chi.lft.to/lastmile_qr_scan', 'android': 'https://chi.lft.to/lastmile_qr_scan'}",TA1307000048,"['CREDITCARD', 'KEY', 'TRANSITCARD']",False,[],Fort Dearborn Dr & 31st St,27,150,classic,False,150,,,,,,
True,41.932225,-87.658617,a3a64639-a135-11e9-9cda-0a87ae2ba916,"{'ios': 'https://chi.lft.to/lastmile_qr_scan', 'android': 'https://chi.lft.to/lastmile_qr_scan'}",TA1307000064,"['CREDITCARD', 'KEY', 'TRANSITCARD']",False,[],Lincoln Ave & Diversey Pkwy,15,152,classic,False,152,,,,,,
True,41.935733,-87.663576,a3a6c38e-a135-11e9-9cda-0a87ae2ba916,"{'ios': 'https://chi.lft.to/lastmile_qr_scan', 'android': 'https://chi.lft.to/lastmile_qr_scan'}",TA1307000006,"['CREDITCARD', 'KEY', 'TRANSITCARD']",False,[],Southport Ave & Wellington Ave,19,153,classic,False,153,,,,,,
True,41.93947775040509,-87.6637476682663,a3a6c910-a135-11e9-9cda-0a87ae2ba916,"{'ios': 'https://chi.lft.to/lastmile_qr_scan', 'android': 'https://chi.lft.to/lastmile_qr_scan'}",13229,"['CREDITCARD', 'KEY', 'TRANSITCARD']",False,[],Southport Ave & Belmont Ave,15,154,classic,False,154,,,,,,
True,41.9364968219,-87.6475386582,a3a6ce53-a135-11e9-9cda-0a87ae2ba916,"{'ios': 'https://chi.lft.to/lastmile_qr_scan', 'android': 'https://chi.lft.to/lastmile_qr_scan'}",TA1307000136,"['CREDITCARD', 'KEY', 'TRANSITCARD']",False,[],Clark St & Wellington Ave,15,156,classic,False,156,,,,,,
True,41.9366884494997,-87.63682901859283,a3a6d371-a135-11e9-9cda-0a87ae2ba916,"{'ios': 'https://chi.lft.to/lastmile_qr_scan', 'android': 'https://chi.lft.to/lastmile_qr_scan'}",TA1307000041,"['CREDITCARD', 'KEY', 'TRANSITCARD']",False,[],Lake Shore Dr & Wellington Ave,15,157,classic,False,157,,,,,,
True,41.912616,-87.681391,a3a6d884-a135-11e9-9cda-0a87ae2ba916,"{'ios': 'https://chi.lft.to/lastmile_qr_scan', 'android': 'https://chi.lft.to/lastmile_qr_scan'}",13243,"['CREDITCARD', 'KEY', 'TRANSITCARD']",False,[],Milwaukee Ave & Wabansia Ave,15,158,classic,False,158,,,,,,
True,41.907781,-87.685854,a3a6de38-a135-11e9-9cda-0a87ae2ba916,"{'ios': 'https://chi.lft.to/lastmile_qr_scan', 'android': 'https://chi.lft.to/lastmile_qr_scan'}",13245,"['CREDITCARD', 'KEY', 'TRANSITCARD']",False,[],Claremont Ave & Hirsch St,11,159,classic,False,159,,,,,,
True,41.910535,-87.689556,a3a6e359-a135-11e9-9cda-0a87ae2ba916,"{'ios': 'https://chi.lft.to/lastmile_qr_scan', 'android': 'https://chi.lft.to/lastmile_qr_scan'}",13257,"['CREDITCARD', 'KEY', 'TRANSITCARD']",False,[],Campbell Ave & North Ave,15,160,classic,False,160,,,,,,
True,41.89576474564,-87.6259080327,a3a6e866-a135-11e9-9cda-0a87ae2ba916,"{'ios': 'https://chi.lft.to/lastmile_qr_scan', 'android': 'https://chi.lft.to/lastmile_qr_scan'}",15530,"['CREDITCARD', 'KEY', 'TRANSITCARD']",False,[],Rush St & Superior St,23,161,classic,False,161,,,,,,
True,41.93588,-87.67842,a3a6ed98-a135-11e9-9cda-0a87ae2ba916,"{'ios': 'https://chi.lft.to/lastmile_qr_scan', 'android': 'https://chi.lft.to/lastmile_qr_scan'}",13268,"['CREDITCARD', 'KEY', 'TRANSITCARD']",False,[],Damen Ave & Wellington Ave,15,162,classic,False,162,,,,,,
True,41.931931,-87.677856,a3a6f2a2-a135-11e9-9cda-0a87ae2ba916,"{'ios': 'https://chi.lft.to/lastmile_qr_scan', 'android': 'https://chi.lft.to/lastmile_qr_scan'}",13271,"['CREDITCARD', 'KEY', 'TRANSITCARD']",False,[],Damen Ave & Clybourn Ave,15,163,classic,False,163,,,,,,
True,41.885837,-87.6355,a3a6f7a5-a135-11e9-9cda-0a87ae2ba916,"{'ios': 'https://chi.lft.to/lastmile_qr_scan', 'android': 'https://chi.lft.to/lastmile_qr_scan'}",TA1307000111,"['CREDITCARD', 'KEY', 'TRANSITCARD']",False,[],Franklin St & Lake St,27,164,classic,False,164,,,,,,
True,41.95078,-87.659172,a3a6fcac-a135-11e9-9cda-0a87ae2ba916,"{'ios': 'https://chi.lft.to/lastmile_qr_scan', 'android': 'https://chi.lft.to/lastmile_qr_scan'}",TA1307000127,"['CREDITCARD', 'KEY', 'TRANSITCARD']",False,[],Clark St & Grace St,23,165,classic,False,165,,,,,,
True,41.92883,-87.668507,a3a701b8-a135-11e9-9cda-0a87ae2ba916,"{'ios': 'https://chi.lft.to/lastmile_qr_scan', 'android': 'https://chi.lft.to/lastmile_qr_scan'}",13296,"['CREDITCARD', 'KEY', 'TRANSITCARD']",False,[],Ashland Ave & Wrightwood Ave,15,166,classic,False,166,,,,,,
True,41.8492,-87.67564,a3a706c0-a135-11e9-9cda-0a87ae2ba916,"{'ios': 'https://chi.lft.to/lastmile_qr_scan', 'android': 'https://chi.lft.to/lastmile_qr_scan'}",TA1307000066,"['CREDITCARD', 'KEY', 'TRANSITCARD']",False,[],Damen Ave & Coulter St,7,167,classic,False,167,,,,,,
True,41.864059,-87.623727,a3a70bbd-a135-11e9-9cda-0a87ae2ba916,"{'ios': 'https://chi.lft.to/lastmile_qr_scan', 'android': 'https://chi.lft.to/lastmile_qr_scan'}",TA1307000124,"['CREDITCARD', 'KEY', 'TRANSITCARD']",False,[],Michigan Ave & 14th St,19,168,classic,False,168,,,,,,
True,41.874255,-87.639573,a3a710c5-a135-11e9-9cda-0a87ae2ba916,"{'ios': 'https://chi.lft.to/lastmile_qr_scan', 'android': 'https://chi.lft.to/lastmile_qr_scan'}",13326,"['CREDITCARD', 'KEY', 'TRANSITCARD']",False,[],Canal St & Harrison St,15,169,classic,False,169,,,,,,
True,41.85795,-87.640826,a3a715ce-a135-11e9-9cda-0a87ae2ba916,"{'ios': 'https://chi.lft.to/lastmile_qr_scan', 'android': 'https://chi.lft.to/lastmile_qr_scan'}",TA1307000044,"['CREDITCARD', 'KEY', 'TRANSITCARD']",False,[],Clinton St & 18th St,15,170,classic,False,170,,,,,,
True,41.855136,-87.654127,a3a71b0a-a135-11e9-9cda-0a87ae2ba916,"{'ios': 'https://chi.lft.to/lastmile_qr_scan', 'android': 'https://chi.lft.to/lastmile_qr_scan'}",13331,"['CREDITCARD', 'KEY', 'TRANSITCARD']",False,[],May St & Cullerton St,11,171,classic,False,171,,,,,,
True,41.90230870122,-87.627690528,a3a72012-a135-11e9-9cda-0a87ae2ba916,"{'ios': 'https://chi.lft.to/lastmile_qr_scan', 'android': 'https://chi.lft.to/lastmile_qr_scan'}",KA1504000133,"['CREDITCARD', 'KEY', 'TRANSITCARD']",False,[],Rush St & Cedar St,11,172,classic,False,172,,,,,,
True,41.89691,-87.621743,a3a7258b-a135-11e9-9cda-0a87ae2ba916,"{'ios': 'https://chi.lft.to/lastmile_qr_scan', 'android': 'https://chi.lft.to/lastmile_qr_scan'}",13338,"['CREDITCARD', 'KEY', 'TRANSITCARD']",False,[],Mies van der Rohe Way & Chicago Ave,15,173,classic,False,173,,,,,,
True,41.882091,-87.639833,a3a72aad-a135-11e9-9cda-0a87ae2ba916,"{'ios': 'https://chi.lft.to/lastmile_qr_scan', 'android': 'https://chi.lft.to/lastmile_qr_scan'}",13341,"['CREDITCARD', 'KEY', 'TRANSITCARD']",False,[],Canal St & Madison St,35,174,classic,False,174,,,,,,
True,41.872596,-87.633502,a3a72fc4-a135-11e9-9cda-0a87ae2ba916,"{'ios': 'https://chi.lft.to/lastmile_qr_scan', 'android': 'https://chi.lft.to/lastmile_qr_scan'}",SL-011,"['CREDITCARD', 'KEY', 'TRANSITCARD']",False,[],Wells St & Polk St,19,175,classic,False,175,,,,,,
True,41.902973,-87.63128,a3a734ce-a135-11e9-9cda-0a87ae2ba916,"{'ios': 'https://chi.lft.to/lastmile_qr_scan', 'android': 'https://chi.lft.to/lastmile_qr_scan'}",TA1307000039,"['CREDITCARD', 'KEY', 'TRANSITCARD']",False,[],Clark St & Elm St,39,176,classic,False,176,,,,,,
True,41.926277,-87.630834,a3a739e4-a135-11e9-9cda-0a87ae2ba916,"{'ios': 'https://chi.lft.to/lastmile_qr_scan', 'android': 'https://chi.lft.to/lastmile_qr_scan'}",TA1308000001,"['CREDITCARD', 'KEY', 'TRANSITCARD']",False,[],Theater on the Lake,31,177,classic,False,177,,,,,,
True,41.856594,-87.627542,a3a73ef1-a135-11e9-9cda-0a87ae2ba916,"{'ios': 'https://chi.lft.to/lastmile_qr_scan', 'android': 'https://chi.lft.to/lastmile_qr_scan'}",SL-013,"['CREDITCARD', 'KEY', 'TRANSITCARD']",False,[],State St & 19th St,15,178,classic,False,178,,,,,,
True,41.8246,-87.61678,a3a743ff-a135-11e9-9cda-0a87ae2ba916,"{'ios': 'https://chi.lft.to/lastmile_qr_scan', 'android': 'https://chi.lft.to/lastmile_qr_scan'}",13420,"['CREDITCARD', 'KEY', 'TRANSITCARD']",False,[],MLK Jr Dr & Pershing Rd,15,179,classic,False,179,,,,,,
True,41.906866,-87.626217,a3a74947-a135-11e9-9cda-0a87ae2ba916,"{'ios': 'https://chi.lft.to/lastmile_qr_scan', 'android': 'https://chi.lft.to/lastmile_qr_scan'}",KA1504000134,"['CREDITCARD', 'KEY', 'TRANSITCARD']",False,[],Ritchie Ct & Banks St,15,180,classic,False,180,,,,,,
True,41.890762,-87.631697,a3a74e60-a135-11e9-9cda-0a87ae2ba916,"{'ios': 'https://chi.lft.to/lastmile_qr_scan', 'android': 'https://chi.lft.to/lastmile_qr_scan'}",13430,"['CREDITCARD', 'KEY', 'TRANSITCARD']",False,[],LaSalle St & Illinois St,31,181,classic,False,181,,,,,,
True,41.903222,-87.634324,a3a7537c-a135-11e9-9cda-0a87ae2ba916,"{'ios': 'https://chi.lft.to/lastmile_qr_scan', 'android': 'https://chi.lft.to/lastmile_qr_scan'}",KA1504000135,"['CREDITCARD', 'KEY', 'TRANSITCARD']",False,[],Wells St & Elm St,23,182,classic,False,182,,,,,,
True,41.901315,-87.677409,a3a75885-a135-11e9-9cda-0a87ae2ba916,"{'ios': 'https://chi.lft.to/lastmile_qr_scan', 'android': 'https://chi.lft.to/lastmile_qr_scan'}",TA1307000070,"['CREDITCARD', 'KEY', 'TRANSITCARD']",False,[],Damen Ave & Thomas St (Augusta Blvd),23,183,classic,False,183,,,,,,
True,41.8310363140161,-87.62679755687714,a3a75d8a-a135-11e9-9cda-0a87ae2ba916,"{'ios': 'https://chi.lft.to/lastmile_qr_scan', 'android': 'https://chi.lft.to/lastmile_qr_scan'}",TA1307000129,"['CREDITCARD', 'KEY', 'TRANSITCARD']",False,[],State St & 35th St,19,184,classic,False,184,,,,,,
True,41.917741,-87.691392,a3a762a1-a135-11e9-9cda-0a87ae2ba916,"{'ios': 'https://chi.lft.to/lastmile_qr_scan', 'android': 'https://chi.lft.to/lastmile_qr_scan'}",13266,"['CREDITCARD', 'KEY', 'TRANSITCARD']",False,[],Stave St & Armitage Ave,11,185,classic,False,185,,,,,,
True,41.891795,-87.658751,a3a767b1-a135-11e9-9cda-0a87ae2ba916,"{'ios': 'https://chi.lft.to/lastmile_qr_scan', 'android': 'https://chi.lft.to/lastmile_qr_scan'}",13194,"['CREDITCARD', 'KEY', 'TRANSITCARD']",False,[],Ogden Ave & Race Ave,15,186,classic,False,186,,,,,,
True,41.92533,-87.6658,a3a76cb6-a135-11e9-9cda-0a87ae2ba916,"{'ios': 'https://chi.lft.to/lastmile_qr_scan', 'android': 'https://chi.lft.to/lastmile_qr_scan'}",TA1307000001,"['CREDITCARD', 'KEY', 'TRANSITCARD']",False,[],Greenview Ave & Fullerton Ave,15,188,classic,False,188,,,,,,
True,41.928773,-87.663913,a3a771c2-a135-11e9-9cda-0a87ae2ba916,"{'ios': 'https://chi.lft.to/lastmile_qr_scan', 'android': 'https://chi.lft.to/lastmile_qr_scan'}",TA1307000113,"['CREDITCARD', 'KEY', 'TRANSITCARD']",False,[],Southport Ave & Wrightwood Ave,15,190,classic,False,190,,,,,,
True,41.88169,-87.63953,a3a7775b-a135-11e9-9cda-0a87ae2ba916,"{'ios': 'https://chi.lft.to/lastmile_qr_scan', 'android': 'https://chi.lft.to/lastmile_qr_scan'}",13056,"['CREDITCARD', 'KEY', 'TRANSITCARD']",False,[],Canal St & Monroe St,27,191,classic,False,191,,,,,,
True,41.879255,-87.639904,a3a77c8d-a135-11e9-9cda-0a87ae2ba916,"{'ios': 'https://chi.lft.to/lastmile_qr_scan', 'android': 'https://chi.lft.to/lastmile_qr_scan'}",13011,"['CREDITCARD', 'KEY', 'TRANSITCARD']",False,[],Canal St & Adams St,47,192,classic,False,192,,,,,,
True,41.841707,-87.626938,a3a781a6-a135-11e9-9cda-0a87ae2ba916,"{'ios': 'https://chi.lft.to/lastmile_qr_scan', 'android': 'https://chi.lft.to/lastmile_qr_scan'}",13213,"['CREDITCARD', 'KEY', 'TRANSITCARD']",False,[],State St & 29th St,11,193,classic,False,193,,,,,,
True,41.886875,-87.62603,a3a786ac-a135-11e9-9cda-0a87ae2ba916,"{'ios': 'https://chi.lft.to/lastmile_qr_scan', 'android': 'https://chi.lft.to/lastmile_qr_scan'}",TA1307000131,"['CREDITCARD', 'KEY', 'TRANSITCARD']",False,[],Wabash Ave & Wacker Pl,19,194,classic,False,194,,,,,,
True,41.884728,-87.619521,a3a78bc0-a135-11e9-9cda-0a87ae2ba916,"{'ios': 'https://chi.lft.to/lastmile_qr_scan', 'android': 'https://chi.lft.to/lastmile_qr_scan'}",13263,"['CREDITCARD', 'KEY', 'TRANSITCARD']",False,[],Columbus Dr & Randolph St,55,195,classic,False,195,,,,,,
True,41.890573,-87.622072,a3a790cc-a135-11e9-9cda-0a87ae2ba916,"{'ios': 'https://chi.lft.to/lastmile_qr_scan', 'android': 'https://chi.lft.to/lastmile_qr_scan'}",13427,"['CREDITCARD', 'KEY', 'TRANSITCARD']",False,[],Cityfront Plaza Dr & Pioneer Ct,31,196,classic,False,196,,,,,,
True,41.882134,-87.625125,a3a795d7-a135-11e9-9cda-0a87ae2ba916,"{'ios': 'https://chi.lft.to/lastmile_qr_scan', 'android': 'https://chi.lft.to/lastmile_qr_scan'}",13036,"['CREDITCARD', 'KEY', 'TRANSITCARD']",False,[],Michigan Ave & Madison St,19,197,classic,False,197,,,,,,
True,41.881892,-87.648789,a3a79adb-a135-11e9-9cda-0a87ae2ba916,"{'ios': 'https://chi.lft.to/lastmile_qr_scan', 'android': 'https://chi.lft.to/lastmile_qr_scan'}",TA1307000120,"['CREDITCARD', 'KEY', 'TRANSITCARD']",False,[],Green St & Madison St,27,198,classic,False,198,,,,,,
True,41.891466,-87.626761,a3a79fdc-a135-11e9-9cda-0a87ae2ba916,"{'ios': 'https://chi.lft.to/lastmile_qr_scan', 'android': 'https://chi.lft.to/lastmile_qr_scan'}",TA1307000117,"['CREDITCARD', 'KEY', 'TRANSITCARD']",False,[],Wabash Ave & Grand Ave,31,199,classic,False,199,,,,,,
True,41.809851,-87.616279,a3a7a4fc-a135-11e9-9cda-0a87ae2ba916,"{'ios': 'https://chi.lft.to/lastmile_qr_scan', 'android': 'https://chi.lft.to/lastmile_qr_scan'}",TA1308000007,"['CREDITCARD', 'KEY', 'TRANSITCARD']",False,[],MLK Jr Dr & 47th St,11,200,classic,False,200,,,,,,
True,41.82168,-87.6216,a3a7aa0e-a135-11e9-9cda-0a87ae2ba916,"{'ios': 'https://chi.lft.to/lastmile_qr_scan', 'android': 'https://chi.lft.to/lastmile_qr_scan'}",13083,"['CREDITCARD', 'KEY', 'TRANSITCARD']",False,[],Indiana Ave & 40th St,11,201,classic,False,201,,,,,,
True,41.857499,-87.646277,a3a7af11-a135-11e9-9cda-0a87ae2ba916,"{'ios': 'https://chi.lft.to/lastmile_qr_scan', 'android': 'https://chi.lft.to/lastmile_qr_scan'}",13099,"['CREDITCARD', 'KEY', 'TRANSITCARD']",False,[],Halsted St & 18th St,15,202,classic,False,202,,,,,,
True,41.854109,-87.685838,a3a7b41d-a135-11e9-9cda-0a87ae2ba916,"{'ios': 'https://chi.lft.to/lastmile_qr_scan', 'android': 'https://chi.lft.to/lastmile_qr_scan'}",13091,"['CREDITCARD', 'KEY', 'TRANSITCARD']",False,[],Western Ave & 21st St,15,203,classic,False,203,,,,,,
True,41.794853,-87.618691,a3a7b936-a135-11e9-9cda-0a87ae2ba916,"{'ios': 'https://chi.lft.to/lastmile_qr_scan', 'android': 'https://chi.lft.to/lastmile_qr_scan'}",TA1307000160,"['CREDITCARD', 'KEY', 'TRANSITCARD']",False,[],Prairie Ave & Garfield Blvd,11,204,classic,False,204,,,,,,
True,41.857901,-87.668745,a3a7be40-a135-11e9-9cda-0a87ae2ba916,"{'ios': 'https://chi.lft.to/lastmile_qr_scan', 'android': 'https://chi.lft.to/lastmile_qr_scan'}",TA1307000159,"['CREDITCARD', 'KEY', 'TRANSITCARD']",False,[],Paulina St & 18th St,15,205,classic,False,205,,,,,,
True,41.847203,-87.646795,a3a7c341-a135-11e9-9cda-0a87ae2ba916,"{'ios': 'https://chi.lft.to/lastmile_qr_scan', 'android': 'https://chi.lft.to/lastmile_qr_scan'}",TA1308000013,"['CREDITCARD', 'KEY', 'TRANSITCARD']",False,[],Halsted St & Archer Ave,15,206,classic,False,206,,,,,,
True,41.84358,-87.645368,a3a7c852-a135-11e9-9cda-0a87ae2ba916,"{'ios': 'https://chi.lft.to/lastmile_qr_scan', 'android': 'https://chi.lft.to/lastmile_qr_scan'}",TA1307000153,"['CREDITCARD', 'KEY', 'TRANSITCARD']",False,[],Emerald Ave & 28th St,15,207,classic,False,207,,,,,,
True,41.85491457576575,-87.66355991363525,a3a7cd56-a135-11e9-9cda-0a87ae2ba916,"{'ios': 'https://chi.lft.to/lastmile_qr_scan', 'android': 'https://chi.lft.to/lastmile_qr_scan'}",13307,"['CREDITCARD', 'KEY', 'TRANSITCARD']",False,[],Laflin St & Cullerton St,15,208,classic,False,208,,,,,,
True,41.849527,-87.640591,a3a7d279-a135-11e9-9cda-0a87ae2ba916,"{'ios': 'https://chi.lft.to/lastmile_qr_scan', 'android': 'https://chi.lft.to/lastmile_qr_scan'}",TA1308000014,"['CREDITCARD', 'KEY', 'TRANSITCARD']",False,[],Normal Ave & Archer Ave,11,209,classic,False,209,,,,,,
True,41.90345,-87.667747,a3a7d782-a135-11e9-9cda-0a87ae2ba916,"{'ios': 'https://chi.lft.to/lastmile_qr_scan', 'android': 'https://chi.lft.to/lastmile_qr_scan'}",13061,"['CREDITCARD', 'KEY', 'TRANSITCARD']",False,[],Ashland Ave & Division St,27,210,classic,False,210,,,,,,
True,41.89434513742426,-87.62279838323593,a3a7dc8c-a135-11e9-9cda-0a87ae2ba916,"{'ios': 'https://chi.lft.to/lastmile_qr_scan', 'android': 'https://chi.lft.to/lastmile_qr_scan'}",13016,"['CREDITCARD', 'KEY', 'TRANSITCARD']",False,[],St. Clair St & Erie St,19,211,classic,False,211,,,,,,
True,41.889906,-87.634266,a3a7e19b-a135-11e9-9cda-0a87ae2ba916,"{'ios': 'https://chi.lft.to/lastmile_qr_scan', 'android': 'https://chi.lft.to/lastmile_qr_scan'}",TA1307000151,"['CREDITCARD', 'KEY', 'TRANSITCARD']",False,[],Wells St & Hubbard St,31,212,classic,False,212,,,,,,
True,41.91050936666395,-87.6823890209198,a3a7e69e-a135-11e9-9cda-0a87ae2ba916,"{'ios': 'https://chi.lft.to/lastmile_qr_scan', 'android': 'https://chi.lft.to/lastmile_qr_scan'}",TA1308000005,"['CREDITCARD', 'KEY', 'TRANSITCARD']",False,[],Leavitt St & North Ave,15,213,classic,False,213,,,,,,
True,41.891264346481535,-87.676842212677,a3a7eba7-a135-11e9-9cda-0a87ae2ba916,"{'ios': 'https://chi.lft.to/lastmile_qr_scan', 'android': 'https://chi.lft.to/lastmile_qr_scan'}",TA1308000006,"['CREDITCARD', 'KEY', 'TRANSITCARD']",False,[],Damen Ave & Grand Ave,23,214,classic,False,214,,,,,,
True,41.88137,-87.67493,a3a7f0ba-a135-11e9-9cda-0a87ae2ba916,"{'ios': 'https://chi.lft.to/lastmile_qr_scan', 'android': 'https://chi.lft.to/lastmile_qr_scan'}",13134,"['CREDITCARD', 'KEY', 'TRANSITCARD']",False,[],Damen Ave & Madison St,15,215,classic,False,215,,,,,,
True,41.903029,-87.697474,a3a7f5ea-a135-11e9-9cda-0a87ae2ba916,"{'ios': 'https://chi.lft.to/lastmile_qr_scan', 'android': 'https://chi.lft.to/lastmile_qr_scan'}",13256,"['CREDITCARD', 'KEY', 'TRANSITCARD']",False,[],California Ave & Division St,15,216,classic,False,216,,,,,,
True,41.886616486027656,-87.6580399274826,a3a7faf7-a135-11e9-9cda-0a87ae2ba916,"{'ios': 'https://chi.lft.to/lastmile_qr_scan', 'android': 'https://chi.lft.to/lastmile_qr_scan'}",13197,"['CREDITCARD', 'KEY', 'TRANSITCARD']",False,[],Elizabeth (May) St & Fulton St,15,217,classic,False,217,,,,,,
True,41.856802,-87.633879,a3a80009-a135-11e9-9cda-0a87ae2ba916,"{'ios': 'https://chi.lft.to/lastmile_qr_scan', 'android': 'https://chi.lft.to/lastmile_qr_scan'}",SL-006,"['CREDITCARD', 'KEY', 'TRANSITCARD']",False,[],Wells St & 19th St,11,218,classic,False,218,,,,,,
True,41.915983,-87.677335,a3a80512-a135-11e9-9cda-0a87ae2ba916,"{'ios': 'https://chi.lft.to/lastmile_qr_scan', 'android': 'https://chi.lft.to/lastmile_qr_scan'}",13133,"['CREDITCARD', 'KEY', 'TRANSITCARD']",False,[],Damen Ave & Cortland St,19,219,classic,False,219,,,,,,
True,41.931248,-87.644336,a3a80a1e-a135-11e9-9cda-0a87ae2ba916,"{'ios': 'https://chi.lft.to/lastmile_qr_scan', 'android': 'https://chi.lft.to/lastmile_qr_scan'}",TA1307000142,"['CREDITCARD', 'KEY', 'TRANSITCARD']",False,[],Clark St & Drummond Pl,23,220,classic,False,220,,,,,,
True,41.92019556200566,-87.69265919923781,a3a80f32-a135-11e9-9cda-0a87ae2ba916,"{'ios': 'https://chi.lft.to/lastmile_qr_scan', 'android': 'https://chi.lft.to/lastmile_qr_scan'}",13242,"['CREDITCARD', 'KEY', 'TRANSITCARD']",False,[],Milwaukee Ave & Rockwell St,19,222,classic,False,222,,,,,,
True,41.918216,-87.656936,a3a817dc-a135-11e9-9cda-0a87ae2ba916,"{'ios': 'https://chi.lft.to/lastmile_qr_scan', 'android': 'https://chi.lft.to/lastmile_qr_scan'}",TA1307000163,"['CREDITCARD', 'KEY', 'TRANSITCARD']",False,[],Clifton Ave & Armitage Ave,15,223,classic,False,223,,,,,,
True,41.913865,-87.648755,a3a81d33-a135-11e9-9cda-0a87ae2ba916,"{'ios': 'https://chi.lft.to/lastmile_qr_scan', 'android': 'https://chi.lft.to/lastmile_qr_scan'}",TA1307000166,"['CREDITCARD', 'KEY', 'TRANSITCARD']",False,[],Halsted St & Willow St,19,224,classic,False,224,,,,,,
True,41.919936,-87.64883,a3a8224f-a135-11e9-9cda-0a87ae2ba916,"{'ios': 'https://chi.lft.to/lastmile_qr_scan', 'android': 'https://chi.lft.to/lastmile_qr_scan'}",13192,"['CREDITCARD', 'KEY', 'TRANSITCARD']",False,[],Halsted St & Dickens Ave,23,225,classic,False,225,,,,,,
True,41.939743,-87.658865,a3a8275e-a135-11e9-9cda-0a87ae2ba916,"{'ios': 'https://chi.lft.to/lastmile_qr_scan', 'android': 'https://chi.lft.to/lastmile_qr_scan'}",TA1308000019,"['CREDITCARD', 'KEY', 'TRANSITCARD']",False,[],Racine Ave & Belmont Ave,15,226,classic,False,226,,,,,,
True,41.94815,-87.66394,a3a82c6c-a135-11e9-9cda-0a87ae2ba916,"{'ios': 'https://chi.lft.to/lastmile_qr_scan', 'android': 'https://chi.lft.to/lastmile_qr_scan'}",13235,"['CREDITCARD', 'KEY', 'TRANSITCARD']",False,[],Southport Ave & Waveland Ave,23,227,classic,False,227,,,,,,
True,41.9406,-87.6785,a3a83181-a135-11e9-9cda-0a87ae2ba916,"{'ios': 'https://chi.lft.to/lastmile_qr_scan', 'android': 'https://chi.lft.to/lastmile_qr_scan'}",13143,"['CREDITCARD', 'KEY', 'TRANSITCARD']",False,[],Damen Ave & Melrose Ave,15,228,classic,False,228,,,,,,
True,41.943739,-87.66402,a3a83698-a135-11e9-9cda-0a87ae2ba916,"{'ios': 'https://chi.lft.to/lastmile_qr_scan', 'android': 'https://chi.lft.to/lastmile_qr_scan'}",13071,"['CREDITCARD', 'KEY', 'TRANSITCARD']",False,[],Southport Ave & Roscoe St,19,229,classic,False,229,,,,,,
True,41.94334,-87.67097,a3a83ba1-a135-11e9-9cda-0a87ae2ba916,"{'ios': 'https://chi.lft.to/lastmile_qr_scan', 'android': 'https://chi.lft.to/lastmile_qr_scan'}",TA1307000138,"['CREDITCARD', 'KEY', 'TRANSITCARD']",False,[],Lincoln Ave & Roscoe St,19,230,classic,False,230,,,,,,
True,41.96167,-87.65464,a3a840a6-a135-11e9-9cda-0a87ae2ba916,"{'ios': 'https://chi.lft.to/lastmile_qr_scan', 'android': 'https://chi.lft.to/lastmile_qr_scan'}",TA1307000107,"['CREDITCARD', 'KEY', 'TRANSITCARD']",False,[],Sheridan Rd & Montrose Ave,23,231,classic,False,231,,,,,,
True,41.94947274088333,-87.64645278453827,a3a845b0-a135-11e9-9cda-0a87ae2ba916,"{'ios': 'https://chi.lft.to/lastmile_qr_scan', 'android': 'https://chi.lft.to/lastmile_qr_scan'}",TA1307000150,"['CREDITCARD', 'KEY', 'TRANSITCARD']",False,[],Pine Grove Ave & Waveland Ave,23,232,classic,False,232,,,,,,
True,41.883165,-87.6511,a3a84ab4-a135-11e9-9cda-0a87ae2ba916,"{'ios': 'https://chi.lft.to/lastmile_qr_scan', 'android': 'https://chi.lft.to/lastmile_qr_scan'}",13409,"['CREDITCARD', 'KEY', 'TRANSITCARD']",False,[],Sangamon St & Washington Blvd,15,233,classic,False,233,,,,,,
True,41.961588,-87.666036,a3a84fb8-a135-11e9-9cda-0a87ae2ba916,"{'ios': 'https://chi.lft.to/lastmile_qr_scan', 'android': 'https://chi.lft.to/lastmile_qr_scan'}",KA1503000022,"['CREDITCARD', 'KEY', 'TRANSITCARD']",False,[],Clark St & Montrose Ave,19,234,classic,False,234,,,,,,
True,41.907626,-87.638566,a3a854bf-a135-11e9-9cda-0a87ae2ba916,"{'ios': 'https://chi.lft.to/lastmile_qr_scan', 'android': 'https://chi.lft.to/lastmile_qr_scan'}",TA1307000143,"['CREDITCARD', 'KEY', 'TRANSITCARD']",False,[],Sedgwick St & Schiller St,15,236,classic,False,236,,,,,,
True,41.842052,-87.617,a3a859c4-a135-11e9-9cda-0a87ae2ba916,"{'ios': 'https://chi.lft.to/lastmile_qr_scan', 'android': 'https://chi.lft.to/lastmile_qr_scan'}",TA1307000139,"['CREDITCARD', 'KEY', 'TRANSITCARD']",False,[],MLK Jr Dr & 29th St,19,237,classic,False,237,,,,,,
True,41.961406,-87.676169,a3a85eda-a135-11e9-9cda-0a87ae2ba916,"{'ios': 'https://chi.lft.to/lastmile_qr_scan', 'android': 'https://chi.lft.to/lastmile_qr_scan'}",TA1307000144,"['CREDITCARD', 'KEY', 'TRANSITCARD']",False,[],Wolcott (Ravenswood) Ave & Montrose Ave,15,238,classic,False,238,,,,,,
True,41.96649453206122,-87.68841862678528,a3a866a5-a135-11e9-9cda-0a87ae2ba916,"{'ios': 'https://chi.lft.to/lastmile_qr_scan', 'android': 'https://chi.lft.to/lastmile_qr_scan'}",TA1307000140,"['CREDITCARD', 'KEY', 'TRANSITCARD']",False,[],Western Ave & Leland Ave,19,239,classic,False,239,,,,,,
True,41.954245,-87.654406,a3a86c05-a135-11e9-9cda-0a87ae2ba916,"{'ios': 'https://chi.lft.to/lastmile_qr_scan', 'android': 'https://chi.lft.to/lastmile_qr_scan'}",13063,"['CREDITCARD', 'KEY', 'TRANSITCARD']",False,[],Sheridan Rd & Irving Park Rd,27,240,classic,False,240,,,,,,
True,41.871737,-87.65103,a3a8711c-a135-11e9-9cda-0a87ae2ba916,"{'ios': 'https://chi.lft.to/lastmile_qr_scan', 'android': 'https://chi.lft.to/lastmile_qr_scan'}",TA1307000130,"['CREDITCARD', 'KEY', 'TRANSITCARD']",False,[],Morgan St & Polk St,19,241,classic,False,241,,,,,,
True,41.967094,-87.679028,a3a87631-a135-11e9-9cda-0a87ae2ba916,"{'ios': 'https://chi.lft.to/lastmile_qr_scan', 'android': 'https://chi.lft.to/lastmile_qr_scan'}",TA1307000158,"['CREDITCARD', 'KEY', 'TRANSITCARD']",False,[],Damen Ave & Leland Ave,15,242,classic,False,242,,,,,,
True,41.963004,-87.684781,a3a87b3f-a135-11e9-9cda-0a87ae2ba916,"{'ios': 'https://chi.lft.to/lastmile_qr_scan', 'android': 'https://chi.lft.to/lastmile_qr_scan'}",TA1307000156,"['CREDITCARD', 'KEY', 'TRANSITCARD']",False,[],Lincoln Ave & Sunnyside Ave,15,243,classic,False,243,,,,,,
True,41.95469,-87.67393,a3a8804b-a135-11e9-9cda-0a87ae2ba916,"{'ios': 'https://chi.lft.to/lastmile_qr_scan', 'android': 'https://chi.lft.to/lastmile_qr_scan'}",TA1307000149,"['CREDITCARD', 'KEY', 'TRANSITCARD']",False,[],Ravenswood Ave & Irving Park Rd,19,244,classic,False,244,,,,,,
True,41.961004,-87.649603,a3a8855c-a135-11e9-9cda-0a87ae2ba916,"{'ios': 'https://chi.lft.to/lastmile_qr_scan', 'android': 'https://chi.lft.to/lastmile_qr_scan'}",13389,"['CREDITCARD', 'KEY', 'TRANSITCARD']",False,[],Clarendon Ave & Junior Ter,23,245,classic,False,245,,,,,,
True,41.956057,-87.668835,a3a88a6d-a135-11e9-9cda-0a87ae2ba916,"{'ios': 'https://chi.lft.to/lastmile_qr_scan', 'android': 'https://chi.lft.to/lastmile_qr_scan'}",13249,"['CREDITCARD', 'KEY', 'TRANSITCARD']",False,[],Ashland Ave & Belle Plaine Ave,11,246,classic,False,246,,,,,,
True,41.795212,-87.580715,a3a88f84-a135-11e9-9cda-0a87ae2ba916,"{'ios': 'https://chi.lft.to/lastmile_qr_scan', 'android': 'https://chi.lft.to/lastmile_qr_scan'}",TA1308000009,"['CREDITCARD', 'KEY', 'TRANSITCARD']",False,[],Shore Dr & 55th St,19,247,classic,False,247,,,,,,
True,41.795264,-87.596471,a3a89488-a135-11e9-9cda-0a87ae2ba916,"{'ios': 'https://chi.lft.to/lastmile_qr_scan', 'android': 'https://chi.lft.to/lastmile_qr_scan'}",TA1307000164,"['CREDITCARD', 'KEY', 'TRANSITCARD']",False,[],Woodlawn Ave & 55th St,19,248,classic,False,248,,,,,,
True,41.963982,-87.638181,a3a8999a-a135-11e9-9cda-0a87ae2ba916,"{'ios': 'https://chi.lft.to/lastmile_qr_scan', 'android': 'https://chi.lft.to/lastmile_qr_scan'}",TA1308000012,"['CREDITCARD', 'KEY', 'TRANSITCARD']",False,[],Montrose Harbor,31,249,classic,False,249,,,,,,
True,41.936083,-87.669807,a3a89ea8-a135-11e9-9cda-0a87ae2ba916,"{'ios': 'https://chi.lft.to/lastmile_qr_scan', 'android': 'https://chi.lft.to/lastmile_qr_scan'}",13269,"['CREDITCARD', 'KEY', 'TRANSITCARD']",False,[],Ashland Ave & Wellington Ave,19,250,classic,False,250,,,,,,
True,41.967968,-87.650001,a3a9309d-a135-11e9-9cda-0a87ae2ba916,"{'ios': 'https://chi.lft.to/lastmile_qr_scan', 'android': 'https://chi.lft.to/lastmile_qr_scan'}",TA1307000119,"['CREDITCARD', 'KEY', 'TRANSITCARD']",False,[],Clarendon Ave & Leland Ave,15,251,classic,False,251,,,,,,
True,41.809835,-87.599383,a3a93622-a135-11e9-9cda-0a87ae2ba916,"{'ios': 'https://chi.lft.to/lastmile_qr_scan', 'android': 'https://chi.lft.to/lastmile_qr_scan'}",TA1308000002,"['CREDITCARD', 'KEY', 'TRANSITCARD']",False,[],Greenwood Ave & 47th St,15,252,classic,False,252,,,,,,
True,41.968812,-87.657659,a3a93b6d-a135-11e9-9cda-0a87ae2ba916,"{'ios': 'https://chi.lft.to/lastmile_qr_scan', 'android': 'https://chi.lft.to/lastmile_qr_scan'}",TA1308000021,"['CREDITCARD', 'KEY', 'TRANSITCARD']",False,[],Winthrop Ave & Lawrence Ave,15,253,classic,False,253,,,,,,
True,41.954383,-87.648043,a3a940a2-a135-11e9-9cda-0a87ae2ba916,"{'ios': 'https://chi.lft.to/lastmile_qr_scan', 'android': 'https://chi.lft.to/lastmile_qr_scan'}",TA1308000022,"['CREDITCARD', 'KEY', 'TRANSITCARD']",False,[],Pine Grove Ave & Irving Park Rd,15,254,classic,False,254,,,,,,
True,41.867888,-87.623041,a3a945c0-a135-11e9-9cda-0a87ae2ba916,"{'ios': 'https://chi.lft.to/lastmile_qr_scan', 'android': 'https://chi.lft.to/lastmile_qr_scan'}",SL-005,"['CREDITCARD', 'KEY', 'TRANSITCARD']",False,[],Indiana Ave & Roosevelt Rd,39,255,classic,False,255,,,,,,
True,41.952833,-87.649993,a3a94bc8-a135-11e9-9cda-0a87ae2ba916,"{'ios': 'https://chi.lft.to/lastmile_qr_scan', 'android': 'https://chi.lft.to/lastmile_qr_scan'}",13323,"['CREDITCARD', 'KEY', 'TRANSITCARD']",False,[],Broadway & Sheridan Rd,15,256,classic,False,256,,,,,,
True,41.948797,-87.675278,a3a95142-a135-11e9-9cda-0a87ae2ba916,"{'ios': 'https://chi.lft.to/lastmile_qr_scan', 'android': 'https://chi.lft.to/lastmile_qr_scan'}",13253,"['CREDITCARD', 'KEY', 'TRANSITCARD']",False,[],Lincoln Ave & Waveland Ave,15,257,classic,False,257,,,,,,
True,41.929465,-87.684158,a3a95669-a135-11e9-9cda-0a87ae2ba916,"{'ios': 'https://chi.lft.to/lastmile_qr_scan', 'android': 'https://chi.lft.to/lastmile_qr_scan'}",TA1308000031,"['CREDITCARD', 'KEY', 'TRANSITCARD']",False,[],Logan Blvd & Elston Ave,27,258,classic,False,258,,,,,,
True,41.91849115368695,-87.69742280244827,a3a95b7a-a135-11e9-9cda-0a87ae2ba916,"{'ios': 'https://chi.lft.to/lastmile_qr_scan', 'android': 'https://chi.lft.to/lastmile_qr_scan'}",13259,"['CREDITCARD', 'KEY', 'TRANSITCARD']",False,[],California Ave & Francis Pl (Temp),15,259,classic,False,259,,,,,,
True,41.929567,-87.707857,a3a9607f-a135-11e9-9cda-0a87ae2ba916,"{'ios': 'https://chi.lft.to/lastmile_qr_scan', 'android': 'https://chi.lft.to/lastmile_qr_scan'}",13085,"['CREDITCARD', 'KEY', 'TRANSITCARD']",False,[],Kedzie Ave & Milwaukee Ave,35,260,classic,False,260,,,,,,
True,41.871514,-87.669886,a3a965b2-a135-11e9-9cda-0a87ae2ba916,"{'ios': 'https://chi.lft.to/lastmile_qr_scan', 'android': 'https://chi.lft.to/lastmile_qr_scan'}",13080,"['CREDITCARD', 'KEY', 'TRANSITCARD']",False,[],Hermitage Ave & Polk St,15,261,classic,False,261,,,,,,
True,41.827059,-87.64572,a3a96aca-a135-11e9-9cda-0a87ae2ba916,"{'ios': 'https://chi.lft.to/lastmile_qr_scan', 'android': 'https://chi.lft.to/lastmile_qr_scan'}",TA1307000161,"['CREDITCARD', 'KEY', 'TRANSITCARD']",False,[],Halsted St & 37th St,11,262,classic,False,262,,,,,,
True,41.836208,-87.613533,a3a96fd5-a135-11e9-9cda-0a87ae2ba916,"{'ios': 'https://chi.lft.to/lastmile_qr_scan', 'android': 'https://chi.lft.to/lastmile_qr_scan'}",13215,"['CREDITCARD', 'KEY', 'TRANSITCARD']",False,[],Rhodes Ave & 32nd St,11,263,classic,False,263,,,,,,
True,41.886835,-87.62232,a3a974e1-a135-11e9-9cda-0a87ae2ba916,"{'ios': 'https://chi.lft.to/lastmile_qr_scan', 'android': 'https://chi.lft.to/lastmile_qr_scan'}",TA1308000029,"['CREDITCARD', 'KEY', 'TRANSITCARD']",False,[],Stetson Ave & South Water St,19,264,classic,False,264,,,,,,
True,41.822985,-87.6071,a3a97a01-a135-11e9-9cda-0a87ae2ba916,"{'ios': 'https://chi.lft.to/lastmile_qr_scan', 'android': 'https://chi.lft.to/lastmile_qr_scan'}",TA1308000038,"['CREDITCARD', 'KEY', 'TRANSITCARD']",False,[],Cottage Grove Ave & Oakwood Blvd,15,265,classic,False,265,,,,,,
True,41.809443,-87.591875,a3a98429-a135-11e9-9cda-0a87ae2ba916,"{'ios': 'https://chi.lft.to/lastmile_qr_scan', 'android': 'https://chi.lft.to/lastmile_qr_scan'}",TA1308000035,"['CREDITCARD', 'KEY', 'TRANSITCARD']",False,[],Lake Park Ave & 47th St,15,267,classic,False,267,,,,,,
True,41.911722,-87.626804,a3a9892f-a135-11e9-9cda-0a87ae2ba916,"{'ios': 'https://chi.lft.to/lastmile_qr_scan', 'android': 'https://chi.lft.to/lastmile_qr_scan'}",LF-005,"['CREDITCARD', 'KEY', 'TRANSITCARD']",False,[],Lake Shore Dr & North Blvd,39,268,classic,False,268,,,,,,
True,41.7586696704,-87.586882871,a3a98e37-a135-11e9-9cda-0a87ae2ba916,"{'ios': 'https://chi.lft.to/lastmile_qr_scan', 'android': 'https://chi.lft.to/lastmile_qr_scan'}",KA1503000019,"['CREDITCARD', 'KEY', 'TRANSITCARD']",False,[],Stony Island Ave & 75th St,11,270,classic,False,270,,,,,,
True,41.816499,-87.606582,a3a99346-a135-11e9-9cda-0a87ae2ba916,"{'ios': 'https://chi.lft.to/lastmile_qr_scan', 'android': 'https://chi.lft.to/lastmile_qr_scan'}",TA1308000023,"['CREDITCARD', 'KEY', 'TRANSITCARD']",False,[],Cottage Grove Ave & 43rd St,11,271,classic,False,271,,,,,,
True,41.838842,-87.621857,a3a9984a-a135-11e9-9cda-0a87ae2ba916,"{'ios': 'https://chi.lft.to/lastmile_qr_scan', 'android': 'https://chi.lft.to/lastmile_qr_scan'}",TA1308000036,"['CREDITCARD', 'KEY', 'TRANSITCARD']",False,[],Indiana Ave & 31st St,11,272,classic,False,272,,,,,,
True,41.857813,-87.62455,a3a99d47-a135-11e9-9cda-0a87ae2ba916,"{'ios': 'https://chi.lft.to/lastmile_qr_scan', 'android': 'https://chi.lft.to/lastmile_qr_scan'}",13150,"['CREDITCARD', 'KEY', 'TRANSITCARD']",False,[],Michigan Ave & 18th St,23,273,classic,False,273,,,,,,
True,41.861267,-87.656625,a3a9a24f-a135-11e9-9cda-0a87ae2ba916,"{'ios': 'https://chi.lft.to/lastmile_qr_scan', 'android': 'https://chi.lft.to/lastmile_qr_scan'}",13304,"['CREDITCARD', 'KEY', 'TRANSITCARD']",False,[],Racine Ave & 15th St,15,274,classic,False,274,,,,,,
True,41.865234,-87.666507,a3a9a778-a135-11e9-9cda-0a87ae2ba916,"{'ios': 'https://chi.lft.to/lastmile_qr_scan', 'android': 'https://chi.lft.to/lastmile_qr_scan'}",13354,"['CREDITCARD', 'KEY', 'TRANSITCARD']",False,[],Ashland Ave & 13th St,15,275,classic,False,275,,,,,,
True,41.91044,-87.6972,a3a9acc5-a135-11e9-9cda-0a87ae2ba916,"{'ios': 'https://chi.lft.to/lastmile_qr_scan', 'android': 'https://chi.lft.to/lastmile_qr_scan'}",13258,"['CREDITCARD', 'KEY', 'TRANSITCARD']",False,[],California Ave & North Ave,11,276,classic,False,276,,,,,,
True,41.891072,-87.666611,a3a9b1d7-a135-11e9-9cda-0a87ae2ba916,"{'ios': 'https://chi.lft.to/lastmile_qr_scan', 'android': 'https://chi.lft.to/lastmile_qr_scan'}",13434,"['CREDITCARD', 'KEY', 'TRANSITCARD']",False,[],Ashland Ave & Grand Ave,15,277,classic,False,277,,,,,,
True,41.830629,-87.64129,a3a9b6e9-a135-11e9-9cda-0a87ae2ba916,"{'ios': 'https://chi.lft.to/lastmile_qr_scan', 'android': 'https://chi.lft.to/lastmile_qr_scan'}",TA1308000045,"['CREDITCARD', 'KEY', 'TRANSITCARD']",False,[],Wallace St & 35th St,15,278,classic,False,278,,,,,,
True,41.830661,-87.647172,a3a9bbf0-a135-11e9-9cda-0a87ae2ba916,"{'ios': 'https://chi.lft.to/lastmile_qr_scan', 'android': 'https://chi.lft.to/lastmile_qr_scan'}",TA1308000043,"['CREDITCARD', 'KEY', 'TRANSITCARD']",False,[],Halsted St & 35th St,15,279,classic,False,279,,,,,,
True,41.8378,-87.65114,a3a9c0f6-a135-11e9-9cda-0a87ae2ba916,"{'ios': 'https://chi.lft.to/lastmile_qr_scan', 'android': 'https://chi.lft.to/lastmile_qr_scan'}",TA1308000046,"['CREDITCARD', 'KEY', 'TRANSITCARD']",False,[],Morgan St & 31st St,11,280,classic,False,280,,,,,,
True,41.84847,-87.685109,a3a9c5f7-a135-11e9-9cda-0a87ae2ba916,"{'ios': 'https://chi.lft.to/lastmile_qr_scan', 'android': 'https://chi.lft.to/lastmile_qr_scan'}",TA1309000003,"['CREDITCARD', 'KEY', 'TRANSITCARD']",False,[],Western Ave & 24th St,7,281,classic,False,281,,,,,,
True,41.864883,-87.647071,a3a9cafa-a135-11e9-9cda-0a87ae2ba916,"{'ios': 'https://chi.lft.to/lastmile_qr_scan', 'android': 'https://chi.lft.to/lastmile_qr_scan'}",TA1309000001,"['CREDITCARD', 'KEY', 'TRANSITCARD']",False,[],Halsted St & Maxwell St,15,282,classic,False,282,,,,,,
True,41.878166,-87.631929,a3a9d00a-a135-11e9-9cda-0a87ae2ba916,"{'ios': 'https://chi.lft.to/lastmile_qr_scan', 'android': 'https://chi.lft.to/lastmile_qr_scan'}",TA1309000004,"['CREDITCARD', 'KEY', 'TRANSITCARD']",False,[],LaSalle St & Jackson Blvd,35,283,classic,False,283,,,,,,
True,41.87785,-87.62408,a3a9d529-a135-11e9-9cda-0a87ae2ba916,"{'ios': 'https://chi.lft.to/lastmile_qr_scan', 'android': 'https://chi.lft.to/lastmile_qr_scan'}",TA1309000002,"['CREDITCARD', 'KEY', 'TRANSITCARD']",False,[],Michigan Ave & Jackson Blvd,23,284,classic,False,284,,,,,,
True,41.889899,-87.671473,a3a9da3b-a135-11e9-9cda-0a87ae2ba916,"{'ios': 'https://chi.lft.to/lastmile_qr_scan', 'android': 'https://chi.lft.to/lastmile_qr_scan'}",13432,"['CREDITCARD', 'KEY', 'TRANSITCARD']",False,[],Wood St & Hubbard St,19,285,classic,False,285,,,,,,
True,41.87943409140013,-87.63550400733948,a3a9df3a-a135-11e9-9cda-0a87ae2ba916,"{'ios': 'https://chi.lft.to/lastmile_qr_scan', 'android': 'https://chi.lft.to/lastmile_qr_scan'}",TA1309000008,"['CREDITCARD', 'KEY', 'TRANSITCARD']",False,[],Franklin St & Adams St (Temp),15,286,classic,False,286,,,,,,
True,41.880317,-87.635185,a3a9e44a-a135-11e9-9cda-0a87ae2ba916,"{'ios': 'https://chi.lft.to/lastmile_qr_scan', 'android': 'https://chi.lft.to/lastmile_qr_scan'}",TA1309000007,"['CREDITCARD', 'KEY', 'TRANSITCARD']",False,[],Franklin St & Monroe St,31,287,classic,False,287,,,,,,
True,41.918084,-87.643749,a3a9ecff-a135-11e9-9cda-0a87ae2ba916,"{'ios': 'https://chi.lft.to/lastmile_qr_scan', 'android': 'https://chi.lft.to/lastmile_qr_scan'}",TA1309000006,"['CREDITCARD', 'KEY', 'TRANSITCARD']",False,[],Larrabee St & Armitage Ave,15,288,classic,False,288,,,,,,
True,41.912133,-87.634656,a3a9f256-a135-11e9-9cda-0a87ae2ba916,"{'ios': 'https://chi.lft.to/lastmile_qr_scan', 'android': 'https://chi.lft.to/lastmile_qr_scan'}",TA1308000050,"['CREDITCARD', 'KEY', 'TRANSITCARD']",False,[],Wells St & Concord Ln,19,289,classic,False,289,,,,,,
True,41.921525,-87.707322,a3a9f76a-a135-11e9-9cda-0a87ae2ba916,"{'ios': 'https://chi.lft.to/lastmile_qr_scan', 'android': 'https://chi.lft.to/lastmile_qr_scan'}",13292,"['CREDITCARD', 'KEY', 'TRANSITCARD']",False,[],Kedzie Ave & Palmer Ct,15,290,classic,False,290,,,,,,
True,41.906724,-87.63483,a3a9fc75-a135-11e9-9cda-0a87ae2ba916,"{'ios': 'https://chi.lft.to/lastmile_qr_scan', 'android': 'https://chi.lft.to/lastmile_qr_scan'}",TA1308000049,"['CREDITCARD', 'KEY', 'TRANSITCARD']",False,[],Wells St & Evergreen Ave,19,291,classic,False,291,,,,,,
True,41.957081,-87.664199,a3aa017e-a135-11e9-9cda-0a87ae2ba916,"{'ios': 'https://chi.lft.to/lastmile_qr_scan', 'android': 'https://chi.lft.to/lastmile_qr_scan'}",TA1308000047,"['CREDITCARD', 'KEY', 'TRANSITCARD']",False,[],Southport Ave & Clark St,11,292,classic,False,292,,,,,,
True,41.965221,-87.658139,a3aa0699-a135-11e9-9cda-0a87ae2ba916,"{'ios': 'https://chi.lft.to/lastmile_qr_scan', 'android': 'https://chi.lft.to/lastmile_qr_scan'}",13074,"['CREDITCARD', 'KEY', 'TRANSITCARD']",False,[],Broadway & Wilson - Truman College Vaccination Site,23,293,classic,False,293,,,,,,
True,41.978353,-87.659753,a3aa0bb7-a135-11e9-9cda-0a87ae2ba916,"{'ios': 'https://chi.lft.to/lastmile_qr_scan', 'android': 'https://chi.lft.to/lastmile_qr_scan'}",13109,"['CREDITCARD', 'KEY', 'TRANSITCARD']",False,[],Broadway & Berwyn Ave,15,294,classic,False,294,,,,,,
True,41.973815,-87.65966,a3aa10ca-a135-11e9-9cda-0a87ae2ba916,"{'ios': 'https://chi.lft.to/lastmile_qr_scan', 'android': 'https://chi.lft.to/lastmile_qr_scan'}",13108,"['CREDITCARD', 'KEY', 'TRANSITCARD']",False,[],Broadway & Argyle St,19,295,classic,False,295,,,,,,
True,41.940106,-87.645451,a3aa1623-a135-11e9-9cda-0a87ae2ba916,"{'ios': 'https://chi.lft.to/lastmile_qr_scan', 'android': 'https://chi.lft.to/lastmile_qr_scan'}",13277,"['CREDITCARD', 'KEY', 'TRANSITCARD']",False,[],Broadway & Belmont Ave,19,296,classic,False,296,,,,,,
True,41.961507,-87.671387,a3aa1b5b-a135-11e9-9cda-0a87ae2ba916,"{'ios': 'https://chi.lft.to/lastmile_qr_scan', 'android': 'https://chi.lft.to/lastmile_qr_scan'}",TA1309000021,"['CREDITCARD', 'KEY', 'TRANSITCARD']",False,[],Paulina St & Montrose Ave,15,297,classic,False,297,,,,,,
True,41.95600355078549,-87.68016144633293,a3aa2078-a135-11e9-9cda-0a87ae2ba916,"{'ios': 'https://chi.lft.to/lastmile_qr_scan', 'android': 'https://chi.lft.to/lastmile_qr_scan'}",TA1309000026,"['CREDITCARD', 'KEY', 'TRANSITCARD']",False,[],Lincoln Ave & Belle Plaine Ave,15,298,classic,False,298,,,,,,
True,41.94367,-87.64895,a3aa259c-a135-11e9-9cda-0a87ae2ba916,"{'ios': 'https://chi.lft.to/lastmile_qr_scan', 'android': 'https://chi.lft.to/lastmile_qr_scan'}",TA1309000025,"['CREDITCARD', 'KEY', 'TRANSITCARD']",False,[],Halsted St & Roscoe St,15,299,classic,False,299,,,,,,
True,41.93758231600629,-87.6440978050232,a3aa2abb-a135-11e9-9cda-0a87ae2ba916,"{'ios': 'https://chi.lft.to/lastmile_qr_scan', 'android': 'https://chi.lft.to/lastmile_qr_scan'}",13137,"['CREDITCARD', 'KEY', 'TRANSITCARD']",False,[],Broadway & Barry Ave,19,300,classic,False,300,,,,,,
True,41.907993,-87.631501,a3aa2ff4-a135-11e9-9cda-0a87ae2ba916,"{'ios': 'https://chi.lft.to/lastmile_qr_scan', 'android': 'https://chi.lft.to/lastmile_qr_scan'}",TA1309000024,"['CREDITCARD', 'KEY', 'TRANSITCARD']",False,[],Clark St & Schiller St,19,301,classic,False,301,,,,,,
True,41.928712,-87.653833,a3aa35a4-a135-11e9-9cda-0a87ae2ba916,"{'ios': 'https://chi.lft.to/lastmile_qr_scan', 'android': 'https://chi.lft.to/lastmile_qr_scan'}",TA1309000023,"['CREDITCARD', 'KEY', 'TRANSITCARD']",False,[],Sheffield Ave & Wrightwood Ave,31,302,classic,False,302,,,,,,
True,41.945529,-87.646439,a3aa3adf-a135-11e9-9cda-0a87ae2ba916,"{'ios': 'https://chi.lft.to/lastmile_qr_scan', 'android': 'https://chi.lft.to/lastmile_qr_scan'}",13278,"['CREDITCARD', 'KEY', 'TRANSITCARD']",False,[],Broadway & Cornelia Ave,23,303,classic,False,303,,,,,,
True,41.949074,-87.648636,a3aa4017-a135-11e9-9cda-0a87ae2ba916,"{'ios': 'https://chi.lft.to/lastmile_qr_scan', 'android': 'https://chi.lft.to/lastmile_qr_scan'}",13325,"['CREDITCARD', 'KEY', 'TRANSITCARD']",False,[],Broadway & Waveland Ave,15,304,classic,False,304,,,,,,
True,41.902893,-87.687275,a3aa453c-a135-11e9-9cda-0a87ae2ba916,"{'ios': 'https://chi.lft.to/lastmile_qr_scan', 'android': 'https://chi.lft.to/lastmile_qr_scan'}",13241,"['CREDITCARD', 'KEY', 'TRANSITCARD']",False,[],Western Ave & Division St,23,305,classic,False,305,,,,,,
True,41.958494,-87.654966,a3aa4a58-a135-11e9-9cda-0a87ae2ba916,"{'ios': 'https://chi.lft.to/lastmile_qr_scan', 'android': 'https://chi.lft.to/lastmile_qr_scan'}",TA1309000027,"['CREDITCARD', 'KEY', 'TRANSITCARD']",False,[],Sheridan Rd & Buena Ave,19,306,classic,False,306,,,,,,
True,41.920771,-87.663712,a3aa4f80-a135-11e9-9cda-0a87ae2ba916,"{'ios': 'https://chi.lft.to/lastmile_qr_scan', 'android': 'https://chi.lft.to/lastmile_qr_scan'}",TA1309000030,"['CREDITCARD', 'KEY', 'TRANSITCARD']",False,[],Southport Ave & Clybourn Ave,15,307,classic,False,307,,,,,,
True,41.943403,-87.679618,a3aa54a0-a135-11e9-9cda-0a87ae2ba916,"{'ios': 'https://chi.lft.to/lastmile_qr_scan', 'android': 'https://chi.lft.to/lastmile_qr_scan'}",13144,"['CREDITCARD', 'KEY', 'TRANSITCARD']",False,[],Seeley Ave & Roscoe St,11,308,classic,False,308,,,,,,
True,41.917805,-87.682437,a3aa59bb-a135-11e9-9cda-0a87ae2ba916,"{'ios': 'https://chi.lft.to/lastmile_qr_scan', 'android': 'https://chi.lft.to/lastmile_qr_scan'}",TA1309000029,"['CREDITCARD', 'KEY', 'TRANSITCARD']",False,[],Leavitt St & Armitage Ave,11,309,classic,False,309,,,,,,
True,41.920082,-87.677855,a3aa5ed1-a135-11e9-9cda-0a87ae2ba916,"{'ios': 'https://chi.lft.to/lastmile_qr_scan', 'android': 'https://chi.lft.to/lastmile_qr_scan'}",13288,"['CREDITCARD', 'KEY', 'TRANSITCARD']",False,[],Damen Ave & Charleston St,11,310,classic,False,310,,,,,,
True,41.968885,-87.684001,a3aa640c-a135-11e9-9cda-0a87ae2ba916,"{'ios': 'https://chi.lft.to/lastmile_qr_scan', 'android': 'https://chi.lft.to/lastmile_qr_scan'}",TA1309000015,"['CREDITCARD', 'KEY', 'TRANSITCARD']",False,[],Leavitt St & Lawrence Ave,19,311,classic,False,311,,,,,,
True,41.95786652415174,-87.64950513839722,a3aa692e-a135-11e9-9cda-0a87ae2ba916,"{'ios': 'https://chi.lft.to/lastmile_qr_scan', 'android': 'https://chi.lft.to/lastmile_qr_scan'}",13379,"['CREDITCARD', 'KEY', 'TRANSITCARD']",False,[],Clarendon Ave & Gordon Ter,15,312,classic,False,312,,,,,,
True,41.925858,-87.638973,a3aa6e51-a135-11e9-9cda-0a87ae2ba916,"{'ios': 'https://chi.lft.to/lastmile_qr_scan', 'android': 'https://chi.lft.to/lastmile_qr_scan'}",TA1309000019,"['CREDITCARD', 'KEY', 'TRANSITCARD']",False,[],Lakeview Ave & Fullerton Pkwy,19,313,classic,False,313,,,,,,
True,41.957921,-87.673567,a3aa7373-a135-11e9-9cda-0a87ae2ba916,"{'ios': 'https://chi.lft.to/lastmile_qr_scan', 'android': 'https://chi.lft.to/lastmile_qr_scan'}",TA1309000018,"['CREDITCARD', 'KEY', 'TRANSITCARD']",False,[],Ravenswood Ave & Berteau Ave,15,314,classic,False,314,,,,,,
True,41.912919,-87.664169,a3aa7897-a135-11e9-9cda-0a87ae2ba916,"{'ios': 'https://chi.lft.to/lastmile_qr_scan', 'android': 'https://chi.lft.to/lastmile_qr_scan'}",TA1309000032,"['CREDITCARD', 'KEY', 'TRANSITCARD']",False,[],Elston Ave & Wabansia Ave,23,315,classic,False,315,,,,,,
True,41.96325,-87.679258,a3aa7db3-a135-11e9-9cda-0a87ae2ba916,"{'ios': 'https://chi.lft.to/lastmile_qr_scan', 'android': 'https://chi.lft.to/lastmile_qr_scan'}",TA1309000012,"['CREDITCARD', 'KEY', 'TRANSITCARD']",False,[],Damen Ave & Sunnyside Ave,19,316,classic,False,316,,,,,,
True,41.869265218438194,-87.67373085021973,a3aa82d0-a135-11e9-9cda-0a87ae2ba916,"{'ios': 'https://chi.lft.to/lastmile_qr_scan', 'android': 'https://chi.lft.to/lastmile_qr_scan'}",13285,"['CREDITCARD', 'KEY', 'TRANSITCARD']",False,[],Wood St & Taylor St (Temp),23,317,classic,False,317,,,,,,
True,41.954177,-87.664358,a3aa8ca0-a135-11e9-9cda-0a87ae2ba916,"{'ios': 'https://chi.lft.to/lastmile_qr_scan', 'android': 'https://chi.lft.to/lastmile_qr_scan'}",TA1309000043,"['CREDITCARD', 'KEY', 'TRANSITCARD']",False,[],Southport Ave & Irving Park Rd,15,318,classic,False,318,,,,,,
True,41.93258963429789,-87.66593635082245,a3aa91f4-a135-11e9-9cda-0a87ae2ba916,"{'ios': 'https://chi.lft.to/lastmile_qr_scan', 'android': 'https://chi.lft.to/lastmile_qr_scan'}",13294,"['CREDITCARD', 'KEY', 'TRANSITCARD']",False,[],Greenview Ave & Diversey Pkwy,15,319,classic,False,319,,,,,,
True,41.872187,-87.661501,a3aa9732-a135-11e9-9cda-0a87ae2ba916,"{'ios': 'https://chi.lft.to/lastmile_qr_scan', 'android': 'https://chi.lft.to/lastmile_qr_scan'}",13332,"['CREDITCARD', 'KEY', 'TRANSITCARD']",False,[],Loomis St & Lexington St,19,320,classic,False,320,,,,,,
True,41.870769,-87.625734,a3aa9c65-a135-11e9-9cda-0a87ae2ba916,"{'ios': 'https://chi.lft.to/lastmile_qr_scan', 'android': 'https://chi.lft.to/lastmile_qr_scan'}",TA1309000010,"['CREDITCARD', 'KEY', 'TRANSITCARD']",False,[],Wabash Ave & 9th St,19,321,classic,False,321,,,,,,
True,41.799568,-87.594747,a3aaa17b-a135-11e9-9cda-0a87ae2ba916,"{'ios': 'https://chi.lft.to/lastmile_qr_scan', 'android': 'https://chi.lft.to/lastmile_qr_scan'}",TA1309000037,"['CREDITCARD', 'KEY', 'TRANSITCARD']",False,[],Kimbark Ave & 53rd St,19,322,classic,False,322,,,,,,
True,41.969517,-87.654691,a3aaa68b-a135-11e9-9cda-0a87ae2ba916,"{'ios': 'https://chi.lft.to/lastmile_qr_scan', 'android': 'https://chi.lft.to/lastmile_qr_scan'}",TA1309000041,"['CREDITCARD', 'KEY', 'TRANSITCARD']",False,[],Sheridan Rd & Lawrence Ave,19,323,classic,False,323,,,,,,
True,41.93132,-87.638742,a3aaaba2-a135-11e9-9cda-0a87ae2ba916,"{'ios': 'https://chi.lft.to/lastmile_qr_scan', 'android': 'https://chi.lft.to/lastmile_qr_scan'}",13276,"['CREDITCARD', 'KEY', 'TRANSITCARD']",False,[],Stockton Dr & Wrightwood Ave,15,324,classic,False,324,,,,,,
True,41.973347640473044,-87.6678554713726,a3aab0b6-a135-11e9-9cda-0a87ae2ba916,"{'ios': 'https://chi.lft.to/lastmile_qr_scan', 'android': 'https://chi.lft.to/lastmile_qr_scan'}",TA1309000035,"['CREDITCARD', 'KEY', 'TRANSITCARD']",False,[],Clark St & Winnemac Ave,19,325,classic,False,325,,,,,,
True,41.967096,-87.667429,a3aab5c1-a135-11e9-9cda-0a87ae2ba916,"{'ios': 'https://chi.lft.to/lastmile_qr_scan', 'android': 'https://chi.lft.to/lastmile_qr_scan'}",TA1309000014,"['CREDITCARD', 'KEY', 'TRANSITCARD']",False,[],Clark St & Leland Ave,19,326,classic,False,326,,,,,,
True,41.92154,-87.653818,a3aabad8-a135-11e9-9cda-0a87ae2ba916,"{'ios': 'https://chi.lft.to/lastmile_qr_scan', 'android': 'https://chi.lft.to/lastmile_qr_scan'}",TA1309000033,"['CREDITCARD', 'KEY', 'TRANSITCARD']",False,[],Sheffield Ave & Webster Ave,19,327,classic,False,327,,,,,,
True,41.788746,-87.601334,a3aabfe3-a135-11e9-9cda-0a87ae2ba916,"{'ios': 'https://chi.lft.to/lastmile_qr_scan', 'android': 'https://chi.lft.to/lastmile_qr_scan'}",TA1309000011,"['CREDITCARD', 'KEY', 'TRANSITCARD']",False,[],Ellis Ave & 58th St,19,328,classic,False,328,,,,,,
True,41.932588,-87.636427,a3aac4f9-a135-11e9-9cda-0a87ae2ba916,"{'ios': 'https://chi.lft.to/lastmile_qr_scan', 'android': 'https://chi.lft.to/lastmile_qr_scan'}",TA1309000039,"['CREDITCARD', 'KEY', 'TRANSITCARD']",False,[],Lake Shore Dr & Diversey Pkwy,23,329,classic,False,329,,,,,,
True,41.946176,-87.673308,a3aaca0e-a135-11e9-9cda-0a87ae2ba916,"{'ios': 'https://chi.lft.to/lastmile_qr_scan', 'android': 'https://chi.lft.to/lastmile_qr_scan'}",TA1309000050,"['CREDITCARD', 'KEY', 'TRANSITCARD']",False,[],Lincoln Ave & Addison St,19,330,classic,False,330,,,,,,
True,41.909668,-87.648128,a3aacf29-a135-11e9-9cda-0a87ae2ba916,"{'ios': 'https://chi.lft.to/lastmile_qr_scan', 'android': 'https://chi.lft.to/lastmile_qr_scan'}",331,"['CREDITCARD', 'KEY', 'TRANSITCARD']",False,[],Halsted St & Clybourn Ave,27,331,classic,False,331,,,,,,
True,41.93314,-87.64776,a3aad436-a135-11e9-9cda-0a87ae2ba916,"{'ios': 'https://chi.lft.to/lastmile_qr_scan', 'android': 'https://chi.lft.to/lastmile_qr_scan'}",TA1309000036,"['CREDITCARD', 'KEY', 'TRANSITCARD']",False,[],Burling St & Diversey Pkwy,19,332,classic,False,332,,,,,,
True,41.907066,-87.667252,a3aad940-a135-11e9-9cda-0a87ae2ba916,"{'ios': 'https://chi.lft.to/lastmile_qr_scan', 'android': 'https://chi.lft.to/lastmile_qr_scan'}",13224,"['CREDITCARD', 'KEY', 'TRANSITCARD']",False,[],Ashland Ave & Blackhawk St,15,333,classic,False,333,,,,,,
True,41.940775,-87.639192,a3aade4c-a135-11e9-9cda-0a87ae2ba916,"{'ios': 'https://chi.lft.to/lastmile_qr_scan', 'android': 'https://chi.lft.to/lastmile_qr_scan'}",TA1309000049,"['CREDITCARD', 'KEY', 'TRANSITCARD']",False,[],Lake Shore Dr & Belmont Ave,19,334,classic,False,334,,,,,,
True,41.831379,-87.618034,a3aae35a-a135-11e9-9cda-0a87ae2ba916,"{'ios': 'https://chi.lft.to/lastmile_qr_scan', 'android': 'https://chi.lft.to/lastmile_qr_scan'}",13345,"['CREDITCARD', 'KEY', 'TRANSITCARD']",False,[],Calumet Ave & 35th St,15,335,classic,False,335,,,,,,
True,41.809855,-87.606755,a3aae870-a135-11e9-9cda-0a87ae2ba916,"{'ios': 'https://chi.lft.to/lastmile_qr_scan', 'android': 'https://chi.lft.to/lastmile_qr_scan'}",TA1309000053,"['CREDITCARD', 'KEY', 'TRANSITCARD']",False,[],Cottage Grove Ave & 47th St,15,336,classic,False,336,,,,,,
True,41.89675,-87.63089,a3aaed81-a135-11e9-9cda-0a87ae2ba916,"{'ios': 'https://chi.lft.to/lastmile_qr_scan', 'android': 'https://chi.lft.to/lastmile_qr_scan'}",13303,"['CREDITCARD', 'KEY', 'TRANSITCARD']",False,[],Clark St & Chicago Ave,19,337,classic,False,337,,,,,,
True,41.857611,-87.619407,a3aaf2ac-a135-11e9-9cda-0a87ae2ba916,"{'ios': 'https://chi.lft.to/lastmile_qr_scan', 'android': 'https://chi.lft.to/lastmile_qr_scan'}",13102,"['CREDITCARD', 'KEY', 'TRANSITCARD']",False,[],Calumet Ave & 18th St,15,338,classic,False,338,,,,,,
True,41.838198,-87.645143,a3aaf7bc-a135-11e9-9cda-0a87ae2ba916,"{'ios': 'https://chi.lft.to/lastmile_qr_scan', 'android': 'https://chi.lft.to/lastmile_qr_scan'}",TA1309000055,"['CREDITCARD', 'KEY', 'TRANSITCARD']",False,[],Emerald Ave & 31st St,11,339,classic,False,339,,,,,,
True,41.929546,-87.643118,a3aafccb-a135-11e9-9cda-0a87ae2ba916,"{'ios': 'https://chi.lft.to/lastmile_qr_scan', 'android': 'https://chi.lft.to/lastmile_qr_scan'}",TA1305000014,"['CREDITCARD', 'KEY', 'TRANSITCARD']",False,[],Clark St & Wrightwood Ave,15,340,classic,False,340,,,,,,
True,41.866095,-87.607267,a3ab812d-a135-11e9-9cda-0a87ae2ba916,"{'ios': 'https://chi.lft.to/lastmile_qr_scan', 'android': 'https://chi.lft.to/lastmile_qr_scan'}",13431,"['CREDITCARD', 'KEY', 'TRANSITCARD']",False,[],Adler Planetarium,39,341,classic,False,341,,,,,,
True,41.871262,-87.673688,a3ab86b6-a135-11e9-9cda-0a87ae2ba916,"{'ios': 'https://chi.lft.to/lastmile_qr_scan', 'android': 'https://chi.lft.to/lastmile_qr_scan'}",TA1309000064,"['CREDITCARD', 'KEY', 'TRANSITCARD']",False,[],Wolcott Ave & Polk St,23,342,classic,False,342,,,,,,
True,41.928887,-87.658971,a3ab8bee-a135-11e9-9cda-0a87ae2ba916,"{'ios': 'https://chi.lft.to/lastmile_qr_scan', 'android': 'https://chi.lft.to/lastmile_qr_scan'}",TA1309000059,"['CREDITCARD', 'KEY', 'TRANSITCARD']",False,[],Racine Ave & Wrightwood Ave,15,343,classic,False,343,,,,,,
True,41.96909,-87.674237,a3ab9119-a135-11e9-9cda-0a87ae2ba916,"{'ios': 'https://chi.lft.to/lastmile_qr_scan', 'android': 'https://chi.lft.to/lastmile_qr_scan'}",TA1309000066,"['CREDITCARD', 'KEY', 'TRANSITCARD']",False,[],Ravenswood Ave & Lawrence Ave,47,344,classic,False,344,,,,,,
True,41.793242,-87.587782,a3ac0fff-a135-11e9-9cda-0a87ae2ba916,"{'ios': 'https://chi.lft.to/lastmile_qr_scan', 'android': 'https://chi.lft.to/lastmile_qr_scan'}",TA1309000063,"['CREDITCARD', 'KEY', 'TRANSITCARD']",False,[],Lake Park Ave & 56th St,19,345,classic,False,345,,,,,,
True,41.88283,-87.661206,a3ac1607-a135-11e9-9cda-0a87ae2ba916,"{'ios': 'https://chi.lft.to/lastmile_qr_scan', 'android': 'https://chi.lft.to/lastmile_qr_scan'}",13353,"['CREDITCARD', 'KEY', 'TRANSITCARD']",False,[],Ada St & Washington Blvd,15,346,classic,False,346,,,,,,
True,41.950687,-87.6687,a3ac1bc9-a135-11e9-9cda-0a87ae2ba916,"{'ios': 'https://chi.lft.to/lastmile_qr_scan', 'android': 'https://chi.lft.to/lastmile_qr_scan'}",13319,"['CREDITCARD', 'KEY', 'TRANSITCARD']",False,[],Ashland Ave & Grace St,15,347,classic,False,347,,,,,,
True,41.8538040657915,-87.69574239850043,a3ac213b-a135-11e9-9cda-0a87ae2ba916,"{'ios': 'https://chi.lft.to/lastmile_qr_scan', 'android': 'https://chi.lft.to/lastmile_qr_scan'}",13096,"['CREDITCARD', 'KEY', 'TRANSITCARD']",False,[],California Ave & 21st St,15,348,classic,False,348,,,,,,
True,41.929143,-87.649077,a3ac2671-a135-11e9-9cda-0a87ae2ba916,"{'ios': 'https://chi.lft.to/lastmile_qr_scan', 'android': 'https://chi.lft.to/lastmile_qr_scan'}",TA1309000061,"['CREDITCARD', 'KEY', 'TRANSITCARD']",False,[],Halsted St & Wrightwood Ave,15,349,classic,False,349,,,,,,
True,41.895966,-87.667747,a3ac2b9c-a135-11e9-9cda-0a87ae2ba916,"{'ios': 'https://chi.lft.to/lastmile_qr_scan', 'android': 'https://chi.lft.to/lastmile_qr_scan'}",13247,"['CREDITCARD', 'KEY', 'TRANSITCARD']",False,[],Ashland Ave & Chicago Ave,15,350,classic,False,350,,,,,,
True,41.803038,-87.606615,a3ac30c5-a135-11e9-9cda-0a87ae2ba916,"{'ios': 'https://chi.lft.to/lastmile_qr_scan', 'android': 'https://chi.lft.to/lastmile_qr_scan'}",TA1309000067,"['CREDITCARD', 'KEY', 'TRANSITCARD']",False,[],Cottage Grove Ave & 51st St,15,351,classic,False,351,,,,,,
True,41.77351755125,-87.5771428255,a3ac35ed-a135-11e9-9cda-0a87ae2ba916,"{'ios': 'https://chi.lft.to/lastmile_qr_scan', 'android': 'https://chi.lft.to/lastmile_qr_scan'}",KA1503000030,"['CREDITCARD', 'KEY', 'TRANSITCARD']",False,[],Jeffery Blvd & 67th St,11,352,classic,False,352,,,,,,
True,42.01256011541,-87.6743671152,a3ac3b03-a135-11e9-9cda-0a87ae2ba916,"{'ios': 'https://chi.lft.to/lastmile_qr_scan', 'android': 'https://chi.lft.to/lastmile_qr_scan'}",RP-007,"['CREDITCARD', 'KEY', 'TRANSITCARD']",False,[],Clark St & Touhy Ave,15,353,classic,False,353,,,,,,
True,42.01058656284,-87.6624120948,a3ac4024-a135-11e9-9cda-0a87ae2ba916,"{'ios': 'https://chi.lft.to/lastmile_qr_scan', 'android': 'https://chi.lft.to/lastmile_qr_scan'}",KA1504000159,"['CREDITCARD', 'KEY', 'TRANSITCARD']",False,[],Sheridan Rd & Greenleaf Ave,15,354,classic,False,354,,,,,,
True,41.773643,-87.567514,a3ac4548-a135-11e9-9cda-0a87ae2ba916,"{'ios': 'https://chi.lft.to/lastmile_qr_scan', 'android': 'https://chi.lft.to/lastmile_qr_scan'}",KA1503000029,"['CREDITCARD', 'KEY', 'TRANSITCARD']",False,[],South Shore Dr & 67th St,15,355,classic,False,355,,,,,,
True,41.7664929373,-87.5864608775,a3ac4a7c-a135-11e9-9cda-0a87ae2ba916,"{'ios': 'https://chi.lft.to/lastmile_qr_scan', 'android': 'https://chi.lft.to/lastmile_qr_scan'}",KA1503000045,"['CREDITCARD', 'KEY', 'TRANSITCARD']",False,[],Stony Island Ave & 71st St,11,356,classic,False,356,,,,,,
True,41.90348607004,-87.6433534936,a3ac54af-a135-11e9-9cda-0a87ae2ba916,"{'ios': 'https://chi.lft.to/lastmile_qr_scan', 'android': 'https://chi.lft.to/lastmile_qr_scan'}",KA1504000079,"['CREDITCARD', 'KEY', 'TRANSITCARD']",False,[],Larrabee St & Division St,23,359,classic,False,359,,,,,,
True,41.90021949323,-87.6429854676,a3ac6f28-a135-11e9-9cda-0a87ae2ba916,"{'ios': 'https://chi.lft.to/lastmile_qr_scan', 'android': 'https://chi.lft.to/lastmile_qr_scan'}",KA1504000116,"['CREDITCARD', 'KEY', 'TRANSITCARD']",False,[],Larrabee St & Oak St,19,364,classic,False,364,,,,,,
True,41.89936843921,-87.6484798752,a3ac7444-a135-11e9-9cda-0a87ae2ba916,"{'ios': 'https://chi.lft.to/lastmile_qr_scan', 'android': 'https://chi.lft.to/lastmile_qr_scan'}",KA1504000117,"['CREDITCARD', 'KEY', 'TRANSITCARD']",False,[],Halsted St & North Branch St,15,365,classic,False,365,,,,,,
True,41.84163253965,-87.6574349533,a3ac7978-a135-11e9-9cda-0a87ae2ba916,"{'ios': 'https://chi.lft.to/lastmile_qr_scan', 'android': 'https://chi.lft.to/lastmile_qr_scan'}",KA1503000040,"['CREDITCARD', 'KEY', 'TRANSITCARD']",False,[],Loomis St & Archer Ave,11,366,classic,False,366,,,,,,
True,41.83069611252,-87.6559759116,a3ac7e9a-a135-11e9-9cda-0a87ae2ba916,"{'ios': 'https://chi.lft.to/lastmile_qr_scan', 'android': 'https://chi.lft.to/lastmile_qr_scan'}",15446,"['CREDITCARD', 'KEY', 'TRANSITCARD']",False,[],Racine Ave & 35th St,15,367,classic,False,367,,,,,,
True,41.83920868403,-87.6656098589,a3ac83bc-a135-11e9-9cda-0a87ae2ba916,"{'ios': 'https://chi.lft.to/lastmile_qr_scan', 'android': 'https://chi.lft.to/lastmile_qr_scan'}",15442,"['CREDITCARD', 'KEY', 'TRANSITCARD']",False,[],Ashland Ave & Archer Ave,15,368,classic,False,368,,,,,,
True,41.83010465416,-87.6702983089,a3ac88db-a135-11e9-9cda-0a87ae2ba916,"{'ios': 'https://chi.lft.to/lastmile_qr_scan', 'android': 'https://chi.lft.to/lastmile_qr_scan'}",KA1503000066,"['CREDITCARD', 'KEY', 'TRANSITCARD']",False,[],Wood St & 35th St,11,369,classic,False,369,,,,,,
True,41.85418424947,-87.6191537415,a3ac8dfb-a135-11e9-9cda-0a87ae2ba916,"{'ios': 'https://chi.lft.to/lastmile_qr_scan', 'android': 'https://chi.lft.to/lastmile_qr_scan'}",15546,"['CREDITCARD', 'KEY', 'TRANSITCARD']",False,[],Calumet Ave & 21st St,15,370,classic,False,370,,,,,,
True,41.89546530305,-87.7061278837,a3ac9834-a135-11e9-9cda-0a87ae2ba916,"{'ios': 'https://chi.lft.to/lastmile_qr_scan', 'android': 'https://chi.lft.to/lastmile_qr_scan'}",KA1504000114,"['CREDITCARD', 'KEY', 'TRANSITCARD']",False,[],Kedzie Ave & Chicago Ave,11,373,classic,False,373,,,,,,
True,41.89841768945,-87.6865960164,a3ac9d43-a135-11e9-9cda-0a87ae2ba916,"{'ios': 'https://chi.lft.to/lastmile_qr_scan', 'android': 'https://chi.lft.to/lastmile_qr_scan'}",KA1504000103,"['CREDITCARD', 'KEY', 'TRANSITCARD']",False,[],Western Ave & Walton St,23,374,classic,False,374,,,,,,
True,41.89046879243862,-87.70260751247406,a3aca268-a135-11e9-9cda-0a87ae2ba916,"{'ios': 'https://chi.lft.to/lastmile_qr_scan', 'android': 'https://chi.lft.to/lastmile_qr_scan'}",KA1504000113,"['CREDITCARD', 'KEY', 'TRANSITCARD']",False,[],Sacramento Blvd & Franklin Blvd,11,375,classic,False,375,,,,,,
True,41.88949181977,-87.6882193648,a3aca790-a135-11e9-9cda-0a87ae2ba916,"{'ios': 'https://chi.lft.to/lastmile_qr_scan', 'android': 'https://chi.lft.to/lastmile_qr_scan'}",15664,"['CREDITCARD', 'KEY', 'TRANSITCARD']",False,[],Artesian Ave & Hubbard St,35,376,classic,False,376,,,,,,
True,41.88460328501,-87.7063037436,a3acacbc-a135-11e9-9cda-0a87ae2ba916,"{'ios': 'https://chi.lft.to/lastmile_qr_scan', 'android': 'https://chi.lft.to/lastmile_qr_scan'}",KA1504000106,"['CREDITCARD', 'KEY', 'TRANSITCARD']",False,[],Kedzie Ave & Lake St,15,377,classic,False,377,,,,,,
True,41.88445395657,-87.6962981368,a3acb1de-a135-11e9-9cda-0a87ae2ba916,"{'ios': 'https://chi.lft.to/lastmile_qr_scan', 'android': 'https://chi.lft.to/lastmile_qr_scan'}",15666,"['CREDITCARD', 'KEY', 'TRANSITCARD']",False,[],California Ave & Lake St,11,378,classic,False,378,,,,,,
True,41.8797877089,-87.686112808,a3acb6f3-a135-11e9-9cda-0a87ae2ba916,"{'ios': 'https://chi.lft.to/lastmile_qr_scan', 'android': 'https://chi.lft.to/lastmile_qr_scan'}",15667,"['CREDITCARD', 'KEY', 'TRANSITCARD']",False,[],Western Ave & Monroe St,15,381,classic,False,381,,,,,,
True,41.87474885079,-87.6864452757,a3acbc0b-a135-11e9-9cda-0a87ae2ba916,"{'ios': 'https://chi.lft.to/lastmile_qr_scan', 'android': 'https://chi.lft.to/lastmile_qr_scan'}",15668,"['CREDITCARD', 'KEY', 'TRANSITCARD']",False,[],Western Ave & Congress Pkwy,19,382,classic,False,382,,,,,,
True,41.87295,-87.66913,a3acc133-a135-11e9-9cda-0a87ae2ba916,"{'ios': 'https://chi.lft.to/lastmile_qr_scan', 'android': 'https://chi.lft.to/lastmile_qr_scan'}",KA1504000104,"['CREDITCARD', 'KEY', 'TRANSITCARD']",False,[],Paulina St & Flournoy St,31,383,classic,False,383,,,,,,
True,41.80183164049,-87.645213904,a3acc649-a135-11e9-9cda-0a87ae2ba916,"{'ios': 'https://chi.lft.to/lastmile_qr_scan', 'android': 'https://chi.lft.to/lastmile_qr_scan'}",KA1503000010,"['CREDITCARD', 'KEY', 'TRANSITCARD']",False,[],Halsted St & 51st St,11,384,classic,False,384,,,,,,
True,41.794982,-87.633124,a3accb60-a135-11e9-9cda-0a87ae2ba916,"{'ios': 'https://chi.lft.to/lastmile_qr_scan', 'android': 'https://chi.lft.to/lastmile_qr_scan'}",KA1503000013,"['CREDITCARD', 'KEY', 'TRANSITCARD']",False,[],Princeton Ave & Garfield Blvd,11,385,classic,False,385,,,,,,
True,41.79292964599,-87.6449900565,a3acd078-a135-11e9-9cda-0a87ae2ba916,"{'ios': 'https://chi.lft.to/lastmile_qr_scan', 'android': 'https://chi.lft.to/lastmile_qr_scan'}",KA1503000011,"['CREDITCARD', 'KEY', 'TRANSITCARD']",False,[],Halsted St & 56th St,11,386,classic,False,386,,,,,,
True,41.77938114228,-87.6446208145,a3acd5b1-a135-11e9-9cda-0a87ae2ba916,"{'ios': 'https://chi.lft.to/lastmile_qr_scan', 'android': 'https://chi.lft.to/lastmile_qr_scan'}",KA1503000055,"['CREDITCARD', 'KEY', 'TRANSITCARD']",False,[],Halsted & 63rd - Kennedy-King Vaccination Site,11,388,classic,False,388,,,,,,
True,41.78007963264,-87.6297463052,a3acdae2-a135-11e9-9cda-0a87ae2ba916,"{'ios': 'https://chi.lft.to/lastmile_qr_scan', 'android': 'https://chi.lft.to/lastmile_qr_scan'}",KA1503000025,"['CREDITCARD', 'KEY', 'TRANSITCARD']",False,[],Wentworth Ave & 63rd St,11,390,classic,False,390,,,,,,
True,41.76906172032,-87.6446135779,a3acdff9-a135-11e9-9cda-0a87ae2ba916,"{'ios': 'https://chi.lft.to/lastmile_qr_scan', 'android': 'https://chi.lft.to/lastmile_qr_scan'}",15597,"['CREDITCARD', 'KEY', 'TRANSITCARD']",False,[],Halsted St & 69th St,11,391,classic,False,391,,,,,,
True,41.76929308995,-87.6281959291,a3ace51b-a135-11e9-9cda-0a87ae2ba916,"{'ios': 'https://chi.lft.to/lastmile_qr_scan', 'android': 'https://chi.lft.to/lastmile_qr_scan'}",KA1503000047,"['CREDITCARD', 'KEY', 'TRANSITCARD']",False,[],Perry Ave & 69th St,11,392,classic,False,392,,,,,,
True,41.76550800581,-87.616917925,a3acea44-a135-11e9-9cda-0a87ae2ba916,"{'ios': 'https://chi.lft.to/lastmile_qr_scan', 'android': 'https://chi.lft.to/lastmile_qr_scan'}",15599,"['CREDITCARD', 'KEY', 'TRANSITCARD']",False,[],Calumet Ave & 71st St,11,393,classic,False,393,,,,,,
True,41.870816,-87.631246,a3acef62-a135-11e9-9cda-0a87ae2ba916,"{'ios': 'https://chi.lft.to/lastmile_qr_scan', 'android': 'https://chi.lft.to/lastmile_qr_scan'}",SL-009,"['CREDITCARD', 'KEY', 'TRANSITCARD']",False,[],Clark St & 9th St (AMLI),15,394,classic,False,394,,,,,,
True,41.75712006802,-87.5758393587,a3acf4eb-a135-11e9-9cda-0a87ae2ba916,"{'ios': 'https://chi.lft.to/lastmile_qr_scan', 'android': 'https://chi.lft.to/lastmile_qr_scan'}",KA1503000028,"['CREDITCARD', 'KEY', 'TRANSITCARD']",False,[],Jeffery Blvd & 76th St,11,395,classic,False,395,,,,,,
True,41.758768,-87.56644,a3acfa38-a135-11e9-9cda-0a87ae2ba916,"{'ios': 'https://chi.lft.to/lastmile_qr_scan', 'android': 'https://chi.lft.to/lastmile_qr_scan'}",KA1503000024,"['CREDITCARD', 'KEY', 'TRANSITCARD']",False,[],Yates Blvd & 75th St,11,396,classic,False,396,,,,,,
True,41.75787144829,-87.54938625,a3ad0490-a135-11e9-9cda-0a87ae2ba916,"{'ios': 'https://chi.lft.to/lastmile_qr_scan', 'android': 'https://chi.lft.to/lastmile_qr_scan'}",KA1503000049,"['CREDITCARD', 'KEY', 'TRANSITCARD']",False,[],Rainbow Beach,15,398,classic,False,398,,,,,,
True,41.76218896038,-87.55927465,a3ad09b2-a135-11e9-9cda-0a87ae2ba916,"{'ios': 'https://chi.lft.to/lastmile_qr_scan', 'android': 'https://chi.lft.to/lastmile_qr_scan'}",KA1503000020,"['CREDITCARD', 'KEY', 'TRANSITCARD']",False,[],South Shore Dr & 74th St,11,399,classic,False,399,,,,,,
True,41.76571903697,-87.604959713,a3ad0ecb-a135-11e9-9cda-0a87ae2ba916,"{'ios': 'https://chi.lft.to/lastmile_qr_scan', 'android': 'https://chi.lft.to/lastmile_qr_scan'}",KA1503000003,"['CREDITCARD', 'KEY', 'TRANSITCARD']",False,[],Cottage Grove Ave & 71st St,11,400,classic,False,400,,,,,,
True,41.842733,-87.635491,a3ad13e4-a135-11e9-9cda-0a87ae2ba916,"{'ios': 'https://chi.lft.to/lastmile_qr_scan', 'android': 'https://chi.lft.to/lastmile_qr_scan'}",15443,"['CREDITCARD', 'KEY', 'TRANSITCARD']",False,[],Shields Ave & 28th Pl,11,401,classic,False,401,,,,,,
True,41.838464,-87.635406,a3ad1900-a135-11e9-9cda-0a87ae2ba916,"{'ios': 'https://chi.lft.to/lastmile_qr_scan', 'android': 'https://chi.lft.to/lastmile_qr_scan'}",KA1503000038,"['CREDITCARD', 'KEY', 'TRANSITCARD']",False,[],Shields Ave & 31st St,15,402,classic,False,402,,,,,,
True,41.83452988563,-87.6318229814,a3ad1e12-a135-11e9-9cda-0a87ae2ba916,"{'ios': 'https://chi.lft.to/lastmile_qr_scan', 'android': 'https://chi.lft.to/lastmile_qr_scan'}",15445,"['CREDITCARD', 'KEY', 'TRANSITCARD']",False,[],Wentworth Ave & 33rd St,15,403,classic,False,403,,,,,,
True,41.830777,-87.632504,a3ad2322-a135-11e9-9cda-0a87ae2ba916,"{'ios': 'https://chi.lft.to/lastmile_qr_scan', 'android': 'https://chi.lft.to/lastmile_qr_scan'}",KA1503000005,"['CREDITCARD', 'KEY', 'TRANSITCARD']",False,[],Wentworth Ave & 35th St,15,405,classic,False,405,,,,,,
True,41.83127423549,-87.6087991946,a3ad2843-a135-11e9-9cda-0a87ae2ba916,"{'ios': 'https://chi.lft.to/lastmile_qr_scan', 'android': 'https://chi.lft.to/lastmile_qr_scan'}",KA1503000004,"['CREDITCARD', 'KEY', 'TRANSITCARD']",False,[],Lake Park Ave & 35th St,19,406,classic,False,406,,,,,,
True,41.82301523798,-87.6265680185,a3ad2d57-a135-11e9-9cda-0a87ae2ba916,"{'ios': 'https://chi.lft.to/lastmile_qr_scan', 'android': 'https://chi.lft.to/lastmile_qr_scan'}",15449,"['CREDITCARD', 'KEY', 'TRANSITCARD']",False,[],State St & Pershing Rd,11,407,classic,False,407,,,,,,
True,41.819102,-87.643278,a3ad327e-a135-11e9-9cda-0a87ae2ba916,"{'ios': 'https://chi.lft.to/lastmile_qr_scan', 'android': 'https://chi.lft.to/lastmile_qr_scan'}",KA1503000032,"['CREDITCARD', 'KEY', 'TRANSITCARD']",False,[],Union Ave & Root St,11,408,classic,False,408,,,,,,
True,41.81620767856,-87.6348193497,a3ad37c2-a135-11e9-9cda-0a87ae2ba916,"{'ios': 'https://chi.lft.to/lastmile_qr_scan', 'android': 'https://chi.lft.to/lastmile_qr_scan'}",KA1503000001,"['CREDITCARD', 'KEY', 'TRANSITCARD']",False,[],Shields Ave & 43rd St,11,409,classic,False,409,,,,,,
True,41.81665889302,-87.6194124619,a3ad3d08-a135-11e9-9cda-0a87ae2ba916,"{'ios': 'https://chi.lft.to/lastmile_qr_scan', 'android': 'https://chi.lft.to/lastmile_qr_scan'}",KA1503000027,"['CREDITCARD', 'KEY', 'TRANSITCARD']",False,[],Prairie Ave & 43rd St,15,410,classic,False,410,,,,,,
True,41.80813391481,-87.6456165545,a3ad42c3-a135-11e9-9cda-0a87ae2ba916,"{'ios': 'https://chi.lft.to/lastmile_qr_scan', 'android': 'https://chi.lft.to/lastmile_qr_scan'}",KA1503000051,"['CREDITCARD', 'KEY', 'TRANSITCARD']",False,[],Halsted St & 47th Pl,11,411,classic,False,411,,,,,,
True,41.80931770924,-87.633449288,a3ad47f8-a135-11e9-9cda-0a87ae2ba916,"{'ios': 'https://chi.lft.to/lastmile_qr_scan', 'android': 'https://chi.lft.to/lastmile_qr_scan'}",KA1503000009,"['CREDITCARD', 'KEY', 'TRANSITCARD']",False,[],Princeton Ave & 47th St,11,412,classic,False,412,,,,,,
True,41.81409271048,-87.5970051479,a3ad4d1b-a135-11e9-9cda-0a87ae2ba916,"{'ios': 'https://chi.lft.to/lastmile_qr_scan', 'android': 'https://chi.lft.to/lastmile_qr_scan'}",KA1503000065,"['CREDITCARD', 'KEY', 'TRANSITCARD']",False,[],Woodlawn Ave & Lake Park Ave,15,413,classic,False,413,,,,,,
True,41.870257,-87.639474,a3ad523f-a135-11e9-9cda-0a87ae2ba916,"{'ios': 'https://chi.lft.to/lastmile_qr_scan', 'android': 'https://chi.lft.to/lastmile_qr_scan'}",15550,"['CREDITCARD', 'KEY', 'TRANSITCARD']",False,[],Canal St & Taylor St,15,414,classic,False,414,,,,,,
True,41.80229465088,-87.6180535802,a3ad5764-a135-11e9-9cda-0a87ae2ba916,"{'ios': 'https://chi.lft.to/lastmile_qr_scan', 'android': 'https://chi.lft.to/lastmile_qr_scan'}",15470,"['CREDITCARD', 'KEY', 'TRANSITCARD']",False,[],Calumet Ave & 51st St,11,415,classic,False,415,,,,,,
True,41.805772,-87.592464,a3ad5c90-a135-11e9-9cda-0a87ae2ba916,"{'ios': 'https://chi.lft.to/lastmile_qr_scan', 'android': 'https://chi.lft.to/lastmile_qr_scan'}",KA1503000069,"['CREDITCARD', 'KEY', 'TRANSITCARD']",False,[],Dorchester Ave & 49th St,15,416,classic,False,416,,,,,,
True,41.802406,-87.586924,a3ad61c2-a135-11e9-9cda-0a87ae2ba916,"{'ios': 'https://chi.lft.to/lastmile_qr_scan', 'android': 'https://chi.lft.to/lastmile_qr_scan'}",KA1503000007,"['CREDITCARD', 'KEY', 'TRANSITCARD']",False,[],Cornell Ave & Hyde Park Blvd,19,417,classic,False,417,,,,,,
True,41.79933626261,-87.6009581145,a3ad66e6-a135-11e9-9cda-0a87ae2ba916,"{'ios': 'https://chi.lft.to/lastmile_qr_scan', 'android': 'https://chi.lft.to/lastmile_qr_scan'}",KA1503000052,"['CREDITCARD', 'KEY', 'TRANSITCARD']",False,[],Ellis Ave & 53rd St,11,418,classic,False,418,,,,,,
True,41.79949429373,-87.5864498959,a3ad6c01-a135-11e9-9cda-0a87ae2ba916,"{'ios': 'https://chi.lft.to/lastmile_qr_scan', 'android': 'https://chi.lft.to/lastmile_qr_scan'}",KA1503000059,"['CREDITCARD', 'KEY', 'TRANSITCARD']",False,[],Lake Park Ave & 53rd St,15,419,classic,False,419,,,,,,
True,41.79430062054,-87.6014497734,a3ad711d-a135-11e9-9cda-0a87ae2ba916,"{'ios': 'https://chi.lft.to/lastmile_qr_scan', 'android': 'https://chi.lft.to/lastmile_qr_scan'}",KA1504000076,"['CREDITCARD', 'KEY', 'TRANSITCARD']",False,[],Ellis Ave & 55th St,19,420,classic,False,420,,,,,,
True,41.79342945658,-87.6158532619,a3ad7636-a135-11e9-9cda-0a87ae2ba916,"{'ios': 'https://chi.lft.to/lastmile_qr_scan', 'android': 'https://chi.lft.to/lastmile_qr_scan'}",KA1503000073,"['CREDITCARD', 'KEY', 'TRANSITCARD']",False,[],MLK Jr Dr & 56th St,11,421,classic,False,421,,,,,,
True,41.79156801058,-87.6078521774,a3ad7b51-a135-11e9-9cda-0a87ae2ba916,"{'ios': 'https://chi.lft.to/lastmile_qr_scan', 'android': 'https://chi.lft.to/lastmile_qr_scan'}",KA1503000075,"['CREDITCARD', 'KEY', 'TRANSITCARD']",False,[],DuSable Museum,11,422,classic,False,422,,,,,,
True,41.791478,-87.599861,a3ad8072-a135-11e9-9cda-0a87ae2ba916,"{'ios': 'https://chi.lft.to/lastmile_qr_scan', 'android': 'https://chi.lft.to/lastmile_qr_scan'}",KA1503000071,"['CREDITCARD', 'KEY', 'TRANSITCARD']",False,[],University Ave & 57th St,31,423,classic,False,423,,,,,,
True,41.79172820953,-87.583945009,a3ad8587-a135-11e9-9cda-0a87ae2ba916,"{'ios': 'https://chi.lft.to/lastmile_qr_scan', 'android': 'https://chi.lft.to/lastmile_qr_scan'}",KA1503000074,"['CREDITCARD', 'KEY', 'TRANSITCARD']",False,[],Museum of Science and Industry,27,424,classic,False,424,,,,,,
True,41.78794281287,-87.5883151702,a3ad8aa3-a135-11e9-9cda-0a87ae2ba916,"{'ios': 'https://chi.lft.to/lastmile_qr_scan', 'android': 'https://chi.lft.to/lastmile_qr_scan'}",KA1503000070,"['CREDITCARD', 'KEY', 'TRANSITCARD']",False,[],Harper Ave & 59th St,15,425,classic,False,425,,,,,,
True,41.78509714636,-87.6010727606,a3ad8fd9-a135-11e9-9cda-0a87ae2ba916,"{'ios': 'https://chi.lft.to/lastmile_qr_scan', 'android': 'https://chi.lft.to/lastmile_qr_scan'}",KA1503000014,"['CREDITCARD', 'KEY', 'TRANSITCARD']",False,[],Ellis Ave & 60th St,19,426,classic,False,426,,,,,,
True,41.78060094521422,-87.60583609342575,a3ad95a7-a135-11e9-9cda-0a87ae2ba916,"{'ios': 'https://chi.lft.to/lastmile_qr_scan', 'android': 'https://chi.lft.to/lastmile_qr_scan'}",KA1503000054,"['CREDITCARD', 'KEY', 'TRANSITCARD']",False,[],Cottage Grove Ave & 63rd St,15,427,classic,False,427,,,,,,
True,41.7804056457,-87.5914159893,a3ad9ad9-a135-11e9-9cda-0a87ae2ba916,"{'ios': 'https://chi.lft.to/lastmile_qr_scan', 'android': 'https://chi.lft.to/lastmile_qr_scan'}",KA1503000046,"['CREDITCARD', 'KEY', 'TRANSITCARD']",False,[],Dorchester Ave & 63rd St,11,428,classic,False,428,,,,,,
True,41.77372095205,-87.60563486,a3ada002-a135-11e9-9cda-0a87ae2ba916,"{'ios': 'https://chi.lft.to/lastmile_qr_scan', 'android': 'https://chi.lft.to/lastmile_qr_scan'}",KA1503000031,"['CREDITCARD', 'KEY', 'TRANSITCARD']",False,[],Cottage Grove Ave & 67th St,11,429,classic,False,429,,,,,,
True,41.78008063659,-87.6159428567,a3ada52f-a135-11e9-9cda-0a87ae2ba916,"{'ios': 'https://chi.lft.to/lastmile_qr_scan', 'android': 'https://chi.lft.to/lastmile_qr_scan'}",KA1503000053,"['CREDITCARD', 'KEY', 'TRANSITCARD']",False,[],MLK Jr Dr & 63rd St,11,430,classic,False,430,,,,,,
True,41.78414169317,-87.6133078304,a3adaa52-a135-11e9-9cda-0a87ae2ba916,"{'ios': 'https://chi.lft.to/lastmile_qr_scan', 'android': 'https://chi.lft.to/lastmile_qr_scan'}",KA1503000033,"['CREDITCARD', 'KEY', 'TRANSITCARD']",False,[],Eberhart Ave & 61st St,11,431,classic,False,431,,,,,,
True,42.009074,-87.67419,a3adaf6b-a135-11e9-9cda-0a87ae2ba916,"{'ios': 'https://chi.lft.to/lastmile_qr_scan', 'android': 'https://chi.lft.to/lastmile_qr_scan'}",KA1504000162,"['CREDITCARD', 'KEY', 'TRANSITCARD']",False,[],Clark St & Lunt Ave,19,432,classic,False,432,,,,,,
True,41.87359967462,-87.7048707493,a3adb48a-a135-11e9-9cda-0a87ae2ba916,"{'ios': 'https://chi.lft.to/lastmile_qr_scan', 'android': 'https://chi.lft.to/lastmile_qr_scan'}",KA1504000082,"['CREDITCARD', 'KEY', 'TRANSITCARD']",False,[],Kedzie Ave & Harrison St,11,433,classic,False,433,,,,,,
True,41.86650148316,-87.68469707,a3adb9a3-a135-11e9-9cda-0a87ae2ba916,"{'ios': 'https://chi.lft.to/lastmile_qr_scan', 'android': 'https://chi.lft.to/lastmile_qr_scan'}",KA1504000101,"['CREDITCARD', 'KEY', 'TRANSITCARD']",False,[],Ogden Ave & Roosevelt Rd,19,434,classic,False,434,,,,,,
True,41.86649278172,-87.7064961757,a3adbedf-a135-11e9-9cda-0a87ae2ba916,"{'ios': 'https://chi.lft.to/lastmile_qr_scan', 'android': 'https://chi.lft.to/lastmile_qr_scan'}",15682,"['CREDITCARD', 'KEY', 'TRANSITCARD']",False,[],Kedzie Ave & Roosevelt Rd,11,435,classic,False,435,,,,,,
True,41.866624,-87.694521,a3adc3f6-a135-11e9-9cda-0a87ae2ba916,"{'ios': 'https://chi.lft.to/lastmile_qr_scan', 'android': 'https://chi.lft.to/lastmile_qr_scan'}",KA1504000102,"['CREDITCARD', 'KEY', 'TRANSITCARD']",False,[],Fairfield Ave & Roosevelt Rd,11,436,classic,False,436,,,,,,
True,41.86193049278259,-87.69345045089722,a3adc925-a135-11e9-9cda-0a87ae2ba916,"{'ios': 'https://chi.lft.to/lastmile_qr_scan', 'android': 'https://chi.lft.to/lastmile_qr_scan'}",KA1504000109,"['CREDITCARD', 'KEY', 'TRANSITCARD']",False,[],Washtenaw Ave & Ogden Ave,15,437,classic,False,437,,,,,,
True,41.854063503874464,-87.71511733531952,a3adce47-a135-11e9-9cda-0a87ae2ba916,"{'ios': 'https://chi.lft.to/lastmile_qr_scan', 'android': 'https://chi.lft.to/lastmile_qr_scan'}",15685,"['CREDITCARD', 'KEY', 'TRANSITCARD']",False,[],Central Park Ave & Ogden Ave,15,438,classic,False,438,,,,,,
True,41.85353363213,-87.7050730318,a3add365-a135-11e9-9cda-0a87ae2ba916,"{'ios': 'https://chi.lft.to/lastmile_qr_scan', 'android': 'https://chi.lft.to/lastmile_qr_scan'}",15686,"['CREDITCARD', 'KEY', 'TRANSITCARD']",False,[],Kedzie Ave & 21st St,11,439,classic,False,439,,,,,,
True,41.8481,-87.715068,a3add889-a135-11e9-9cda-0a87ae2ba916,"{'ios': 'https://chi.lft.to/lastmile_qr_scan', 'android': 'https://chi.lft.to/lastmile_qr_scan'}",15687,"['CREDITCARD', 'KEY', 'TRANSITCARD']",False,[],Central Park Ave & 24th St,11,440,classic,False,440,,,,,,
True,41.84819094491,-87.7054137458,a3addda0-a135-11e9-9cda-0a87ae2ba916,"{'ios': 'https://chi.lft.to/lastmile_qr_scan', 'android': 'https://chi.lft.to/lastmile_qr_scan'}",KA1504000086,"['CREDITCARD', 'KEY', 'TRANSITCARD']",False,[],Kedzie Ave & 24th St,11,441,classic,False,441,,,,,,
True,41.84910969176,-87.6951398068,a3ade2c3-a135-11e9-9cda-0a87ae2ba916,"{'ios': 'https://chi.lft.to/lastmile_qr_scan', 'android': 'https://chi.lft.to/lastmile_qr_scan'}",15689,"['CREDITCARD', 'KEY', 'TRANSITCARD']",False,[],California Ave & 23rd Pl,11,442,classic,False,442,,,,,,
True,41.84453112462163,-87.71592199802399,a3ade7de-a135-11e9-9cda-0a87ae2ba916,"{'ios': 'https://chi.lft.to/lastmile_qr_scan', 'android': 'https://chi.lft.to/lastmile_qr_scan'}",KA1504000110,"['CREDITCARD', 'KEY', 'TRANSITCARD']",False,[],Millard Ave & 26th St,7,443,classic,False,443,,,,,,
True,41.84447501366,-87.7020130128,a3aded13-a135-11e9-9cda-0a87ae2ba916,"{'ios': 'https://chi.lft.to/lastmile_qr_scan', 'android': 'https://chi.lft.to/lastmile_qr_scan'}",15691,"['CREDITCARD', 'KEY', 'TRANSITCARD']",False,[],Albany Ave & 26th St,11,444,classic,False,444,,,,,,
True,41.84404003127,-87.6952959227,a3ae687f-a135-11e9-9cda-0a87ae2ba916,"{'ios': 'https://chi.lft.to/lastmile_qr_scan', 'android': 'https://chi.lft.to/lastmile_qr_scan'}",15692,"['CREDITCARD', 'KEY', 'TRANSITCARD']",False,[],California Ave & 26th St,11,445,classic,False,445,,,,,,
True,41.84151770807,-87.6851314409,a3ae6e48-a135-11e9-9cda-0a87ae2ba916,"{'ios': 'https://chi.lft.to/lastmile_qr_scan', 'android': 'https://chi.lft.to/lastmile_qr_scan'}",KA1504000168,"['CREDITCARD', 'KEY', 'TRANSITCARD']",False,[],Western & 28th - Velasquez Institute Vaccination Site,11,446,classic,False,446,,,,,,
True,42.00797192287,-87.6655023944,a3ae737f-a135-11e9-9cda-0a87ae2ba916,"{'ios': 'https://chi.lft.to/lastmile_qr_scan', 'android': 'https://chi.lft.to/lastmile_qr_scan'}",KA1504000175,"['CREDITCARD', 'KEY', 'TRANSITCARD']",False,[],Glenwood Ave & Morse Ave,15,447,classic,False,447,,,,,,
True,42.00454962194,-87.6806661451,a3ae78ab-a135-11e9-9cda-0a87ae2ba916,"{'ios': 'https://chi.lft.to/lastmile_qr_scan', 'android': 'https://chi.lft.to/lastmile_qr_scan'}",RP-002,"['CREDITCARD', 'KEY', 'TRANSITCARD']",False,[],Warren Park East,11,448,classic,False,448,,,,,,
True,42.00445062934,-87.6724024047,a3ae7dc3-a135-11e9-9cda-0a87ae2ba916,"{'ios': 'https://chi.lft.to/lastmile_qr_scan', 'android': 'https://chi.lft.to/lastmile_qr_scan'}",RP-008,"['CREDITCARD', 'KEY', 'TRANSITCARD']",False,[],Clark St & Columbia Ave,15,449,classic,False,449,,,,,,
True,42.001785,-87.688829,a3ae82e0-a135-11e9-9cda-0a87ae2ba916,"{'ios': 'https://chi.lft.to/lastmile_qr_scan', 'android': 'https://chi.lft.to/lastmile_qr_scan'}",RP-001,"['CREDITCARD', 'KEY', 'TRANSITCARD']",False,[],Warren Park West,11,450,classic,False,450,,,,,,
True,42.00104377979,-87.6611982433,a3ae87fa-a135-11e9-9cda-0a87ae2ba916,"{'ios': 'https://chi.lft.to/lastmile_qr_scan', 'android': 'https://chi.lft.to/lastmile_qr_scan'}",RP-009,"['CREDITCARD', 'KEY', 'TRANSITCARD']",False,[],Sheridan Rd & Loyola Ave,23,451,classic,False,451,,,,,,
True,41.99416136902,-87.689438282,a3ae8d13-a135-11e9-9cda-0a87ae2ba916,"{'ios': 'https://chi.lft.to/lastmile_qr_scan', 'android': 'https://chi.lft.to/lastmile_qr_scan'}",KA1504000129,"['CREDITCARD', 'KEY', 'TRANSITCARD']",False,[],Western Ave & Granville Ave,11,452,classic,False,452,,,,,,
True,41.99925182186,-87.6713773393,a3ae923d-a135-11e9-9cda-0a87ae2ba916,"{'ios': 'https://chi.lft.to/lastmile_qr_scan', 'android': 'https://chi.lft.to/lastmile_qr_scan'}",KA1504000156,"['CREDITCARD', 'KEY', 'TRANSITCARD']",False,[],Clark St & Schreiber Ave,15,453,classic,False,453,,,,,,
True,41.9947796884,-87.6602845349,a3af1767-a135-11e9-9cda-0a87ae2ba916,"{'ios': 'https://chi.lft.to/lastmile_qr_scan', 'android': 'https://chi.lft.to/lastmile_qr_scan'}",15571,"['CREDITCARD', 'KEY', 'TRANSITCARD']",False,[],Broadway & Granville Ave,23,454,classic,False,454,,,,,,
True,41.99023602867,-87.6933696402,a3af1cec-a135-11e9-9cda-0a87ae2ba916,"{'ios': 'https://chi.lft.to/lastmile_qr_scan', 'android': 'https://chi.lft.to/lastmile_qr_scan'}",KA1504000130,"['CREDITCARD', 'KEY', 'TRANSITCARD']",False,[],Maplewood Ave & Peterson Ave,11,455,classic,False,455,,,,,,
True,41.991178,-87.683593,a3af2216-a135-11e9-9cda-0a87ae2ba916,"{'ios': 'https://chi.lft.to/lastmile_qr_scan', 'android': 'https://chi.lft.to/lastmile_qr_scan'}",KA1504000155,"['CREDITCARD', 'KEY', 'TRANSITCARD']",False,[],2112 W Peterson Ave,11,456,classic,False,456,,,,,,
True,41.990860448125574,-87.66972362995148,a3af2737-a135-11e9-9cda-0a87ae2ba916,"{'ios': 'https://chi.lft.to/lastmile_qr_scan', 'android': 'https://chi.lft.to/lastmile_qr_scan'}",KA1504000148,"['CREDITCARD', 'KEY', 'TRANSITCARD']",False,[],Clark St & Elmdale Ave,15,457,classic,False,457,,,,,,
True,41.98974251144,-87.6601406209,a3af2c5f-a135-11e9-9cda-0a87ae2ba916,"{'ios': 'https://chi.lft.to/lastmile_qr_scan', 'android': 'https://chi.lft.to/lastmile_qr_scan'}",15575,"['CREDITCARD', 'KEY', 'TRANSITCARD']",False,[],Broadway & Thorndale Ave,19,458,classic,False,458,,,,,,
True,41.98403669612,-87.6523104689,a3af317e-a135-11e9-9cda-0a87ae2ba916,"{'ios': 'https://chi.lft.to/lastmile_qr_scan', 'android': 'https://chi.lft.to/lastmile_qr_scan'}",KA1504000152,"['CREDITCARD', 'KEY', 'TRANSITCARD']",False,[],Lakefront Trail & Bryn Mawr Ave,19,459,classic,False,459,,,,,,
True,41.983593,-87.669154,a3af368c-a135-11e9-9cda-0a87ae2ba916,"{'ios': 'https://chi.lft.to/lastmile_qr_scan', 'android': 'https://chi.lft.to/lastmile_qr_scan'}",KA1504000151,"['CREDITCARD', 'KEY', 'TRANSITCARD']",False,[],Clark St & Bryn Mawr Ave,15,460,classic,False,460,,,,,,
True,41.9840446107,-87.6602738295,a3af3bac-a135-11e9-9cda-0a87ae2ba916,"{'ios': 'https://chi.lft.to/lastmile_qr_scan', 'android': 'https://chi.lft.to/lastmile_qr_scan'}",15578,"['CREDITCARD', 'KEY', 'TRANSITCARD']",False,[],Broadway & Ridge Ave,15,461,classic,False,461,,,,,,
True,41.979762,-87.67753,a3af40f1-a135-11e9-9cda-0a87ae2ba916,"{'ios': 'https://chi.lft.to/lastmile_qr_scan', 'android': 'https://chi.lft.to/lastmile_qr_scan'}",KA1504000147,"['CREDITCARD', 'KEY', 'TRANSITCARD']",False,[],Winchester (Ravenswood) Ave & Balmoral Ave,15,462,classic,False,462,,,,,,
True,41.9779966544,-87.6680471047,a3af460f-a135-11e9-9cda-0a87ae2ba916,"{'ios': 'https://chi.lft.to/lastmile_qr_scan', 'android': 'https://chi.lft.to/lastmile_qr_scan'}",KA1504000146,"['CREDITCARD', 'KEY', 'TRANSITCARD']",False,[],Clark St & Berwyn Ave,19,463,classic,False,463,,,,,,
True,41.97561480459,-87.6794590387,a3af4b26-a135-11e9-9cda-0a87ae2ba916,"{'ios': 'https://chi.lft.to/lastmile_qr_scan', 'android': 'https://chi.lft.to/lastmile_qr_scan'}",KA1504000149,"['CREDITCARD', 'KEY', 'TRANSITCARD']",False,[],Damen Ave & Foster Ave,15,464,classic,False,464,,,,,,
True,41.9716,-87.650154,a3af52bc-a135-11e9-9cda-0a87ae2ba916,"{'ios': 'https://chi.lft.to/lastmile_qr_scan', 'android': 'https://chi.lft.to/lastmile_qr_scan'}",KA1504000171,"['CREDITCARD', 'KEY', 'TRANSITCARD']",False,[],Marine Dr & Ainslie St,23,465,classic,False,465,,,,,,
True,42.01213227742,-87.6829126443,a3af5804-a135-11e9-9cda-0a87ae2ba916,"{'ios': 'https://chi.lft.to/lastmile_qr_scan', 'android': 'https://chi.lft.to/lastmile_qr_scan'}",RP-006,"['CREDITCARD', 'KEY', 'TRANSITCARD']",False,[],Ridge Blvd & Touhy Ave,11,466,classic,False,466,,,,,,
True,42.0085943972,-87.6904922389,a3af5d1c-a135-11e9-9cda-0a87ae2ba916,"{'ios': 'https://chi.lft.to/lastmile_qr_scan', 'android': 'https://chi.lft.to/lastmile_qr_scan'}",RP-005,"['CREDITCARD', 'KEY', 'TRANSITCARD']",False,[],Western Ave & Lunt Ave,15,467,classic,False,467,,,,,,
True,41.98366470886,-87.6964225611,a3af624c-a135-11e9-9cda-0a87ae2ba916,"{'ios': 'https://chi.lft.to/lastmile_qr_scan', 'android': 'https://chi.lft.to/lastmile_qr_scan'}",15585,"['CREDITCARD', 'KEY', 'TRANSITCARD']",False,[],Budlong Woods Library,11,468,classic,False,468,,,,,,
True,41.98039423475,-87.7161149615,a3af6c2f-a135-11e9-9cda-0a87ae2ba916,"{'ios': 'https://chi.lft.to/lastmile_qr_scan', 'android': 'https://chi.lft.to/lastmile_qr_scan'}",KA1504000161,"['CREDITCARD', 'KEY', 'TRANSITCARD']",False,[],St. Louis Ave & Balmoral Ave,15,469,classic,False,469,,,,,,
True,41.975672,-87.709261,a3af71a9-a135-11e9-9cda-0a87ae2ba916,"{'ios': 'https://chi.lft.to/lastmile_qr_scan', 'android': 'https://chi.lft.to/lastmile_qr_scan'}",KA1504000128,"['CREDITCARD', 'KEY', 'TRANSITCARD']",False,[],Kedzie Ave & Foster Ave,11,470,classic,False,470,,,,,,
True,41.97563272521,-87.7014194389,a3af76f8-a135-11e9-9cda-0a87ae2ba916,"{'ios': 'https://chi.lft.to/lastmile_qr_scan', 'android': 'https://chi.lft.to/lastmile_qr_scan'}",KA1504000160,"['CREDITCARD', 'KEY', 'TRANSITCARD']",False,[],Francisco Ave & Foster Ave,15,471,classic,False,471,,,,,,
True,41.97491129677,-87.6925025594,a3af7c0e-a135-11e9-9cda-0a87ae2ba916,"{'ios': 'https://chi.lft.to/lastmile_qr_scan', 'android': 'https://chi.lft.to/lastmile_qr_scan'}",KA1504000078,"['CREDITCARD', 'KEY', 'TRANSITCARD']",False,[],Lincoln Ave & Winona St,15,472,classic,False,472,,,,,,
True,41.96835449363,-87.7118306675,a3af8123-a135-11e9-9cda-0a87ae2ba916,"{'ios': 'https://chi.lft.to/lastmile_qr_scan', 'android': 'https://chi.lft.to/lastmile_qr_scan'}",15615,"['CREDITCARD', 'KEY', 'TRANSITCARD']",False,[],Christiana Ave & Lawrence Ave,15,474,classic,False,474,,,,,,
True,41.968987,-87.696027,a3af8642-a135-11e9-9cda-0a87ae2ba916,"{'ios': 'https://chi.lft.to/lastmile_qr_scan', 'android': 'https://chi.lft.to/lastmile_qr_scan'}",KA1504000080,"['CREDITCARD', 'KEY', 'TRANSITCARD']",False,[],Washtenaw Ave & Lawrence Ave,15,475,classic,False,475,,,,,,
True,41.96668636205,-87.7080519806,a3af8b51-a135-11e9-9cda-0a87ae2ba916,"{'ios': 'https://chi.lft.to/lastmile_qr_scan', 'android': 'https://chi.lft.to/lastmile_qr_scan'}",KA1504000126,"['CREDITCARD', 'KEY', 'TRANSITCARD']",False,[],Kedzie Ave & Leland Ave,15,476,classic,False,476,,,,,,
True,41.965875,-87.700825,a3af9064-a135-11e9-9cda-0a87ae2ba916,"{'ios': 'https://chi.lft.to/lastmile_qr_scan', 'android': 'https://chi.lft.to/lastmile_qr_scan'}",KA1504000127,"['CREDITCARD', 'KEY', 'TRANSITCARD']",False,[],Manor Ave & Leland Ave,11,477,classic,False,477,,,,,,
True,41.96590013976,-87.6936384935,a3af956e-a135-11e9-9cda-0a87ae2ba916,"{'ios': 'https://chi.lft.to/lastmile_qr_scan', 'android': 'https://chi.lft.to/lastmile_qr_scan'}",KA1504000093,"['CREDITCARD', 'KEY', 'TRANSITCARD']",False,[],Rockwell St & Eastwood Ave,15,478,classic,False,478,,,,,,
True,41.96115407569,-87.7165690733,a3af9a83-a135-11e9-9cda-0a87ae2ba916,"{'ios': 'https://chi.lft.to/lastmile_qr_scan', 'android': 'https://chi.lft.to/lastmile_qr_scan'}",KA1504000097,"['CREDITCARD', 'KEY', 'TRANSITCARD']",False,[],Drake Ave & Montrose Ave,15,479,classic,False,479,,,,,,
True,41.961041,-87.705866,a3af9f99-a135-11e9-9cda-0a87ae2ba916,"{'ios': 'https://chi.lft.to/lastmile_qr_scan', 'android': 'https://chi.lft.to/lastmile_qr_scan'}",15621,"['CREDITCARD', 'KEY', 'TRANSITCARD']",False,[],Albany Ave & Montrose Ave,11,480,classic,False,480,,,,,,
True,41.961068,-87.695439,a3afa4c3-a135-11e9-9cda-0a87ae2ba916,"{'ios': 'https://chi.lft.to/lastmile_qr_scan', 'android': 'https://chi.lft.to/lastmile_qr_scan'}",15622,"['CREDITCARD', 'KEY', 'TRANSITCARD']",False,[],California Ave & Montrose Ave,15,481,classic,False,481,,,,,,
True,41.96152593287,-87.6911650414,a3afa9dc-a135-11e9-9cda-0a87ae2ba916,"{'ios': 'https://chi.lft.to/lastmile_qr_scan', 'android': 'https://chi.lft.to/lastmile_qr_scan'}",15623,"['CREDITCARD', 'KEY', 'TRANSITCARD']",False,[],Campbell Ave & Montrose Ave,15,482,classic,False,482,,,,,,
True,41.953393,-87.732002,a3afaef3-a135-11e9-9cda-0a87ae2ba916,"{'ios': 'https://chi.lft.to/lastmile_qr_scan', 'android': 'https://chi.lft.to/lastmile_qr_scan'}",15624,"['CREDITCARD', 'KEY', 'TRANSITCARD']",False,[],Avondale Ave & Irving Park Rd,19,483,classic,False,483,,,,,,
True,41.95400483876,-87.7191281797,a3afb401-a135-11e9-9cda-0a87ae2ba916,"{'ios': 'https://chi.lft.to/lastmile_qr_scan', 'android': 'https://chi.lft.to/lastmile_qr_scan'}",KA1504000139,"['CREDITCARD', 'KEY', 'TRANSITCARD']",False,[],Monticello Ave & Irving Park Rd,15,484,classic,False,484,,,,,,
True,41.95358617895,-87.7093107999,a3afb917-a135-11e9-9cda-0a87ae2ba916,"{'ios': 'https://chi.lft.to/lastmile_qr_scan', 'android': 'https://chi.lft.to/lastmile_qr_scan'}",KA1504000096,"['CREDITCARD', 'KEY', 'TRANSITCARD']",False,[],Sawyer Ave & Irving Park Rd,15,485,classic,False,485,,,,,,
True,41.95434085219,-87.6860796243,a3afbe2e-a135-11e9-9cda-0a87ae2ba916,"{'ios': 'https://chi.lft.to/lastmile_qr_scan', 'android': 'https://chi.lft.to/lastmile_qr_scan'}",KA1504000158,"['CREDITCARD', 'KEY', 'TRANSITCARD']",False,[],Oakley Ave & Irving Park Rd,15,486,classic,False,486,,,,,,
True,41.95216219326,-87.698051113,a3afc347-a135-11e9-9cda-0a87ae2ba916,"{'ios': 'https://chi.lft.to/lastmile_qr_scan', 'android': 'https://chi.lft.to/lastmile_qr_scan'}",15628,"['CREDITCARD', 'KEY', 'TRANSITCARD']",False,[],California Ave & Byron St,19,487,classic,False,487,,,,,,
True,41.946264,-87.731023,a3afc858-a135-11e9-9cda-0a87ae2ba916,"{'ios': 'https://chi.lft.to/lastmile_qr_scan', 'android': 'https://chi.lft.to/lastmile_qr_scan'}",KA1504000141,"['CREDITCARD', 'KEY', 'TRANSITCARD']",False,[],Pulaski Rd & Eddy St (Temp),11,488,classic,False,488,,,,,,
True,41.947326,-87.717582,a3afcd70-a135-11e9-9cda-0a87ae2ba916,"{'ios': 'https://chi.lft.to/lastmile_qr_scan', 'android': 'https://chi.lft.to/lastmile_qr_scan'}",KA1504000142,"['CREDITCARD', 'KEY', 'TRANSITCARD']",False,[],Drake Ave & Addison St,15,489,classic,False,489,,,,,,
True,41.94524356848,-87.7066499009,a3afd294-a135-11e9-9cda-0a87ae2ba916,"{'ios': 'https://chi.lft.to/lastmile_qr_scan', 'android': 'https://chi.lft.to/lastmile_qr_scan'}",15631,"['CREDITCARD', 'KEY', 'TRANSITCARD']",False,[],Troy St & Elston Ave,15,490,classic,False,490,,,,,,
True,41.9466358306,-87.694614758,a3afd7ab-a135-11e9-9cda-0a87ae2ba916,"{'ios': 'https://chi.lft.to/lastmile_qr_scan', 'android': 'https://chi.lft.to/lastmile_qr_scan'}",15632,"['CREDITCARD', 'KEY', 'TRANSITCARD']",False,[],Talman Ave & Addison St,15,491,classic,False,491,,,,,,
True,41.946655,-87.683359,a3afdcbf-a135-11e9-9cda-0a87ae2ba916,"{'ios': 'https://chi.lft.to/lastmile_qr_scan', 'android': 'https://chi.lft.to/lastmile_qr_scan'}",KA1504000143,"['CREDITCARD', 'KEY', 'TRANSITCARD']",False,[],Leavitt St & Addison St,15,492,classic,False,492,,,,,,
True,41.943034,-87.687288,a3afe1dc-a135-11e9-9cda-0a87ae2ba916,"{'ios': 'https://chi.lft.to/lastmile_qr_scan', 'android': 'https://chi.lft.to/lastmile_qr_scan'}",15634,"['CREDITCARD', 'KEY', 'TRANSITCARD']",False,[],Western Ave & Roscoe St,11,493,classic,False,493,,,,,,
True,41.98239708485,-87.7089225202,a3afe6ed-a135-11e9-9cda-0a87ae2ba916,"{'ios': 'https://chi.lft.to/lastmile_qr_scan', 'android': 'https://chi.lft.to/lastmile_qr_scan'}",KA1504000167,"['CREDITCARD', 'KEY', 'TRANSITCARD']",False,[],Kedzie Ave & Bryn Mawr Ave,15,494,classic,False,494,,,,,,
True,41.96110801623,-87.7289701012,a3afebff-a135-11e9-9cda-0a87ae2ba916,"{'ios': 'https://chi.lft.to/lastmile_qr_scan', 'android': 'https://chi.lft.to/lastmile_qr_scan'}",KA1504000164,"['CREDITCARD', 'KEY', 'TRANSITCARD']",False,[],Keystone Ave & Montrose Ave,11,495,classic,False,495,,,,,,
True,41.939408,-87.723574,a3aff10c-a135-11e9-9cda-0a87ae2ba916,"{'ios': 'https://chi.lft.to/lastmile_qr_scan', 'android': 'https://chi.lft.to/lastmile_qr_scan'}",15640,"['CREDITCARD', 'KEY', 'TRANSITCARD']",False,[],Avers Ave & Belmont Ave,11,496,classic,False,496,,,,,,
True,41.939398,-87.711561,a3aff616-a135-11e9-9cda-0a87ae2ba916,"{'ios': 'https://chi.lft.to/lastmile_qr_scan', 'android': 'https://chi.lft.to/lastmile_qr_scan'}",KA150400009X,"['CREDITCARD', 'KEY', 'TRANSITCARD']",False,[],Kimball Ave & Belmont Ave,15,497,classic,False,497,,,,,,
True,41.93842879148,-87.698007756,a3affb22-a135-11e9-9cda-0a87ae2ba916,"{'ios': 'https://chi.lft.to/lastmile_qr_scan', 'android': 'https://chi.lft.to/lastmile_qr_scan'}",15642,"['CREDITCARD', 'KEY', 'TRANSITCARD']",False,[],California Ave & Fletcher St,19,498,classic,False,498,,,,,,
True,41.93058537138,-87.7237773635,a3b00055-a135-11e9-9cda-0a87ae2ba916,"{'ios': 'https://chi.lft.to/lastmile_qr_scan', 'android': 'https://chi.lft.to/lastmile_qr_scan'}",15643,"['CREDITCARD', 'KEY', 'TRANSITCARD']",False,[],Kosciuszko Park,15,499,classic,False,499,,,,,,
True,41.93533728263,-87.7168892935,a3b0060d-a135-11e9-9cda-0a87ae2ba916,"{'ios': 'https://chi.lft.to/lastmile_qr_scan', 'android': 'https://chi.lft.to/lastmile_qr_scan'}",15644,"['CREDITCARD', 'KEY', 'TRANSITCARD']",False,[],Central Park Ave & Elbridge Ave,15,500,classic,False,500,,,,,,
True,41.93190196886,-87.7011951301,a3b00b3a-a135-11e9-9cda-0a87ae2ba916,"{'ios': 'https://chi.lft.to/lastmile_qr_scan', 'android': 'https://chi.lft.to/lastmile_qr_scan'}",15645,"['CREDITCARD', 'KEY', 'TRANSITCARD']",False,[],Richmond St & Diversey Ave,15,501,classic,False,501,,,,,,
True,41.92669,-87.697668,a3b0104c-a135-11e9-9cda-0a87ae2ba916,"{'ios': 'https://chi.lft.to/lastmile_qr_scan', 'android': 'https://chi.lft.to/lastmile_qr_scan'}",15646,"['CREDITCARD', 'KEY', 'TRANSITCARD']",False,[],California Ave & Altgeld St,15,502,classic,False,502,,,,,,
True,41.92481559681187,-87.71449506282805,a3b01578-a135-11e9-9cda-0a87ae2ba916,"{'ios': 'https://chi.lft.to/lastmile_qr_scan', 'android': 'https://chi.lft.to/lastmile_qr_scan'}",KA1504000090,"['CREDITCARD', 'KEY', 'TRANSITCARD']",False,[],St. Louis Ave & Fullerton Ave,15,503,classic,False,503,,,,,,
True,41.92463247165,-87.6893070063,a3b01a86-a135-11e9-9cda-0a87ae2ba916,"{'ios': 'https://chi.lft.to/lastmile_qr_scan', 'android': 'https://chi.lft.to/lastmile_qr_scan'}",15648,"['CREDITCARD', 'KEY', 'TRANSITCARD']",False,[],Campbell Ave & Fullerton Ave,15,504,classic,False,504,,,,,,
True,41.92409085038,-87.6764600747,a3b01f9c-a135-11e9-9cda-0a87ae2ba916,"{'ios': 'https://chi.lft.to/lastmile_qr_scan', 'android': 'https://chi.lft.to/lastmile_qr_scan'}",KA1504000140,"['CREDITCARD', 'KEY', 'TRANSITCARD']",False,[],Winchester Ave & Elston Ave,15,505,classic,False,505,,,,,,
True,41.917108034789315,-87.71022096276283,a3b024aa-a135-11e9-9cda-0a87ae2ba916,"{'ios': 'https://chi.lft.to/lastmile_qr_scan', 'android': 'https://chi.lft.to/lastmile_qr_scan'}",15650,"['CREDITCARD', 'KEY', 'TRANSITCARD']",False,[],Spaulding Ave & Armitage Ave,15,506,classic,False,506,,,,,,
True,41.91751339399,-87.7018089555,a3b029be-a135-11e9-9cda-0a87ae2ba916,"{'ios': 'https://chi.lft.to/lastmile_qr_scan', 'android': 'https://chi.lft.to/lastmile_qr_scan'}",15651,"['CREDITCARD', 'KEY', 'TRANSITCARD']",False,[],Humboldt Blvd & Armitage Ave,19,507,classic,False,507,,,,,,
True,41.90965687563,-87.7166319516,a3b02ef1-a135-11e9-9cda-0a87ae2ba916,"{'ios': 'https://chi.lft.to/lastmile_qr_scan', 'android': 'https://chi.lft.to/lastmile_qr_scan'}",15652,"['CREDITCARD', 'KEY', 'TRANSITCARD']",False,[],Central Park Ave & North Ave,15,508,classic,False,508,,,,,,
True,41.90976930169,-87.7052804871,a3b0b291-a135-11e9-9cda-0a87ae2ba916,"{'ios': 'https://chi.lft.to/lastmile_qr_scan', 'android': 'https://chi.lft.to/lastmile_qr_scan'}",15653,"['CREDITCARD', 'KEY', 'TRANSITCARD']",False,[],Troy St & North Ave,15,509,classic,False,509,,,,,,
True,41.90270659438,-87.709219571,a3b0b801-a135-11e9-9cda-0a87ae2ba916,"{'ios': 'https://chi.lft.to/lastmile_qr_scan', 'android': 'https://chi.lft.to/lastmile_qr_scan'}",15654,"['CREDITCARD', 'KEY', 'TRANSITCARD']",False,[],Spaulding Ave & Division St,11,510,classic,False,510,,,,,,
True,41.91402671273,-87.705126462,a3b0bd42-a135-11e9-9cda-0a87ae2ba916,"{'ios': 'https://chi.lft.to/lastmile_qr_scan', 'android': 'https://chi.lft.to/lastmile_qr_scan'}",15655,"['CREDITCARD', 'KEY', 'TRANSITCARD']",False,[],Albany Ave & Bloomingdale Ave,15,511,classic,False,511,,,,,,
True,42.019276,-87.68452,a3b0ccad-a135-11e9-9cda-0a87ae2ba916,"{'ios': 'https://chi.lft.to/lastmile_qr_scan', 'android': 'https://chi.lft.to/lastmile_qr_scan'}",514,"['CREDITCARD', 'KEY', 'TRANSITCARD']",False,[],Ridge Blvd & Howard St,11,514,classic,False,514,,,,,,
True,42.019159,-87.673573,a3b0d1d5-a135-11e9-9cda-0a87ae2ba916,"{'ios': 'https://chi.lft.to/lastmile_qr_scan', 'android': 'https://chi.lft.to/lastmile_qr_scan'}",515,"['CREDITCARD', 'KEY', 'TRANSITCARD']",False,[],Paulina St & Howard St,19,515,classic,False,515,,,,,,
True,42.015963,-87.675005,a3b0d6ec-a135-11e9-9cda-0a87ae2ba916,"{'ios': 'https://chi.lft.to/lastmile_qr_scan', 'android': 'https://chi.lft.to/lastmile_qr_scan'}",517,"['CREDITCARD', 'KEY', 'TRANSITCARD']",False,[],Clark St & Jarvis Ave,11,517,classic,False,517,,,,,,
True,41.885502,-87.716866,a3b0dc1f-a135-11e9-9cda-0a87ae2ba916,"{'ios': 'https://chi.lft.to/lastmile_qr_scan', 'android': 'https://chi.lft.to/lastmile_qr_scan'}",518,"['CREDITCARD', 'KEY', 'TRANSITCARD']",False,[],Conservatory Dr & Lake St,11,518,classic,False,518,,,,,,
True,42.016977,-87.677725,a3b0e141-a135-11e9-9cda-0a87ae2ba916,"{'ios': 'https://chi.lft.to/lastmile_qr_scan', 'android': 'https://chi.lft.to/lastmile_qr_scan'}",519,"['CREDITCARD', 'KEY', 'TRANSITCARD']",False,[],Wolcott Ave & Fargo Ave,11,519,classic,False,519,,,,,,
True,42.015962,-87.66857,a3b0e657-a135-11e9-9cda-0a87ae2ba916,"{'ios': 'https://chi.lft.to/lastmile_qr_scan', 'android': 'https://chi.lft.to/lastmile_qr_scan'}",520,"['CREDITCARD', 'KEY', 'TRANSITCARD']",False,[],Greenview Ave & Jarvis Ave,19,520,classic,False,520,,,,,,
True,42.019537,-87.669563,a3b0eb93-a135-11e9-9cda-0a87ae2ba916,"{'ios': 'https://chi.lft.to/lastmile_qr_scan', 'android': 'https://chi.lft.to/lastmile_qr_scan'}",16806,"['CREDITCARD', 'KEY', 'TRANSITCARD']",False,[],Bosworth Ave & Howard St,11,522,classic,False,522,,,,,,
True,42.0208872805206,-87.66505792737007,a3b0f0b6-a135-11e9-9cda-0a87ae2ba916,"{'ios': 'https://chi.lft.to/lastmile_qr_scan', 'android': 'https://chi.lft.to/lastmile_qr_scan'}",523,"['CREDITCARD', 'KEY', 'TRANSITCARD']",False,[],Eastlake Ter & Rogers Ave,15,523,classic,False,523,,,,,,
True,41.894887,-87.774704,a3b0f5c9-a135-11e9-9cda-0a87ae2ba916,"{'ios': 'https://chi.lft.to/lastmile_qr_scan', 'android': 'https://chi.lft.to/lastmile_qr_scan'}",16921,"['CREDITCARD', 'KEY', 'TRANSITCARD']",False,[],Austin Blvd & Chicago Ave,7,524,classic,False,524,,,,,,
True,42.012701,-87.666058,a3b0fae6-a135-11e9-9cda-0a87ae2ba916,"{'ios': 'https://chi.lft.to/lastmile_qr_scan', 'android': 'https://chi.lft.to/lastmile_qr_scan'}",525,"['CREDITCARD', 'KEY', 'TRANSITCARD']",False,[],Glenwood Ave & Touhy Ave,15,525,classic,False,525,,,,,,
True,42.012342,-87.688243,a3b0fff9-a135-11e9-9cda-0a87ae2ba916,"{'ios': 'https://chi.lft.to/lastmile_qr_scan', 'android': 'https://chi.lft.to/lastmile_qr_scan'}",RP-004,"['CREDITCARD', 'KEY', 'TRANSITCARD']",False,[],Oakley Ave & Touhy Ave,11,526,classic,False,526,,,,,,
True,42.018901,-87.690048,a3b1050d-a135-11e9-9cda-0a87ae2ba916,"{'ios': 'https://chi.lft.to/lastmile_qr_scan', 'android': 'https://chi.lft.to/lastmile_qr_scan'}",527,"['CREDITCARD', 'KEY', 'TRANSITCARD']",False,[],Western Ave & Howard St,15,527,classic,False,527,,,,,,
True,41.885409,-87.726491,a3b10a40-a135-11e9-9cda-0a87ae2ba916,"{'ios': 'https://chi.lft.to/lastmile_qr_scan', 'android': 'https://chi.lft.to/lastmile_qr_scan'}",528,"['CREDITCARD', 'KEY', 'TRANSITCARD']",False,[],Pulaski Rd & Lake St,11,528,classic,False,528,,,,,,
True,41.886841,-87.745261,a3b10f66-a135-11e9-9cda-0a87ae2ba916,"{'ios': 'https://chi.lft.to/lastmile_qr_scan', 'android': 'https://chi.lft.to/lastmile_qr_scan'}",16903,"['CREDITCARD', 'KEY', 'TRANSITCARD']",False,[],Cicero Ave & Lake St,11,529,classic,False,529,,,,,,
True,41.887832,-87.755527,a3b11480-a135-11e9-9cda-0a87ae2ba916,"{'ios': 'https://chi.lft.to/lastmile_qr_scan', 'android': 'https://chi.lft.to/lastmile_qr_scan'}",530,"['CREDITCARD', 'KEY', 'TRANSITCARD']",False,[],Laramie Ave & Kinzie St,11,530,classic,False,530,,,,,,
True,41.887664,-87.765469,a3b11993-a135-11e9-9cda-0a87ae2ba916,"{'ios': 'https://chi.lft.to/lastmile_qr_scan', 'android': 'https://chi.lft.to/lastmile_qr_scan'}",16905,"['CREDITCARD', 'KEY', 'TRANSITCARD']",False,[],Central Ave & Lake St,11,531,classic,False,531,,,,,,
True,41.887919,-87.774446,a3b11ea4-a135-11e9-9cda-0a87ae2ba916,"{'ios': 'https://chi.lft.to/lastmile_qr_scan', 'android': 'https://chi.lft.to/lastmile_qr_scan'}",16906,"['CREDITCARD', 'KEY', 'TRANSITCARD']",False,[],Austin Blvd & Lake St,11,532,classic,False,532,,,,,,
True,41.875679,-87.71547,a3b123c5-a135-11e9-9cda-0a87ae2ba916,"{'ios': 'https://chi.lft.to/lastmile_qr_scan', 'android': 'https://chi.lft.to/lastmile_qr_scan'}",16907,"['CREDITCARD', 'KEY', 'TRANSITCARD']",False,[],Central Park Blvd & 5th Ave,11,533,classic,False,533,,,,,,
True,41.88085,-87.727907,a3b128de-a135-11e9-9cda-0a87ae2ba916,"{'ios': 'https://chi.lft.to/lastmile_qr_scan', 'android': 'https://chi.lft.to/lastmile_qr_scan'}",534,"['CREDITCARD', 'KEY', 'TRANSITCARD']",False,[],Karlov Ave & Madison St,11,534,classic,False,534,,,,,,
True,41.874325,-87.725704,a3b12dfb-a135-11e9-9cda-0a87ae2ba916,"{'ios': 'https://chi.lft.to/lastmile_qr_scan', 'android': 'https://chi.lft.to/lastmile_qr_scan'}",535,"['CREDITCARD', 'KEY', 'TRANSITCARD']",False,[],Pulaski Rd & Congress Pkwy,11,535,classic,False,535,,,,,,
True,41.885928,-87.73541,a3b1330c-a135-11e9-9cda-0a87ae2ba916,"{'ios': 'https://chi.lft.to/lastmile_qr_scan', 'android': 'https://chi.lft.to/lastmile_qr_scan'}",536,"['CREDITCARD', 'KEY', 'TRANSITCARD']",False,[],Kostner Ave & Lake St,11,536,classic,False,536,,,,,,
True,41.880708,-87.741018,a3b13836-a135-11e9-9cda-0a87ae2ba916,"{'ios': 'https://chi.lft.to/lastmile_qr_scan', 'android': 'https://chi.lft.to/lastmile_qr_scan'}",537,"['CREDITCARD', 'KEY', 'TRANSITCARD']",False,[],Kenton Ave & Madison St,11,537,classic,False,537,,,,,,
True,41.872131,-87.746619,a3b13e66-a135-11e9-9cda-0a87ae2ba916,"{'ios': 'https://chi.lft.to/lastmile_qr_scan', 'android': 'https://chi.lft.to/lastmile_qr_scan'}",16912,"['CREDITCARD', 'KEY', 'TRANSITCARD']",False,[],Cicero Ave & Flournoy St,11,538,classic,False,538,,,,,,
True,41.877613,-87.745405,a3b143aa-a135-11e9-9cda-0a87ae2ba916,"{'ios': 'https://chi.lft.to/lastmile_qr_scan', 'android': 'https://chi.lft.to/lastmile_qr_scan'}",16913,"['CREDITCARD', 'KEY', 'TRANSITCARD']",False,[],Cicero Ave & Quincy St,11,539,classic,False,539,,,,,,
True,41.880207,-87.755337,a3b148bf-a135-11e9-9cda-0a87ae2ba916,"{'ios': 'https://chi.lft.to/lastmile_qr_scan', 'android': 'https://chi.lft.to/lastmile_qr_scan'}",540,"['CREDITCARD', 'KEY', 'TRANSITCARD']",False,[],Laramie Ave & Madison St,11,540,classic,False,540,,,,,,
True,41.872993,-87.764499,a3b1c47b-a135-11e9-9cda-0a87ae2ba916,"{'ios': 'https://chi.lft.to/lastmile_qr_scan', 'android': 'https://chi.lft.to/lastmile_qr_scan'}",16915,"['CREDITCARD', 'KEY', 'TRANSITCARD']",False,[],Central Ave & Harrison St,11,541,classic,False,541,,,,,,
True,41.880121,-87.763238,a3b1ca28-a135-11e9-9cda-0a87ae2ba916,"{'ios': 'https://chi.lft.to/lastmile_qr_scan', 'android': 'https://chi.lft.to/lastmile_qr_scan'}",16916,"['CREDITCARD', 'KEY', 'TRANSITCARD']",False,[],Central Ave & Madison St,11,542,classic,False,542,,,,,,
True,41.875806,-87.755285,a3b1cf80-a135-11e9-9cda-0a87ae2ba916,"{'ios': 'https://chi.lft.to/lastmile_qr_scan', 'android': 'https://chi.lft.to/lastmile_qr_scan'}",543,"['CREDITCARD', 'KEY', 'TRANSITCARD']",False,[],Laramie Ave & Gladys Ave,11,543,classic,False,543,,,,,,
True,41.880281,-87.774453,a3b1d532-a135-11e9-9cda-0a87ae2ba916,"{'ios': 'https://chi.lft.to/lastmile_qr_scan', 'android': 'https://chi.lft.to/lastmile_qr_scan'}",16918,"['CREDITCARD', 'KEY', 'TRANSITCARD']",False,[],Austin Blvd & Madison St,11,544,classic,False,544,,,,,,
True,41.877917,-87.735737,a3b1db23-a135-11e9-9cda-0a87ae2ba916,"{'ios': 'https://chi.lft.to/lastmile_qr_scan', 'android': 'https://chi.lft.to/lastmile_qr_scan'}",545,"['CREDITCARD', 'KEY', 'TRANSITCARD']",False,[],Kostner Ave & Adams St,11,545,classic,False,545,,,,,,
True,41.823192,-87.676597,a3b1e065-a135-11e9-9cda-0a87ae2ba916,"{'ios': 'https://chi.lft.to/lastmile_qr_scan', 'android': 'https://chi.lft.to/lastmile_qr_scan'}",546,"['CREDITCARD', 'KEY', 'TRANSITCARD']",False,[],Damen Ave & Pershing Rd,11,546,classic,False,546,,,,,,
True,41.823465,-87.665577,a3b1e588-a135-11e9-9cda-0a87ae2ba916,"{'ios': 'https://chi.lft.to/lastmile_qr_scan', 'android': 'https://chi.lft.to/lastmile_qr_scan'}",16932,"['CREDITCARD', 'KEY', 'TRANSITCARD']",False,[],Ashland Ave & Pershing Rd,11,547,classic,False,547,,,,,,
True,41.823613,-87.650931,a3b1eaa7-a135-11e9-9cda-0a87ae2ba916,"{'ios': 'https://chi.lft.to/lastmile_qr_scan', 'android': 'https://chi.lft.to/lastmile_qr_scan'}",16933,"['CREDITCARD', 'KEY', 'TRANSITCARD']",False,[],Morgan St & Pershing Rd,7,548,classic,False,548,,,,,,
True,41.813996,-87.666589,a3b1efd6-a135-11e9-9cda-0a87ae2ba916,"{'ios': 'https://chi.lft.to/lastmile_qr_scan', 'android': 'https://chi.lft.to/lastmile_qr_scan'}",549,"['CREDITCARD', 'KEY', 'TRANSITCARD']",False,[],Marshfield Ave & 44th St,11,549,classic,False,549,,,,,,
True,41.894958,-87.764902,a3b1f4fb-a135-11e9-9cda-0a87ae2ba916,"{'ios': 'https://chi.lft.to/lastmile_qr_scan', 'android': 'https://chi.lft.to/lastmile_qr_scan'}",16920,"['CREDITCARD', 'KEY', 'TRANSITCARD']",False,[],Central Ave & Chicago Ave,11,550,classic,False,550,,,,,,
True,41.808227,-87.67718,a3b1fa1c-a135-11e9-9cda-0a87ae2ba916,"{'ios': 'https://chi.lft.to/lastmile_qr_scan', 'android': 'https://chi.lft.to/lastmile_qr_scan'}",KA1504000091,"['CREDITCARD', 'KEY', 'TRANSITCARD']",False,[],Hoyne Ave & 47th St,11,551,classic,False,551,,,,,,
True,41.80887,-87.66454,a3b1ff34-a135-11e9-9cda-0a87ae2ba916,"{'ios': 'https://chi.lft.to/lastmile_qr_scan', 'android': 'https://chi.lft.to/lastmile_qr_scan'}",16937,"['CREDITCARD', 'KEY', 'TRANSITCARD']",False,[],Ashland Ave & McDowell Ave,11,552,classic,False,552,,,,,,
True,41.80839,-87.656526,a3b2044b-a135-11e9-9cda-0a87ae2ba916,"{'ios': 'https://chi.lft.to/lastmile_qr_scan', 'android': 'https://chi.lft.to/lastmile_qr_scan'}",553,"['CREDITCARD', 'KEY', 'TRANSITCARD']",False,[],Elizabeth St & 47th St,11,553,classic,False,553,,,,,,
True,41.800908,-87.674684,a3b20960-a135-11e9-9cda-0a87ae2ba916,"{'ios': 'https://chi.lft.to/lastmile_qr_scan', 'android': 'https://chi.lft.to/lastmile_qr_scan'}",554,"['CREDITCARD', 'KEY', 'TRANSITCARD']",False,[],Damen Ave & 51st St,7,554,classic,False,554,,,,,,
True,41.803023,-87.664699,a3b20e8a-a135-11e9-9cda-0a87ae2ba916,"{'ios': 'https://chi.lft.to/lastmile_qr_scan', 'android': 'https://chi.lft.to/lastmile_qr_scan'}",16940,"['CREDITCARD', 'KEY', 'TRANSITCARD']",False,[],Ashland Ave & 50th St,11,555,classic,False,555,,,,,,
True,41.799659,-87.657195,a3b213af-a135-11e9-9cda-0a87ae2ba916,"{'ios': 'https://chi.lft.to/lastmile_qr_scan', 'android': 'https://chi.lft.to/lastmile_qr_scan'}",556,"['CREDITCARD', 'KEY', 'TRANSITCARD']",False,[],Throop St & 52nd St,7,556,classic,False,556,,,,,,
True,41.794087,-87.675478,a3b218cd-a135-11e9-9cda-0a87ae2ba916,"{'ios': 'https://chi.lft.to/lastmile_qr_scan', 'android': 'https://chi.lft.to/lastmile_qr_scan'}",557,"['CREDITCARD', 'KEY', 'TRANSITCARD']",False,[],Seeley Ave & Garfield Blvd,11,557,classic,False,557,,,,,,
True,41.792822,-87.664429,a3b21de7-a135-11e9-9cda-0a87ae2ba916,"{'ios': 'https://chi.lft.to/lastmile_qr_scan', 'android': 'https://chi.lft.to/lastmile_qr_scan'}",16943,"['CREDITCARD', 'KEY', 'TRANSITCARD']",False,[],Ashland Ave & Garfield Blvd,11,558,classic,False,558,,,,,,
True,41.794228,-87.655073,a3b222fc-a135-11e9-9cda-0a87ae2ba916,"{'ios': 'https://chi.lft.to/lastmile_qr_scan', 'android': 'https://chi.lft.to/lastmile_qr_scan'}",559,"['CREDITCARD', 'KEY', 'TRANSITCARD']",False,[],Racine Ave & Garfield Blvd,11,559,classic,False,559,,,,,,
True,41.786833,-87.666215,a3b22815-a135-11e9-9cda-0a87ae2ba916,"{'ios': 'https://chi.lft.to/lastmile_qr_scan', 'android': 'https://chi.lft.to/lastmile_qr_scan'}",560,"['CREDITCARD', 'KEY', 'TRANSITCARD']",False,[],Marshfield Ave & 59th St,11,560,classic,False,560,,,,,,
True,41.784770075728936,-87.67390653491019,a3b22d3d-a135-11e9-9cda-0a87ae2ba916,"{'ios': 'https://chi.lft.to/lastmile_qr_scan', 'android': 'https://chi.lft.to/lastmile_qr_scan'}",561,"['CREDITCARD', 'KEY', 'TRANSITCARD']",False,[],Damen Ave & 59th St,11,561,classic,False,561,,,,,,
True,41.783189,-87.654372,a3b23263-a135-11e9-9cda-0a87ae2ba916,"{'ios': 'https://chi.lft.to/lastmile_qr_scan', 'android': 'https://chi.lft.to/lastmile_qr_scan'}",562,"['CREDITCARD', 'KEY', 'TRANSITCARD']",False,[],Racine Ave & 61st St,11,562,classic,False,562,,,,,,
True,41.779374,-87.664843,a3b23785-a135-11e9-9cda-0a87ae2ba916,"{'ios': 'https://chi.lft.to/lastmile_qr_scan', 'android': 'https://chi.lft.to/lastmile_qr_scan'}",16948,"['CREDITCARD', 'KEY', 'TRANSITCARD']",False,[],Ashland Ave & 63rd St,11,563,classic,False,563,,,,,,
True,41.775393,-87.654308,a3b23cb8-a135-11e9-9cda-0a87ae2ba916,"{'ios': 'https://chi.lft.to/lastmile_qr_scan', 'android': 'https://chi.lft.to/lastmile_qr_scan'}",564,"['CREDITCARD', 'KEY', 'TRANSITCARD']",False,[],Racine Ave & 65th St,11,564,classic,False,564,,,,,,
True,41.774074,-87.663815,a3b241df-a135-11e9-9cda-0a87ae2ba916,"{'ios': 'https://chi.lft.to/lastmile_qr_scan', 'android': 'https://chi.lft.to/lastmile_qr_scan'}",16950,"['CREDITCARD', 'KEY', 'TRANSITCARD']",False,[],Ashland Ave & 66th St,7,565,classic,False,565,,,,,,
True,41.768938,-87.652934,a3b24c1f-a135-11e9-9cda-0a87ae2ba916,"{'ios': 'https://chi.lft.to/lastmile_qr_scan', 'android': 'https://chi.lft.to/lastmile_qr_scan'}",567,"['CREDITCARD', 'KEY', 'TRANSITCARD']",False,[],May St & 69th St,11,567,classic,False,567,,,,,,
True,41.75797,-87.63121,a3b2513d-a135-11e9-9cda-0a87ae2ba916,"{'ios': 'https://chi.lft.to/lastmile_qr_scan', 'android': 'https://chi.lft.to/lastmile_qr_scan'}",16953,"['CREDITCARD', 'KEY', 'TRANSITCARD']",False,[],Vincennes Ave & 75th St,7,568,classic,False,568,,,,,,
True,41.75916,-87.595751,a3b25656-a135-11e9-9cda-0a87ae2ba916,"{'ios': 'https://chi.lft.to/lastmile_qr_scan', 'android': 'https://chi.lft.to/lastmile_qr_scan'}",569,"['CREDITCARD', 'KEY', 'TRANSITCARD']",False,[],Woodlawn Ave & 75th St,11,569,classic,False,569,,,,,,
True,41.75849,-87.60641,a3b25b6d-a135-11e9-9cda-0a87ae2ba916,"{'ios': 'https://chi.lft.to/lastmile_qr_scan', 'android': 'https://chi.lft.to/lastmile_qr_scan'}",570,"['CREDITCARD', 'KEY', 'TRANSITCARD']",False,[],Evans Ave & 75th St,7,570,classic,False,570,,,,,,
True,41.758361,-87.614138,a3b26084-a135-11e9-9cda-0a87ae2ba916,"{'ios': 'https://chi.lft.to/lastmile_qr_scan', 'android': 'https://chi.lft.to/lastmile_qr_scan'}",571,"['CREDITCARD', 'KEY', 'TRANSITCARD']",False,[],Vernon Ave & 75th St,11,571,classic,False,571,,,,,,
True,41.756971,-87.624621,a3b2659d-a135-11e9-9cda-0a87ae2ba916,"{'ios': 'https://chi.lft.to/lastmile_qr_scan', 'android': 'https://chi.lft.to/lastmile_qr_scan'}",572,"['CREDITCARD', 'KEY', 'TRANSITCARD']",False,[],State St & 76th St,11,572,classic,False,572,,,,,,
True,41.750794,-87.624424,a3b26acf-a135-11e9-9cda-0a87ae2ba916,"{'ios': 'https://chi.lft.to/lastmile_qr_scan', 'android': 'https://chi.lft.to/lastmile_qr_scan'}",573,"['CREDITCARD', 'KEY', 'TRANSITCARD']",False,[],State St & 79th St,11,573,classic,False,573,,,,,,
True,41.75094,-87.61379,a3b26fee-a135-11e9-9cda-0a87ae2ba916,"{'ios': 'https://chi.lft.to/lastmile_qr_scan', 'android': 'https://chi.lft.to/lastmile_qr_scan'}",574,"['CREDITCARD', 'KEY', 'TRANSITCARD']",False,[],Vernon Ave & 79th St,11,574,classic,False,574,,,,,,
True,41.753174,-87.605026,a3b2767f-a135-11e9-9cda-0a87ae2ba916,"{'ios': 'https://chi.lft.to/lastmile_qr_scan', 'android': 'https://chi.lft.to/lastmile_qr_scan'}",575,"['CREDITCARD', 'KEY', 'TRANSITCARD']",False,[],Cottage Grove Ave & 78th St,11,575,classic,False,575,,,,,,
True,41.751294,-87.597552,a3b27bcf-a135-11e9-9cda-0a87ae2ba916,"{'ios': 'https://chi.lft.to/lastmile_qr_scan', 'android': 'https://chi.lft.to/lastmile_qr_scan'}",576,"['CREDITCARD', 'KEY', 'TRANSITCARD']",False,[],Greenwood Ave & 79th St,11,576,classic,False,576,,,,,,
True,41.751173,-87.585337,a3b2810e-a135-11e9-9cda-0a87ae2ba916,"{'ios': 'https://chi.lft.to/lastmile_qr_scan', 'android': 'https://chi.lft.to/lastmile_qr_scan'}",577,"['CREDITCARD', 'KEY', 'TRANSITCARD']",False,[],Stony Island Ave & South Chicago Ave,11,577,classic,False,577,,,,,,
True,41.751785,-87.578496,a3b2862e-a135-11e9-9cda-0a87ae2ba916,"{'ios': 'https://chi.lft.to/lastmile_qr_scan', 'android': 'https://chi.lft.to/lastmile_qr_scan'}",16970,"['CREDITCARD', 'KEY', 'TRANSITCARD']",False,[],Bennett Ave & 79th St,11,578,classic,False,578,,,,,,
True,41.75182,-87.565211,a3b28b4a-a135-11e9-9cda-0a87ae2ba916,"{'ios': 'https://chi.lft.to/lastmile_qr_scan', 'android': 'https://chi.lft.to/lastmile_qr_scan'}",579,"['CREDITCARD', 'KEY', 'TRANSITCARD']",False,[],Phillips Ave & 79th St,11,579,classic,False,579,,,,,,
True,41.751731,-87.552812,a3b2905a-a135-11e9-9cda-0a87ae2ba916,"{'ios': 'https://chi.lft.to/lastmile_qr_scan', 'android': 'https://chi.lft.to/lastmile_qr_scan'}",580,"['CREDITCARD', 'KEY', 'TRANSITCARD']",False,[],Exchange Ave & 79th St,11,580,classic,False,580,,,,,,
True,41.744615,-87.551208,a3b2956a-a135-11e9-9cda-0a87ae2ba916,"{'ios': 'https://chi.lft.to/lastmile_qr_scan', 'android': 'https://chi.lft.to/lastmile_qr_scan'}",TA1309000051,"['CREDITCARD', 'KEY', 'TRANSITCARD']",False,[],Commercial Ave & 83rd St,11,581,classic,False,581,,,,,,
True,41.744531,-87.56506,a3b29a90-a135-11e9-9cda-0a87ae2ba916,"{'ios': 'https://chi.lft.to/lastmile_qr_scan', 'android': 'https://chi.lft.to/lastmile_qr_scan'}",582,"['CREDITCARD', 'KEY', 'TRANSITCARD']",False,[],Phillips Ave & 83rd St,11,582,classic,False,582,,,,,,
True,41.746559,-87.586005,a3b29fae-a135-11e9-9cda-0a87ae2ba916,"{'ios': 'https://chi.lft.to/lastmile_qr_scan', 'android': 'https://chi.lft.to/lastmile_qr_scan'}",583,"['CREDITCARD', 'KEY', 'TRANSITCARD']",False,[],Stony Island Ave & 82nd St,11,583,classic,False,583,,,,,,
True,41.744123,-87.599034,a3b2a4ca-a135-11e9-9cda-0a87ae2ba916,"{'ios': 'https://chi.lft.to/lastmile_qr_scan', 'android': 'https://chi.lft.to/lastmile_qr_scan'}",584,"['CREDITCARD', 'KEY', 'TRANSITCARD']",False,[],Ellis Ave & 83rd St,11,584,classic,False,584,,,,,,
True,41.743441,-87.604836,a3b2a9e7-a135-11e9-9cda-0a87ae2ba916,"{'ios': 'https://chi.lft.to/lastmile_qr_scan', 'android': 'https://chi.lft.to/lastmile_qr_scan'}",585,"['CREDITCARD', 'KEY', 'TRANSITCARD']",False,[],Cottage Grove Ave & 83rd St,11,585,classic,False,585,,,,,,
True,41.743116,-87.6148,a3b2af02-a135-11e9-9cda-0a87ae2ba916,"{'ios': 'https://chi.lft.to/lastmile_qr_scan', 'android': 'https://chi.lft.to/lastmile_qr_scan'}",586,"['CREDITCARD', 'KEY', 'TRANSITCARD']",False,[],MLK Jr Dr & 83rd St,11,586,classic,False,586,,,,,,
True,41.743316,-87.622849,a3b2b419-a135-11e9-9cda-0a87ae2ba916,"{'ios': 'https://chi.lft.to/lastmile_qr_scan', 'android': 'https://chi.lft.to/lastmile_qr_scan'}",587,"['CREDITCARD', 'KEY', 'TRANSITCARD']",False,[],Wabash Ave & 83rd St,11,587,classic,False,587,,,,,,
True,41.743921,-87.575225,a3b2b92c-a135-11e9-9cda-0a87ae2ba916,"{'ios': 'https://chi.lft.to/lastmile_qr_scan', 'android': 'https://chi.lft.to/lastmile_qr_scan'}",588,"['CREDITCARD', 'KEY', 'TRANSITCARD']",False,[],South Chicago Ave & 83rd St,11,588,classic,False,588,,,,,,
True,41.954468,-87.749594,a3b2be3a-a135-11e9-9cda-0a87ae2ba916,"{'ios': 'https://chi.lft.to/lastmile_qr_scan', 'android': 'https://chi.lft.to/lastmile_qr_scan'}",16991,"['CREDITCARD', 'KEY', 'TRANSITCARD']",False,[],Milwaukee Ave & Cuyler Ave,11,589,classic,False,589,,,,,,
True,41.953733,-87.740569,a3b2c354-a135-11e9-9cda-0a87ae2ba916,"{'ios': 'https://chi.lft.to/lastmile_qr_scan', 'android': 'https://chi.lft.to/lastmile_qr_scan'}",590,"['CREDITCARD', 'KEY', 'TRANSITCARD']",False,[],Kilbourn Ave & Irving Park Rd,11,590,classic,False,590,,,,,,
True,41.948818,-87.74002,a3b2c87c-a135-11e9-9cda-0a87ae2ba916,"{'ios': 'https://chi.lft.to/lastmile_qr_scan', 'android': 'https://chi.lft.to/lastmile_qr_scan'}",16994,"['CREDITCARD', 'KEY', 'TRANSITCARD']",False,[],Kilbourn Ave & Milwaukee Ave,15,591,classic,False,591,,,,,,
True,41.960631,-87.745359,a3b2cd97-a135-11e9-9cda-0a87ae2ba916,"{'ios': 'https://chi.lft.to/lastmile_qr_scan', 'android': 'https://chi.lft.to/lastmile_qr_scan'}",592,"['CREDITCARD', 'KEY', 'TRANSITCARD']",False,[],Knox Ave & Montrose Ave,11,592,classic,False,592,,,,,,
True,41.787539,-87.644874,a3b2d2b7-a135-11e9-9cda-0a87ae2ba916,"{'ios': 'https://chi.lft.to/lastmile_qr_scan', 'android': 'https://chi.lft.to/lastmile_qr_scan'}",593,"['CREDITCARD', 'KEY', 'TRANSITCARD']",False,[],Halsted St & 59th St,11,593,classic,False,593,,,,,,
True,41.805661,-87.683392,a3b2d7d9-a135-11e9-9cda-0a87ae2ba916,"{'ios': 'https://chi.lft.to/lastmile_qr_scan', 'android': 'https://chi.lft.to/lastmile_qr_scan'}",594,"['CREDITCARD', 'KEY', 'TRANSITCARD']",False,[],Western Blvd & 48th Pl,11,594,classic,False,594,,,,,,
True,41.736646,-87.622634,a3b2dcf0-a135-11e9-9cda-0a87ae2ba916,"{'ios': 'https://chi.lft.to/lastmile_qr_scan', 'android': 'https://chi.lft.to/lastmile_qr_scan'}",595,"['CREDITCARD', 'KEY', 'TRANSITCARD']",False,[],Wabash Ave & 87th St,11,595,classic,False,595,,,,,,
True,42.048214,-87.683485,a3b2e20c-a135-11e9-9cda-0a87ae2ba916,"{'ios': 'https://chi.lft.to/lastmile_qr_scan', 'android': 'https://chi.lft.to/lastmile_qr_scan'}",596,"['CREDITCARD', 'KEY', 'TRANSITCARD']",False,[],Benson Ave & Church St,15,596,classic,False,596,35,,,,,
True,42.032562,-87.679101,a3b2e72c-a135-11e9-9cda-0a87ae2ba916,"{'ios': 'https://chi.lft.to/lastmile_qr_scan', 'android': 'https://chi.lft.to/lastmile_qr_scan'}",E002,"['CREDITCARD', 'KEY', 'TRANSITCARD']",False,[],Chicago Ave & Washington St,15,597,classic,False,597,35,,,,,
True,42.025784,-87.684107,a3b2ec43-a135-11e9-9cda-0a87ae2ba916,"{'ios': 'https://chi.lft.to/lastmile_qr_scan', 'android': 'https://chi.lft.to/lastmile_qr_scan'}",598,"['CREDITCARD', 'KEY', 'TRANSITCARD']",False,[],Elmwood Ave & Austin St,15,598,classic,False,598,35,,,,,
True,42.039742,-87.699413,a3b2f15e-a135-11e9-9cda-0a87ae2ba916,"{'ios': 'https://chi.lft.to/lastmile_qr_scan', 'android': 'https://chi.lft.to/lastmile_qr_scan'}",599,"['CREDITCARD', 'KEY', 'TRANSITCARD']",False,[],Valli Produce - Evanston Plaza,15,599,classic,False,599,35,,,,,
True,42.048308,-87.698224,a3b2f698-a135-11e9-9cda-0a87ae2ba916,"{'ios': 'https://chi.lft.to/lastmile_qr_scan', 'android': 'https://chi.lft.to/lastmile_qr_scan'}",600,"['CREDITCARD', 'KEY', 'TRANSITCARD']",False,[],Dodge Ave & Church St,15,600,classic,False,600,35,,,,,
True,42.063598,-87.69873,a3b2fbb6-a135-11e9-9cda-0a87ae2ba916,"{'ios': 'https://chi.lft.to/lastmile_qr_scan', 'android': 'https://chi.lft.to/lastmile_qr_scan'}",E006,"['CREDITCARD', 'KEY', 'TRANSITCARD']",False,[],Central St Metra,15,601,classic,False,601,35,,,,,
True,42.064313,-87.686152,a3b300d3-a135-11e9-9cda-0a87ae2ba916,"{'ios': 'https://chi.lft.to/lastmile_qr_scan', 'android': 'https://chi.lft.to/lastmile_qr_scan'}",E007,"['CREDITCARD', 'KEY', 'TRANSITCARD']",False,[],Central St & Girard Ave,15,602,classic,False,602,35,,,,,
True,42.050491,-87.677821,a3b305e7-a135-11e9-9cda-0a87ae2ba916,"{'ios': 'https://chi.lft.to/lastmile_qr_scan', 'android': 'https://chi.lft.to/lastmile_qr_scan'}",E008,"['CREDITCARD', 'KEY', 'TRANSITCARD']",False,[],Chicago Ave & Sheridan Rd,15,603,classic,False,603,35,,,,,
True,42.058239,-87.677432,a3b30b06-a135-11e9-9cda-0a87ae2ba916,"{'ios': 'https://chi.lft.to/lastmile_qr_scan', 'android': 'https://chi.lft.to/lastmile_qr_scan'}",604,"['CREDITCARD', 'KEY', 'TRANSITCARD']",False,[],Sheridan Rd & Noyes St (NU),15,604,classic,False,604,35,,,,,
True,42.052939,-87.673447,a3b310ac-a135-11e9-9cda-0a87ae2ba916,"{'ios': 'https://chi.lft.to/lastmile_qr_scan', 'android': 'https://chi.lft.to/lastmile_qr_scan'}",605,"['CREDITCARD', 'KEY', 'TRANSITCARD']",False,[],University Library (NU),15,605,classic,False,605,35,,,,,
True,41.92459,-87.72785,a3b35885-a135-11e9-9cda-0a87ae2ba916,"{'ios': 'https://chi.lft.to/lastmile_qr_scan', 'android': 'https://chi.lft.to/lastmile_qr_scan'}",16010,"['CREDITCARD', 'KEY', 'TRANSITCARD']",False,[],Keystone Ave & Fullerton Ave,11,619,classic,False,619,,,,,,
True,41.898203,-87.637536,a3b35e21-a135-11e9-9cda-0a87ae2ba916,"{'ios': 'https://chi.lft.to/lastmile_qr_scan', 'android': 'https://chi.lft.to/lastmile_qr_scan'}",620,"['CREDITCARD', 'KEY', 'TRANSITCARD']",False,[],Orleans St & Chestnut St (NEXT Apts),15,620,classic,False,620,,,,,,
True,41.884114,-87.654264,a3b3634c-a135-11e9-9cda-0a87ae2ba916,"{'ios': 'https://chi.lft.to/lastmile_qr_scan', 'android': 'https://chi.lft.to/lastmile_qr_scan'}",18062,"['CREDITCARD', 'KEY', 'TRANSITCARD']",False,[],Aberdeen St & Randolph St,15,621,classic,False,621,,,,,,
True,41.900363,-87.696704,a3b3686c-a135-11e9-9cda-0a87ae2ba916,"{'ios': 'https://chi.lft.to/lastmile_qr_scan', 'android': 'https://chi.lft.to/lastmile_qr_scan'}",17660,"['CREDITCARD', 'KEY', 'TRANSITCARD']",False,[],California Ave & Cortez St,15,622,classic,False,622,,,,,,
True,41.872773,-87.623981,a3b36d8a-a135-11e9-9cda-0a87ae2ba916,"{'ios': 'https://chi.lft.to/lastmile_qr_scan', 'android': 'https://chi.lft.to/lastmile_qr_scan'}",623,"['CREDITCARD', 'KEY', 'TRANSITCARD']",False,[],Michigan Ave & 8th St,43,623,classic,False,623,,,,,,
True,41.876268,-87.629155,a3b372b1-a135-11e9-9cda-0a87ae2ba916,"{'ios': 'https://chi.lft.to/lastmile_qr_scan', 'android': 'https://chi.lft.to/lastmile_qr_scan'}",624,"['CREDITCARD', 'KEY', 'TRANSITCARD']",False,[],Dearborn St & Van Buren St,15,624,classic,False,624,,,,,,
True,42.03463185161588,-87.69918769598006,a3b377cb-a135-11e9-9cda-0a87ae2ba916,"{'ios': 'https://chi.lft.to/lastmile_qr_scan', 'android': 'https://chi.lft.to/lastmile_qr_scan'}",E011,"['CREDITCARD', 'KEY', 'TRANSITCARD']",False,[],Dodge Ave & Main St,15,625,classic,False,625,35,,,,,
True,41.867491,-87.63219,a3b37ce0-a135-11e9-9cda-0a87ae2ba916,"{'ios': 'https://chi.lft.to/lastmile_qr_scan', 'android': 'https://chi.lft.to/lastmile_qr_scan'}",KA1706005007,"['CREDITCARD', 'KEY', 'TRANSITCARD']",False,[],Delano Ct & Roosevelt Rd,19,626,classic,False,626,,,,,,
True,41.894877,-87.632326,a3b3820c-a135-11e9-9cda-0a87ae2ba916,"{'ios': 'https://chi.lft.to/lastmile_qr_scan', 'android': 'https://chi.lft.to/lastmile_qr_scan'}",KP1705001026,"['CREDITCARD', 'KEY', 'TRANSITCARD']",False,[],LaSalle Dr & Huron St,19,627,classic,False,627,,,,,,
True,41.91461,-87.667968,a3b38728-a135-11e9-9cda-0a87ae2ba916,"{'ios': 'https://chi.lft.to/lastmile_qr_scan', 'android': 'https://chi.lft.to/lastmile_qr_scan'}",18067,"['CREDITCARD', 'KEY', 'TRANSITCARD']",False,[],Walsh Park,23,628,classic,False,628,,,,,,
True,41.96108,-87.73569,a3b38c3f-a135-11e9-9cda-0a87ae2ba916,"{'ios': 'https://chi.lft.to/lastmile_qr_scan', 'android': 'https://chi.lft.to/lastmile_qr_scan'}",KA1706005015,"['CREDITCARD', 'KEY', 'TRANSITCARD']",False,[],Kildare Ave & Montrose Ave,15,630,classic,False,630,,,,,,
True,41.877618,-87.673895,a3b3915a-a135-11e9-9cda-0a87ae2ba916,"{'ios': 'https://chi.lft.to/lastmile_qr_scan', 'android': 'https://chi.lft.to/lastmile_qr_scan'}",631,"['CREDITCARD', 'KEY', 'TRANSITCARD']",False,[],Malcolm X College Vaccination Site,19,631,classic,False,631,,,,,,
True,41.94454,-87.654678,a3b3968b-a135-11e9-9cda-0a87ae2ba916,"{'ios': 'https://chi.lft.to/lastmile_qr_scan', 'android': 'https://chi.lft.to/lastmile_qr_scan'}",632,"['CREDITCARD', 'KEY', 'TRANSITCARD']",False,[],Clark St & Newport St,15,632,classic,False,632,,,,,,
True,41.895748,-87.620104,a3b39bb0-a135-11e9-9cda-0a87ae2ba916,"{'ios': 'https://chi.lft.to/lastmile_qr_scan', 'android': 'https://chi.lft.to/lastmile_qr_scan'}",18003,"['CREDITCARD', 'KEY', 'TRANSITCARD']",False,[],Fairbanks St & Superior St,11,635,classic,False,635,,,,,,
True,41.890028,-87.636618,a3b3a0c8-a135-11e9-9cda-0a87ae2ba916,"{'ios': 'https://chi.lft.to/lastmile_qr_scan', 'android': 'https://chi.lft.to/lastmile_qr_scan'}",636,"['CREDITCARD', 'KEY', 'TRANSITCARD']",False,[],Orleans St & Hubbard St,11,636,classic,False,636,,,,,,
True,41.895634,-87.672069,a3b419d9-a135-11e9-9cda-0a87ae2ba916,"{'ios': 'https://chi.lft.to/lastmile_qr_scan', 'android': 'https://chi.lft.to/lastmile_qr_scan'}",637,"['CREDITCARD', 'KEY', 'TRANSITCARD']",False,[],Wood St & Chicago Ave,15,637,classic,False,637,,,,,,
True,41.878316611830684,-87.64098107814789,a3b41f78-a135-11e9-9cda-0a87ae2ba916,"{'ios': 'https://chi.lft.to/lastmile_qr_scan', 'android': 'https://chi.lft.to/lastmile_qr_scan'}",638,"['CREDITCARD', 'KEY', 'TRANSITCARD']",False,[],Clinton St & Jackson Blvd,31,638,classic,False,638,,,,,,
True,41.965845,-87.645361,a3b424f6-a135-11e9-9cda-0a87ae2ba916,"{'ios': 'https://chi.lft.to/lastmile_qr_scan', 'android': 'https://chi.lft.to/lastmile_qr_scan'}",639,"['CREDITCARD', 'KEY', 'TRANSITCARD']",False,[],Lakefront Trail & Wilson Ave,15,639,classic,False,639,,,,,,
True,41.949923,-87.713949,a3b42a3e-a135-11e9-9cda-0a87ae2ba916,"{'ios': 'https://chi.lft.to/lastmile_qr_scan', 'android': 'https://chi.lft.to/lastmile_qr_scan'}",18016,"['CREDITCARD', 'KEY', 'TRANSITCARD']",False,[],Bernard St & Elston Ave,11,640,classic,False,640,,,,,,
True,41.914166,-87.716755,a3b42f5f-a135-11e9-9cda-0a87ae2ba916,"{'ios': 'https://chi.lft.to/lastmile_qr_scan', 'android': 'https://chi.lft.to/lastmile_qr_scan'}",18017,"['CREDITCARD', 'KEY', 'TRANSITCARD']",False,[],Central Park Ave & Bloomingdale Ave,11,641,classic,False,641,,,,,,
True,41.894745,-87.756895,a3b43478-a135-11e9-9cda-0a87ae2ba916,"{'ios': 'https://chi.lft.to/lastmile_qr_scan', 'android': 'https://chi.lft.to/lastmile_qr_scan'}",642,"['CREDITCARD', 'KEY', 'TRANSITCARD']",False,[],Latrobe Ave & Chicago Ave,7,642,classic,False,642,,,,,,
True,41.892048,-87.689397,a3b4399a-a135-11e9-9cda-0a87ae2ba916,"{'ios': 'https://chi.lft.to/lastmile_qr_scan', 'android': 'https://chi.lft.to/lastmile_qr_scan'}",643,"['CREDITCARD', 'KEY', 'TRANSITCARD']",False,[],Smith Park,15,643,classic,False,643,,,,,,
True,41.868563,-87.686234,a3b43eb7-a135-11e9-9cda-0a87ae2ba916,"{'ios': 'https://chi.lft.to/lastmile_qr_scan', 'android': 'https://chi.lft.to/lastmile_qr_scan'}",644,"['CREDITCARD', 'KEY', 'TRANSITCARD']",False,[],Western Ave & Fillmore St,11,644,classic,False,644,,,,,,
True,41.826712,-87.683144,a3b443ce-a135-11e9-9cda-0a87ae2ba916,"{'ios': 'https://chi.lft.to/lastmile_qr_scan', 'android': 'https://chi.lft.to/lastmile_qr_scan'}",18022,"['CREDITCARD', 'KEY', 'TRANSITCARD']",False,[],Archer (Damen) Ave & 37th St,11,645,classic,False,645,,,,,,
True,41.796642,-87.625923,a3b4497a-a135-11e9-9cda-0a87ae2ba916,"{'ios': 'https://chi.lft.to/lastmile_qr_scan', 'android': 'https://chi.lft.to/lastmile_qr_scan'}",646,"['CREDITCARD', 'KEY', 'TRANSITCARD']",False,[],State St & 54th St,11,646,classic,False,646,,,,,,
True,41.786691,-87.655859,a3b44eba-a135-11e9-9cda-0a87ae2ba916,"{'ios': 'https://chi.lft.to/lastmile_qr_scan', 'android': 'https://chi.lft.to/lastmile_qr_scan'}",647,"['CREDITCARD', 'KEY', 'TRANSITCARD']",False,[],Elizabeth St & 59th St,7,647,classic,False,647,,,,,,
True,41.77987,-87.650919,a3b453f2-a135-11e9-9cda-0a87ae2ba916,"{'ios': 'https://chi.lft.to/lastmile_qr_scan', 'android': 'https://chi.lft.to/lastmile_qr_scan'}",18025,"['CREDITCARD', 'KEY', 'TRANSITCARD']",False,[],Carpenter St & 63rd St,7,648,classic,False,648,,,,,,
True,41.779835,-87.634774,a3b4590f-a135-11e9-9cda-0a87ae2ba916,"{'ios': 'https://chi.lft.to/lastmile_qr_scan', 'android': 'https://chi.lft.to/lastmile_qr_scan'}",649,"['CREDITCARD', 'KEY', 'TRANSITCARD']",False,[],Stewart Ave & 63rd St,11,649,classic,False,649,,,,,,
True,41.768898,-87.635876,a3b45e26-a135-11e9-9cda-0a87ae2ba916,"{'ios': 'https://chi.lft.to/lastmile_qr_scan', 'android': 'https://chi.lft.to/lastmile_qr_scan'}",650,"['CREDITCARD', 'KEY', 'TRANSITCARD']",False,[],Eggleston Ave & 69th St,11,650,classic,False,650,,,,,,
True,41.766,-87.611726,a3b46866-a135-11e9-9cda-0a87ae2ba916,"{'ios': 'https://chi.lft.to/lastmile_qr_scan', 'android': 'https://chi.lft.to/lastmile_qr_scan'}",652,"['CREDITCARD', 'KEY', 'TRANSITCARD']",False,[],Rhodes Ave & 71st St,11,652,classic,False,652,,,,,,
True,41.780595,-87.584846,a3b46d7b-a135-11e9-9cda-0a87ae2ba916,"{'ios': 'https://chi.lft.to/lastmile_qr_scan', 'android': 'https://chi.lft.to/lastmile_qr_scan'}",653,"['CREDITCARD', 'KEY', 'TRANSITCARD']",False,[],Cornell Dr & Hayes Dr,11,653,classic,False,653,,,,,,
True,41.883073,-87.656952,a3b4728f-a135-11e9-9cda-0a87ae2ba916,"{'ios': 'https://chi.lft.to/lastmile_qr_scan', 'android': 'https://chi.lft.to/lastmile_qr_scan'}",654,"['CREDITCARD', 'KEY', 'TRANSITCARD']",False,[],Racine Ave & Washington Blvd,11,654,classic,False,654,,,,,,
True,41.979851,-87.681932,a3b477ac-a135-11e9-9cda-0a87ae2ba916,"{'ios': 'https://chi.lft.to/lastmile_qr_scan', 'android': 'https://chi.lft.to/lastmile_qr_scan'}",655,"['CREDITCARD', 'KEY', 'TRANSITCARD']",False,[],Hoyne Ave & Balmoral Ave,15,655,classic,False,655,,,,,,
True,41.885951,-87.677009,a3b47cbc-a135-11e9-9cda-0a87ae2ba916,"{'ios': 'https://chi.lft.to/lastmile_qr_scan', 'android': 'https://chi.lft.to/lastmile_qr_scan'}",KA17018054,"['CREDITCARD', 'KEY', 'TRANSITCARD']",False,[],Damen Ave & Walnut (Lake) St,15,656,classic,False,656,,,,,,
True,41.899181,-87.6722,a3b481e1-a135-11e9-9cda-0a87ae2ba916,"{'ios': 'https://chi.lft.to/lastmile_qr_scan', 'android': 'https://chi.lft.to/lastmile_qr_scan'}",657,"['CREDITCARD', 'KEY', 'TRANSITCARD']",False,[],Wood St & Augusta Blvd,15,657,classic,False,657,,,,,,
True,41.902997,-87.683825,a3b486f2-a135-11e9-9cda-0a87ae2ba916,"{'ios': 'https://chi.lft.to/lastmile_qr_scan', 'android': 'https://chi.lft.to/lastmile_qr_scan'}",658,"['CREDITCARD', 'KEY', 'TRANSITCARD']",False,[],Leavitt St & Division St,15,658,classic,False,658,,,,,,
True,41.895501,-87.682017,a3b48c07-a135-11e9-9cda-0a87ae2ba916,"{'ios': 'https://chi.lft.to/lastmile_qr_scan', 'android': 'https://chi.lft.to/lastmile_qr_scan'}",18058,"['CREDITCARD', 'KEY', 'TRANSITCARD']",False,[],Leavitt St & Chicago Ave,15,659,classic,False,659,,,,,,
True,42.004583,-87.661406,a3b49122-a135-11e9-9cda-0a87ae2ba916,"{'ios': 'https://chi.lft.to/lastmile_qr_scan', 'android': 'https://chi.lft.to/lastmile_qr_scan'}",660,"['CREDITCARD', 'KEY', 'TRANSITCARD']",False,[],Sheridan Rd & Columbia Ave,15,660,classic,False,660,,,,,,
True,42.057044,-87.686554,a3b4963f-a135-11e9-9cda-0a87ae2ba916,"{'ios': 'https://chi.lft.to/lastmile_qr_scan', 'android': 'https://chi.lft.to/lastmile_qr_scan'}",661,"['CREDITCARD', 'KEY', 'TRANSITCARD']",False,[],Evanston Civic Center,15,661,classic,False,661,35,,,,,
True,42.023463,-87.699595,a3b49b4c-a135-11e9-9cda-0a87ae2ba916,"{'ios': 'https://chi.lft.to/lastmile_qr_scan', 'android': 'https://chi.lft.to/lastmile_qr_scan'}",662,"['CREDITCARD', 'KEY', 'TRANSITCARD']",False,[],Dodge Ave & Mulford St,15,662,classic,False,662,35,,,,,
True,42.064854,-87.715297,a3b4a05c-a135-11e9-9cda-0a87ae2ba916,"{'ios': 'https://chi.lft.to/lastmile_qr_scan', 'android': 'https://chi.lft.to/lastmile_qr_scan'}",E014,"['CREDITCARD', 'KEY', 'TRANSITCARD']",False,[],Lincolnwood Dr & Central St,15,663,classic,False,663,35,,,,,
True,41.939354,-87.683282,a3b4a579-a135-11e9-9cda-0a87ae2ba916,"{'ios': 'https://chi.lft.to/lastmile_qr_scan', 'android': 'https://chi.lft.to/lastmile_qr_scan'}",KA17018068,"['CREDITCARD', 'KEY', 'TRANSITCARD']",False,[],Leavitt St & Belmont Ave,15,664,classic,False,664,,,,,,
True,41.747363,-87.580046,a3b4aa91-a135-11e9-9cda-0a87ae2ba916,"{'ios': 'https://chi.lft.to/lastmile_qr_scan', 'android': 'https://chi.lft.to/lastmile_qr_scan'}",665,"['CREDITCARD', 'KEY', 'TRANSITCARD']",False,[],South Chicago Ave & Elliot Ave,7,665,classic,False,665,,,,,,
True,41.907221,-87.655618,a3b4afb6-a135-11e9-9cda-0a87ae2ba916,"{'ios': 'https://chi.lft.to/lastmile_qr_scan', 'android': 'https://chi.lft.to/lastmile_qr_scan'}",18069,"['CREDITCARD', 'KEY', 'TRANSITCARD']",False,[],Cherry Ave & Blackhawk St,15,666,classic,False,666,,,,,,
True,41.89102331025185,-87.63547986745834,8995498f-1209-4b06-9317-01cd695b3b61,"{'ios': 'https://chi.lft.to/lastmile_qr_scan', 'android': 'https://chi.lft.to/lastmile_qr_scan'}",RN-,"['CREDITCARD', 'KEY', 'TRANSITCARD']",False,[],Franklin St & Illinois St,11,672,classic,False,672,,,,,,
True,41.92393131136619,-87.63582453131676,9e1fbaaa-e872-4505-ada6-5080e62bef77,"{'ios': 'https://chi.lft.to/lastmile_qr_scan', 'android': 'https://chi.lft.to/lastmile_qr_scan'}",LP-,"['CREDITCARD', 'KEY', 'TRANSITCARD']",False,[],Lincoln Park Conservatory,31,673,classic,False,673,,,,,,
True,41.765286,-87.621748,61695579-2f75-4090-a071-c76079b5fb5d,"{'ios': 'https://chi.lft.to/lastmile_qr_scan', 'android': 'https://chi.lft.to/lastmile_qr_scan'}",651,"['CREDITCARD', 'KEY', 'TRANSITCARD']",False,[],Michigan Ave & 71st St,7,674,classic,False,674,,,,,,
True,41.743717,-87.634088,cec28069-2a36-48e1-bcec-2364b44834c4,"{'ios': 'https://chi.lft.to/lastmile_qr_scan', 'android': 'https://chi.lft.to/lastmile_qr_scan'}",20120,"['CREDITCARD', 'KEY', 'TRANSITCARD']",False,[],Stewart Ave & 83rd St,15,677,classic,False,677,,,,,,
True,41.76160543804394,-87.64416097666071,a60781db-2bec-4a15-a4a2-363297aefcec,"{'ios': 'https://chi.lft.to/lastmile_qr_scan', 'android': 'https://chi.lft.to/lastmile_qr_scan'}",20244,"['CREDITCARD', 'KEY', 'TRANSITCARD']",False,[],Halsted St & 73rd St,15,678,classic,False,678,,,,,,
True,41.75923602425868,-87.66347408294678,6997d1fb-9887-4c15-b5db-524d45a2f101,"{'ios': 'https://chi.lft.to/lastmile_qr_scan', 'android': 'https://chi.lft.to/lastmile_qr_scan'}",20245,"['CREDITCARD', 'KEY', 'TRANSITCARD']",False,[],Ashland Ave & 74th St,15,679,classic,False,679,,,,,,
True,41.75248701249013,-87.6439021574879,c3f1be96-07c2-4c65-8a1d-f2203de88495,"{'ios': 'https://chi.lft.to/lastmile_qr_scan', 'android': 'https://chi.lft.to/lastmile_qr_scan'}",20233,"['CREDITCARD', 'KEY', 'TRANSITCARD']",False,[],Halsted St & 78th St,15,681,classic,False,681,,,,,,
True,41.729425278020955,-87.60952949523924,03a1610c-3ba0-4b85-b512-bc26791cb7ee,"{'ios': 'https://chi.lft.to/lastmile_qr_scan', 'android': 'https://chi.lft.to/lastmile_qr_scan'}",20110,"['CREDITCARD', 'KEY', 'TRANSITCARD']",False,[],Eberhart Ave & 91st St,15,682,classic,False,682,,,,,,
True,41.75220484941116,-87.66369938850403,bbf9b599-1873-4133-b670-a0ef9e5c429c,"{'ios': 'https://chi.lft.to/lastmile_qr_scan', 'android': 'https://chi.lft.to/lastmile_qr_scan'}",20234,"['CREDITCARD', 'KEY', 'TRANSITCARD']",False,[],Ashland Ave & 78th St,15,683,classic,False,683,,,,,,
True,41.7282338,-87.6675239,f0f9f5dc-3d3f-4a32-aa3e-b87566e44de9,"{'ios': 'https://chi.lft.to/lastmile_qr_scan', 'android': 'https://chi.lft.to/lastmile_qr_scan'}",20103,"['CREDITCARD', 'KEY', 'TRANSITCARD']",False,[],Prospect Sq & 91st St,15,684,classic,False,684,,,,,,
True,41.737848476733404,-87.64489978551863,d6456ded-180b-4d6e-b020-3aa80bce5c2c,"{'ios': 'https://chi.lft.to/lastmile_qr_scan', 'android': 'https://chi.lft.to/lastmile_qr_scan'}",20101,"['CREDITCARD', 'KEY', 'TRANSITCARD']",False,[],Summit Ave & 86th St,15,685,classic,False,685,,,,,,
True,41.73681521440671,-87.58280128240585,a5a5cb39-a6ee-45bc-96a0-6455ae111bad,"{'ios': 'https://chi.lft.to/lastmile_qr_scan', 'android': 'https://chi.lft.to/lastmile_qr_scan'}",20231,"['CREDITCARD', 'KEY', 'TRANSITCARD']",False,[],East End Ave & 87th St,15,686,classic,False,686,,,,,,
True,41.741486528618054,-87.65841007232666,e63300bd-4ca3-4255-adfd-522289d68b8a,"{'ios': 'https://chi.lft.to/lastmile_qr_scan', 'android': 'https://chi.lft.to/lastmile_qr_scan'}",20121,"['CREDITCARD', 'KEY', 'TRANSITCARD']",False,[],Loomis Blvd & 84th St,15,687,classic,False,687,,,,,,
True,41.726798963701185,-87.65429019927979,a2aa2a53-3439-459b-9345-c21435e99a72,"{'ios': 'https://chi.lft.to/lastmile_qr_scan', 'android': 'https://chi.lft.to/lastmile_qr_scan'}",20119,"['CREDITCARD', 'KEY', 'TRANSITCARD']",False,[],Elizabeth St & 92nd St,15,689,classic,False,689,,,,,,
True,41.7218499,-87.6228544,792ceba0-564f-4a2c-bcb5-90da781ffeef,"{'ios': 'https://chi.lft.to/lastmile_qr_scan', 'android': 'https://chi.lft.to/lastmile_qr_scan'}",20104,"['CREDITCARD', 'KEY', 'TRANSITCARD']",False,[],State St & 95th St,15,690,classic,False,690,,,,,,
True,41.727575659299575,-87.63482809066771,bc4d498d-c272-4474-beca-10e5268e7253,"{'ios': 'https://chi.lft.to/lastmile_qr_scan', 'android': 'https://chi.lft.to/lastmile_qr_scan'}",20118,"['CREDITCARD', 'KEY', 'TRANSITCARD']",False,[],Eggleston Ave & 92nd St,15,691,classic,False,691,,,,,,
True,41.733668790714724,-87.55834221839905,6849c4e2-cffa-432b-8d83-5c0524594b4f,"{'ios': 'https://chi.lft.to/lastmile_qr_scan', 'android': 'https://chi.lft.to/lastmile_qr_scan'}",20239,"['CREDITCARD', 'KEY', 'TRANSITCARD']",False,[],Marquette Ave & 89th St,15,692,classic,False,692,,,,,,
True,41.737335600416664,-87.54851460456847,2a80f8d9-85dc-4c36-ba07-86d775ffd1ee,"{'ios': 'https://chi.lft.to/lastmile_qr_scan', 'android': 'https://chi.lft.to/lastmile_qr_scan'}",20229,"['CREDITCARD', 'KEY', 'TRANSITCARD']",False,[],Baltimore Ave & 87th St,15,693,classic,False,693,,,,,,
True,41.72820421535798,-87.54970014095306,b09832de-1c8e-4b92-bd72-bd98dc80b92c,"{'ios': 'https://chi.lft.to/lastmile_qr_scan', 'android': 'https://chi.lft.to/lastmile_qr_scan'}",20242,"['CREDITCARD', 'KEY', 'TRANSITCARD']",False,[],Houston Ave & 92nd St,15,694,classic,False,694,,,,,,
True,41.7072503677818,-87.60766267776489,4fcebf8a-b065-4cd1-a167-211a45ada30e,"{'ios': 'https://chi.lft.to/lastmile_qr_scan', 'android': 'https://chi.lft.to/lastmile_qr_scan'}",20113,"['CREDITCARD', 'KEY', 'TRANSITCARD']",False,[],Dauphin Ave & 103rd St,15,695,classic,False,695,,,,,,
True,41.70717027117756,-87.6184719800949,10327d47-3c3a-433e-9e38-80638da64232,"{'ios': 'https://chi.lft.to/lastmile_qr_scan', 'android': 'https://chi.lft.to/lastmile_qr_scan'}",20112,"['CREDITCARD', 'KEY', 'TRANSITCARD']",False,[],Indiana Ave & 103rd St,15,696,classic,False,696,,,,,,
True,41.713397484422444,-87.56584167480469,4b4b0d88-80e0-4ef9-a8d1-cdd6a16722f9,"{'ios': 'https://chi.lft.to/lastmile_qr_scan', 'android': 'https://chi.lft.to/lastmile_qr_scan'}",20226,"['CREDITCARD', 'KEY', 'TRANSITCARD']",False,[],Oglesby Ave & 100th St,15,697,classic,False,697,,,,,,
True,41.69170975847015,-87.61000156402588,080ab938-2c1b-4fcf-a83d-74c5ae6ff305,"{'ios': 'https://chi.lft.to/lastmile_qr_scan', 'android': 'https://chi.lft.to/lastmile_qr_scan'}",20131,"['CREDITCARD', 'KEY', 'TRANSITCARD']",False,[],Cottage Grove Ave & 111th Pl,15,698,classic,False,698,,,,,,
True,41.70012137923888,-87.61225998401642,87c01e57-8a00-430d-9eb3-2abe51e535dd,"{'ios': 'https://chi.lft.to/lastmile_qr_scan', 'android': 'https://chi.lft.to/lastmile_qr_scan'}",20109,"['CREDITCARD', 'KEY', 'TRANSITCARD']",False,[],Vernon Ave & 107th St,15,699,classic,False,699,,,,,,
True,41.719712183618824,-87.6430195569992,a21de1a5-f5bc-4b50-8a13-aa28b7dcfa95,"{'ios': 'https://chi.lft.to/lastmile_qr_scan', 'android': 'https://chi.lft.to/lastmile_qr_scan'}",20105,"['CREDITCARD', 'KEY', 'TRANSITCARD']",False,[],Halsted St & 96th St,15,700,classic,False,700,,,,,,
True,41.72229074095262,-87.57896840572357,3d1da4c7-23c9-4731-81f5-91db08f6c97f,"{'ios': 'https://chi.lft.to/lastmile_qr_scan', 'android': 'https://chi.lft.to/lastmile_qr_scan'}",20228,"['CREDITCARD', 'KEY', 'TRANSITCARD']",False,[],Constance Ave & 95th St,15,701,classic,False,701,,,,,,
True,41.728264268162725,-87.59729862213135,c4040b17-88bd-40ab-9aae-2655d6771580,"{'ios': 'https://chi.lft.to/lastmile_qr_scan', 'android': 'https://chi.lft.to/lastmile_qr_scan'}",20235,"['CREDITCARD', 'KEY', 'TRANSITCARD']",False,[],Greenwood Ave & 91st St,15,702,classic,False,702,,,,,,
True,41.71870315475741,-87.59703576564789,95185a0d-da45-406a-a892-6b37b0d29fa8,"{'ios': 'https://chi.lft.to/lastmile_qr_scan', 'android': 'https://chi.lft.to/lastmile_qr_scan'}",20238,"['CREDITCARD', 'KEY', 'TRANSITCARD']",False,[],Greenwood Ave & 97th St,15,703,classic,False,703,,,,,,
True,41.65186780228521,-87.53967136144637,759171ce-f355-4740-948d-e14bb8f7dc0e,"{'ios': 'https://chi.lft.to/lastmile_qr_scan', 'android': 'https://chi.lft.to/lastmile_qr_scan'}",20214,"['CREDITCARD', 'KEY', 'TRANSITCARD']",False,[],Avenue O & 134th St,15,704,classic,False,704,,,,,,
True,41.731394943302355,-87.58574366569519,7e435d2a-617e-4c3f-bed0-a8801c20f265,"{'ios': 'https://chi.lft.to/lastmile_qr_scan', 'android': 'https://chi.lft.to/lastmile_qr_scan'}",20236,"['CREDITCARD', 'KEY', 'TRANSITCARD']",False,[],Stony Island Ave & 90th St,15,705,classic,False,705,,,,,,
True,41.73655902282214,-87.60125756263733,625e37ea-24ea-4f13-9a54-6322466ec521,"{'ios': 'https://chi.lft.to/lastmile_qr_scan', 'android': 'https://chi.lft.to/lastmile_qr_scan'}",20116,"['CREDITCARD', 'KEY', 'TRANSITCARD']",False,[],Dauphin Ave & 87th St,15,706,classic,False,706,,,,,,
True,41.702800850225906,-87.55972623825073,14d6e4b0-d0cc-4ccb-b757-e596d8c24a99,"{'ios': 'https://chi.lft.to/lastmile_qr_scan', 'android': 'https://chi.lft.to/lastmile_qr_scan'}",20221,"['CREDITCARD', 'KEY', 'TRANSITCARD']",False,[],Torrence Ave & 106th St,15,707,classic,False,707,,,,,,
True,41.73715146431056,-87.57274031639099,59019cbc-47d4-4743-afb2-e71e9767df0c,"{'ios': 'https://chi.lft.to/lastmile_qr_scan', 'android': 'https://chi.lft.to/lastmile_qr_scan'}",20230,"['CREDITCARD', 'KEY', 'TRANSITCARD']",False,[],Clyde Ave & 87th St,15,708,classic,False,708,,,,,,
True,41.68701479467118,-87.62105226516724,a065d29d-a081-47f4-8d0f-9a572f6085fe,"{'ios': 'https://chi.lft.to/lastmile_qr_scan', 'android': 'https://chi.lft.to/lastmile_qr_scan'}",20243,"['CREDITCARD', 'KEY', 'TRANSITCARD']",False,[],Michigan Ave & 114th St,15,709,classic,False,709,,,,,,
True,41.7045750872071,-87.52823173999786,c1f104db-9ee7-4999-bd4a-ddd766c75e04,"{'ios': 'https://chi.lft.to/lastmile_qr_scan', 'android': 'https://chi.lft.to/lastmile_qr_scan'}",20222,"['CREDITCARD', 'KEY', 'TRANSITCARD']",False,[],Burnham Greenway & 105th St,11,710,classic,False,710,,,,,,
True,41.69226255589166,-87.64261186122894,a77136ee-060b-433b-88d0-ec74af1ef7ad,"{'ios': 'https://chi.lft.to/lastmile_qr_scan', 'android': 'https://chi.lft.to/lastmile_qr_scan'}",20127,"['CREDITCARD', 'KEY', 'TRANSITCARD']",False,[],Halsted St & 111th St,15,711,classic,False,711,,,,,,
True,41.705307996998194,-87.62921690940857,4c57c316-82a8-4b9d-a16c-ae7922a2057a,"{'ios': 'https://chi.lft.to/lastmile_qr_scan', 'android': 'https://chi.lft.to/lastmile_qr_scan'}",20130,"['CREDITCARD', 'KEY', 'TRANSITCARD']",False,[],Wentworth Ave & 104th St,15,712,classic,False,712,,,,,,
True,41.68493159519296,-87.6452887058258,aea853ed-c70c-4b1b-a7a8-d33869d8d58d,"{'ios': 'https://chi.lft.to/lastmile_qr_scan', 'android': 'https://chi.lft.to/lastmile_qr_scan'}",20207,"['CREDITCARD', 'KEY', 'TRANSITCARD']",False,[],Major Taylor Trail & 115th St,15,713,classic,False,713,,,,,,
True,41.67064383687979,-87.62258648872375,34dc92b5-7cb7-4536-856b-46644d31b48c,"{'ios': 'https://chi.lft.to/lastmile_qr_scan', 'android': 'https://chi.lft.to/lastmile_qr_scan'}",20210,"['CREDITCARD', 'KEY', 'TRANSITCARD']",False,[],State St & 123rd St,15,714,classic,False,714,,,,,,
True,41.66869635332246,-87.63711333274841,732c9f35-0c82-4128-acc3-2cf447298b1d,"{'ios': 'https://chi.lft.to/lastmile_qr_scan', 'android': 'https://chi.lft.to/lastmile_qr_scan'}",20208,"['CREDITCARD', 'KEY', 'TRANSITCARD']",False,[],Major Taylor Trail & 124th St,15,715,classic,False,715,,,,,,
True,41.658413151101065,-87.61071089698817,ce334dea-c5ba-45ca-a52d-39dc161683b0,"{'ios': 'https://chi.lft.to/lastmile_qr_scan', 'android': 'https://chi.lft.to/lastmile_qr_scan'}",20211,"['CREDITCARD', 'KEY', 'TRANSITCARD']",False,[],Eberhart Ave & 131st St,15,716,classic,False,716,,,,,,
True,41.68587705562333,-87.57382392883301,8759a858-d7eb-4382-b38f-2223c3f9e25d,"{'ios': 'https://chi.lft.to/lastmile_qr_scan', 'android': 'https://chi.lft.to/lastmile_qr_scan'}",20232,"['CREDITCARD', 'KEY', 'TRANSITCARD']",False,[],Big Marsh Park,15,717,classic,False,717,,,,,,
True,41.71274876109496,-87.53481388092041,98fe78dc-4efa-4b39-a47c-0d94abcdb221,"{'ios': 'https://chi.lft.to/lastmile_qr_scan', 'android': 'https://chi.lft.to/lastmile_qr_scan'}",20223,"['CREDITCARD', 'KEY', 'TRANSITCARD']",False,[],Ewing Ave & Burnham Greenway,11,718,classic,False,718,,,,,,
True,41.68100145911039,-87.5379312226869,56eccb5b-f4d7-43c5-b554-a6a0a7585e5e,"{'ios': 'https://chi.lft.to/lastmile_qr_scan', 'android': 'https://chi.lft.to/lastmile_qr_scan'}",20218,"['CREDITCARD', 'KEY', 'TRANSITCARD']",False,[],Avenue O & 118th St,15,719,classic,False,719,,,,,,
True,41.66631200825726,-87.55721569061278,8fd03909-317e-4b6c-b8e9-f4c28b4c90b1,"{'ios': 'https://chi.lft.to/lastmile_qr_scan', 'android': 'https://chi.lft.to/lastmile_qr_scan'}",20217,"['CREDITCARD', 'KEY', 'TRANSITCARD']",False,[],Torrence Ave & 126th Pl,15,720,classic,False,720,,,,,,
True,41.71216410359803,-87.66773343086243,ad9f8858-dc27-43ca-8fdc-78044b22f1fc,"{'ios': 'https://chi.lft.to/lastmile_qr_scan', 'android': 'https://chi.lft.to/lastmile_qr_scan'}",20107,"['CREDITCARD', 'KEY', 'TRANSITCARD']",False,[],Walden Pkwy & 100th St,15,721,classic,False,721,,,,,,
True,41.659150427597744,-87.55076229572296,bbb67562-1f82-4dfa-a532-231ddc35444e,"{'ios': 'https://chi.lft.to/lastmile_qr_scan', 'android': 'https://chi.lft.to/lastmile_qr_scan'}",20213,"['CREDITCARD', 'KEY', 'TRANSITCARD']",False,[],Commercial Ave & 130th St,15,722,classic,False,722,,,,,,
True,41.699206168127674,-87.66891896724701,da9e6779-5056-4d45-bae3-9dc325ed2807,"{'ios': 'https://chi.lft.to/lastmile_qr_scan', 'android': 'https://chi.lft.to/lastmile_qr_scan'}",20108,"['CREDITCARD', 'KEY', 'TRANSITCARD']",False,[],Hale Ave & 107th St,11,723,classic,False,723,,,,,,
True,41.684595072026184,-87.67070800065994,48b2ed2f-18aa-4a9b-b27d-db9f6d0c8c16,"{'ios': 'https://chi.lft.to/lastmile_qr_scan', 'android': 'https://chi.lft.to/lastmile_qr_scan'}",20206,"['CREDITCARD', 'KEY', 'TRANSITCARD']",False,[],Homewood Ave & 115th St,15,724,classic,False,724,,,,,,
True,41.70513978893236,-87.6424241065979,22afe78c-e8f7-4a80-969e-7ddeafdf49da,"{'ios': 'https://chi.lft.to/lastmile_qr_scan', 'android': 'https://chi.lft.to/lastmile_qr_scan'}",20125,"['CREDITCARD', 'KEY', 'TRANSITCARD']",False,[],Halsted St & 104th St,15,725,classic,False,725,,,,,,
True,41.70492556499764,-87.65686810958869,cefa52d6-b185-4969-89a6-20eb65f5c294,"{'ios': 'https://chi.lft.to/lastmile_qr_scan', 'android': 'https://chi.lft.to/lastmile_qr_scan'}",20124,"['CREDITCARD', 'KEY', 'TRANSITCARD']",False,[],Vincennes Ave & 104th St,15,726,classic,False,726,,,,,,
True,41.687561623357375,-87.65547573566435,62cb5f1d-7dcb-4fe1-849f-d928288d73b9,"{'ios': 'https://chi.lft.to/lastmile_qr_scan', 'android': 'https://chi.lft.to/lastmile_qr_scan'}",20129,"['CREDITCARD', 'KEY', 'TRANSITCARD']",False,[],Ada St & 113th St,15,727,classic,False,727,,,,,,
True,41.691211034981045,-87.68129736185074,b43a9764-2b1d-4fa0-a13f-7e05eddc7fcd,"{'ios': 'https://chi.lft.to/lastmile_qr_scan', 'android': 'https://chi.lft.to/lastmile_qr_scan'}",20205,"['CREDITCARD', 'KEY', 'TRANSITCARD']",False,[],Western Ave & 111th St,23,728,classic,False,728,,,,,,
True,41.69131919221066,-87.71288573741913,0eeb6baf-c653-4a1a-af17-99f686116b89,"{'ios': 'https://chi.lft.to/lastmile_qr_scan', 'android': 'https://chi.lft.to/lastmile_qr_scan'}",20203,"['CREDITCARD', 'KEY', 'TRANSITCARD']",False,[],Lawndale Ave & 111th St,15,730,classic,False,730,,,,,,
True,41.717878301935,-87.56459176540375,ee925757-31ce-41ad-9bb7-73b1bb363616,"{'ios': 'https://chi.lft.to/lastmile_qr_scan', 'android': 'https://chi.lft.to/lastmile_qr_scan'}",20227,"['CREDITCARD', 'KEY', 'TRANSITCARD']",False,[],Bradley Park,11,731,classic,False,731,,,,,,
True,41.64850076266409,-87.54608988761902,ff21c158-de98-46c6-9ef7-7082bdb7c634,"{'ios': 'https://chi.lft.to/lastmile_qr_scan', 'android': 'https://chi.lft.to/lastmile_qr_scan'}",20215,"['CREDITCARD', 'KEY', 'TRANSITCARD']",False,[],Hegewisch Metra Station,15,732,classic,False,732,,,,,,
True,41.71331739547703,-87.55109757184982,2f5957e4-e83a-4d5a-b073-ec9422989315,"{'ios': 'https://chi.lft.to/lastmile_qr_scan', 'android': 'https://chi.lft.to/lastmile_qr_scan'}",20225,"['CREDITCARD', 'KEY', 'TRANSITCARD']",False,[],Commercial Ave & 100th St,15,734,classic,False,734,,,,,,
True,41.70458710218908,-87.68120348453522,0f9b826b-8885-4c25-96fd-9e2c2074c34e,"{'ios': 'https://chi.lft.to/lastmile_qr_scan', 'android': 'https://chi.lft.to/lastmile_qr_scan'}",20123,"['CREDITCARD', 'KEY', 'TRANSITCARD']",False,[],Western Ave & 104th St,15,735,classic,False,735,,,,,,
True,41.69239474587557,-87.70096063613892,8a677aec-442b-47b8-aff7-50852e1d26c0,"{'ios': 'https://chi.lft.to/lastmile_qr_scan', 'android': 'https://chi.lft.to/lastmile_qr_scan'}",20204,"['CREDITCARD', 'KEY', 'TRANSITCARD']",False,[],Kedzie Ave & 110th St,11,736,classic,False,736,,,,,,
True,41.71896342165455,-87.60829567909241,9e5ce0b6-198f-48fa-9363-64ab5ec2b222,"{'ios': 'https://chi.lft.to/lastmile_qr_scan', 'android': 'https://chi.lft.to/lastmile_qr_scan'}",20106,"['CREDITCARD', 'KEY', 'TRANSITCARD']",False,[],Chicago State University,23,737,classic,False,737,,,,,,
False,41.944019,-87.663975,motivate_CHI_1436495115557663136,"{'ios': 'https://chi.lft.to/lastmile_qr_scan', 'android': 'https://chi.lft.to/lastmile_qr_scan'}",,,False,[],N Southport Ave & W Newport Ave,8,1436495115557663136,lightweight,False,1436495115557663136,,CHI,"3420-3424, North Southport Avenue, Wrigleyville, Lake View, Chicago, Cook County, Illinois, 60613, United States of America",CITY_PILOT_RACK,8.0,motivate_CHI_1436495115557663136
False,41.7037764,-87.7013952,motivate_CHI_1521679584953491780,"{'ios': 'https://chi.lft.to/lastmile_qr_scan', 'android': 'https://chi.lft.to/lastmile_qr_scan'}",,,False,[],Kedzie Ave & 104th St,8,1521679584953491780,lightweight,False,1521679584953491780,,CHI,"10400-10412, South Kedzie Avenue, Mount Greenwood, Chicago, Lake Township, Cook County, Illinois, 60655, United States",CITY_PILOT_RACK,8.0,motivate_CHI_1521679584953491780
False,41.902901,-87.631282,motivate_CHI_1436495096608724634,"{'ios': 'https://chi.lft.to/lastmile_qr_scan', 'android': 'https://chi.lft.to/lastmile_qr_scan'}",,,False,[],N Clark St & W Elm St,4,1436495096608724634,lightweight,False,1436495096608724634,,CHI,"75, West Elm Street, Near North Side, Chicago, Cook County, Illinois, 60610, United States of America",CITY_PILOT_RACK,4.0,motivate_CHI_1436495096608724634
False,41.9122813,-87.6773211,motivate_CHI_1521686986436309688,"{'ios': 'https://chi.lft.to/lastmile_qr_scan', 'android': 'https://chi.lft.to/lastmile_qr_scan'}",,,False,[],Damen Ave & Wabansia Ave,8,1521686986436309688,lightweight,False,1521686986436309688,,CHI,"1953, West Wabansia Avenue, Wicker Park, West Town, Chicago, Cook County, Illinois, 60622, United States",CITY_PILOT_RACK,8.0,motivate_CHI_1521686986436309688
False,41.692615,-87.615425,motivate_CHI_1448642179437434486,"{'ios': 'https://chi.lft.to/lastmile_qr_scan', 'android': 'https://chi.lft.to/lastmile_qr_scan'}",,,False,[],Martin Luther King Dr & 111th St,6,1448642179437434486,lightweight,False,1448642179437434486,,CHI,"Filter Building, East 111th Street, Arcade Row, Chicago, Cook County, Illinois, 60628, United States of America",CITY_PILOT_RACK,6.0,motivate_CHI_1448642179437434486
False,41.679804,-87.620843,motivate_CHI_1448642175142467180,"{'ios': 'https://chi.lft.to/lastmile_qr_scan', 'android': 'https://chi.lft.to/lastmile_qr_scan'}",,,False,[],S Michigan Ave & E 118th St,6,1448642175142467180,lightweight,False,1448642175142467180,,CHI,"34, East 118th Street, Chicago, Cook County, Illinois, 60628, United States of America",CITY_PILOT_RACK,6.0,motivate_CHI_1448642175142467180
False,41.738246,-87.531067,motivate_CHI_1448642188027369090,"{'ios': 'https://chi.lft.to/lastmile_qr_scan', 'android': 'https://chi.lft.to/lastmile_qr_scan'}",,,False,[],Steelworkers Park,6,1448642188027369090,lightweight,False,1448642188027369090,,CHI,"Tribute to the Past, East 87th Street, South Chicago, Chicago, Cook County, Illinois, 60617, United States of America",CITY_PILOT_RACK,6.0,motivate_CHI_1448642188027369090
False,41.701217,-87.649345,motivate_CHI_1448642162257565290,"{'ios': 'https://chi.lft.to/lastmile_qr_scan', 'android': 'https://chi.lft.to/lastmile_qr_scan'}",,,False,[],S Aberdeen St & W 106th St,3,1448642162257565290,lightweight,False,1448642162257565290,,CHI,"Mount Vernon Elementary School, South Aberdeen Street, Washington Heights, Chicago, Cook County, Illinois, 60643, United States of America",CITY_PILOT_RACK,3.0,motivate_CHI_1448642162257565290
False,41.707338,-87.59399,motivate_CHI_1448642183732401786,"{'ios': 'https://chi.lft.to/lastmile_qr_scan', 'android': 'https://chi.lft.to/lastmile_qr_scan'}",,,False,[],Woodlawn & 103rd - Olive Harvey Vaccination Site,10,1448642183732401786,lightweight,False,1448642183732401786,,CHI,"10495, South Woodlawn Avenue, Chicago, Cook County, Illinois, 60628, United States of America",CITY_PILOT_RACK,10.0,motivate_CHI_1448642183732401786
False,41.885586,-87.6531893,motivate_CHI_1436495105198659246,"{'ios': 'https://chi.lft.to/lastmile_qr_scan', 'android': 'https://chi.lft.to/lastmile_qr_scan'}",,,False,[],N Carpenter St & W Lake St,6,1436495105198659246,lightweight,False,1436495105198659246,,CHI,"1023, West Lake Street, Near West Side, Chicago, Cook County, Illinois, 60661, United States of America",CITY_PILOT_RACK,6.0,motivate_CHI_1436495105198659246
False,41.917805,-87.653449,motivate_CHI_1436495105198659242,"{'ios': 'https://chi.lft.to/lastmile_qr_scan', 'android': 'https://chi.lft.to/lastmile_qr_scan'}",,,False,[],W Armitage Ave & N Sheffield Ave,8,1436495105198659242,lightweight,False,1436495105198659242,,CHI,"1964, North Sheffield Avenue, Lincoln Park, Chicago, Cook County, Illinois, 60614, United States of America",CITY_PILOT_RACK,8.0,motivate_CHI_1436495105198659242
False,41.943838,-87.671469,motivate_CHI_1436495122378528446,"{'ios': 'https://chi.lft.to/lastmile_qr_scan', 'android': 'https://chi.lft.to/lastmile_qr_scan'}",,,False,[],N Paulina St & Lincoln Ave,6,1436495122378528446,lightweight,False,1436495122378528446,,CHI,"3413-3419, North Lincoln Avenue, Lake View, Chicago, Cook County, Illinois, 60613, United States of America",CITY_PILOT_RACK,6.0,motivate_CHI_1436495122378528446
False,41.9362263,-87.6537676,motivate_CHI_1436495118083561146,"{'ios': 'https://chi.lft.to/lastmile_qr_scan', 'android': 'https://chi.lft.to/lastmile_qr_scan'}",,,False,[],N Sheffield Ave & W Wellington Ave,6,1436495118083561146,lightweight,False,1436495118083561146,,CHI,"2953-2955, North Sheffield Avenue, Lincoln Park, Lake View, Chicago, Cook County, Illinois, 60657, United States of America",CITY_PILOT_RACK,6.0,motivate_CHI_1436495118083561146
False,41.9325593,-87.6423847,motivate_CHI_1521690221159885714,"{'ios': 'https://chi.lft.to/lastmile_qr_scan', 'android': 'https://chi.lft.to/lastmile_qr_scan'}",,,False,[],Hampden Ct & Diversey Ave,8,1521690221159885714,lightweight,False,1521690221159885714,,CHI,"2768, North Hampden Court, Lincoln Park, Chicago, Lake View Township, Cook County, Illinois, 60614, United States",CITY_PILOT_RACK,8.0,motivate_CHI_1521690221159885714
False,41.885579,-87.648484,motivate_CHI_1436495109493626546,"{'ios': 'https://chi.lft.to/lastmile_qr_scan', 'android': 'https://chi.lft.to/lastmile_qr_scan'}",,,False,[],N Green St & W Lake St,8,1436495109493626546,lightweight,False,1436495109493626546,,CHI,"817, West Lake Street, Near West Side, Chicago, Cook County, Illinois, 60661, United States of America",CITY_PILOT_RACK,8.0,motivate_CHI_1436495109493626546
False,41.6926176,-87.6280518,motivate_CHI_1448642162257565286,"{'ios': 'https://chi.lft.to/lastmile_qr_scan', 'android': 'https://chi.lft.to/lastmile_qr_scan'}",,,False,[],S Wentworth Ave & W 111th St,5,1448642162257565286,lightweight,False,1448642162257565286,,CHI,"207, West 111th Street, Morgan Park, Chicago, Cook County, Illinois, 60643, United States of America",CITY_PILOT_RACK,5.0,motivate_CHI_1448642162257565286
False,41.8579886,-87.6319447,motivate_CHI_1500206163166594382,"{'ios': 'https://chi.lft.to/lastmile_qr_scan', 'android': 'https://chi.lft.to/lastmile_qr_scan'}",,,False,[],Ping Tom Park (East),6,1500206163166594382,lightweight,False,1500206163166594382,,CHI,"Stone Talk, South Wentworth Avenue, Near South Side, South Loop, Chicago, Cook County, Illinois, 60616, United States",CITY_PILOT_RACK,6.0,motivate_CHI_1500206163166594382
False,41.653564,-87.617054,motivate_CHI_1448642188027369086,"{'ios': 'https://chi.lft.to/lastmile_qr_scan', 'android': 'https://chi.lft.to/lastmile_qr_scan'}",,,False,[],Indiana Ave & 133rd St,6,1448642188027369086,lightweight,False,1448642188027369086,,CHI,"210, East 133rd Street, Riverdale, Chicago, Cook County, Illinois, 60827, United States of America",CITY_PILOT_RACK,6.0,motivate_CHI_1448642188027369086
False,41.883043,-87.649931,motivate_CHI_1436495109493626544,"{'ios': 'https://chi.lft.to/lastmile_qr_scan', 'android': 'https://chi.lft.to/lastmile_qr_scan'}",,,False,[],W Washington Blvd & N Peoria St,6,1436495109493626544,lightweight,False,1436495109493626544,,CHI,"901, West Washington Boulevard, Near West Side, Chicago, Cook County, Illinois, 60644, United States of America",CITY_PILOT_RACK,6.0,motivate_CHI_1436495109493626544
False,41.705846,-87.717074,motivate_CHI_1448642179437434482,"{'ios': 'https://chi.lft.to/lastmile_qr_scan', 'android': 'https://chi.lft.to/lastmile_qr_scan'}",,,False,[],W 103rd St & S Avers Ave,10,1448642179437434482,lightweight,False,1448642179437434482,,CHI,"Graham School of Management, South Avers Avenue, Mount Greenwood, Chicago, Cook County, Illinois, 60655, United States of America",CITY_PILOT_RACK,10.0,motivate_CHI_1448642179437434482
False,41.705588,-87.602938,motivate_CHI_1448642183732401788,"{'ios': 'https://chi.lft.to/lastmile_qr_scan', 'android': 'https://chi.lft.to/lastmile_qr_scan'}",,,False,[],Maryland Ave & 104th St,10,1448642183732401788,lightweight,False,1448642183732401788,,CHI,"Pullman Wheel Works, 833-901, East 104th Street, Chicago, Cook County, Illinois, 60628, United States of America",CITY_PILOT_RACK,10.0,motivate_CHI_1448642183732401788
False,41.6881169,-87.5365497,motivate_CHI_1448642175142467184,"{'ios': 'https://chi.lft.to/lastmile_qr_scan', 'android': 'https://chi.lft.to/lastmile_qr_scan'}",,,False,[],Avenue L & 114th St,10,1448642175142467184,lightweight,False,1448642175142467184,,CHI,"George Washington High School, South Avenue L, East Side, Chicago, Cook County, Illinois, 60617, United States of America",CITY_PILOT_RACK,10.0,motivate_CHI_1448642175142467184
False,41.935581,-87.644042,motivate_CHI_1436495100903691938,"{'ios': 'https://chi.lft.to/lastmile_qr_scan', 'android': 'https://chi.lft.to/lastmile_qr_scan'}",,,False,[],W Oakdale Ave & N Broadway,6,1436495100903691938,lightweight,False,1436495100903691938,,CHI,"2919-2935, North Broadway, Lincoln Park, Lake View, Chicago, Cook County, Illinois, 60657, United States of America",CITY_PILOT_RACK,6.0,motivate_CHI_1436495100903691938
False,41.895809,-87.678519,motivate_CHI_1436495119852630436,"{'ios': 'https://chi.lft.to/lastmile_qr_scan', 'android': 'https://chi.lft.to/lastmile_qr_scan'}",,,False,[],N Damen Ave & W Chicago Ave,6,1436495119852630436,lightweight,False,1436495119852630436,,CHI,"Mariano's, 2021, West Chicago Avenue, West Town, Chicago, Cook County, Illinois, 60622, United States of America",CITY_PILOT_RACK,6.0,motivate_CHI_1436495119852630436
